{"type": "FeatureCollection", "features": [{"type": "Feature", "properties": {"name": "Adsız Çokgen", "stroke": "#ff0000", "stroke-width": 2, "stroke-opacity": 1, "fill": "#ff0000", "fill-opacity": 0.5}, "geometry": {"type": "Polygon", "coordinates": [[[32.84344788452842, 39.85847727644236], [32.84362488316343, 39.8592186328788], [32.84332678099164, 39.85925317434458], [32.84313240647961, 39.85857426514588], [32.84344788452842, 39.85847727644236]]]}}, {"type": "Feature", "properties": {"name": "Adsız Çokgen", "stroke": "#ff0000", "stroke-width": 2, "stroke-opacity": 1, "fill": "#ff0000", "fill-opacity": 0.5}, "geometry": {"type": "Polygon", "coordinates": [[[32.84451646539555, 39.85973970391652], [32.84449417360587, 39.85964798399223], [32.84446836055086, 39.85955692000929], [32.84510614225795, 39.85947250783411], [32.84515772914943, 39.85966517879773], [32.84451646539555, 39.85973970391652]]]}}, {"type": "Feature", "properties": {"name": "Adsız Çokgen", "stroke": "#ff0000", "stroke-width": 2, "stroke-opacity": 1, "fill": "#ff0000", "fill-opacity": 0.5}, "geometry": {"type": "Polygon", "coordinates": [[[32.84301173080846, 39.85973526632174], [32.84295295866187, 39.85946641984783], [32.84324662896011, 39.85941592378745], [32.84330799132935, 39.85970598032447], [32.84301173080846, 39.85973526632174]]]}}, {"type": "Feature", "properties": {"name": "Adsız Çokgen", "stroke": "#ff0000", "stroke-width": 2, "stroke-opacity": 1, "fill": "#ff0000", "fill-opacity": 0.5}, "geometry": {"type": "Polygon", "coordinates": [[[32.84420773780064, 39.86037530046526], [32.84417941069982, 39.86014224679705], [32.84451300579084, 39.8601196807956], [32.84455780215688, 39.86032849709697], [32.84420773780064, 39.86037530046526]]]}}, {"type": "Feature", "properties": {"name": "Adsız Çokgen", "stroke": "#ff0000", "stroke-width": 2, "stroke-opacity": 1, "fill": "#ff0000", "fill-opacity": 0.5}, "geometry": {"type": "Polygon", "coordinates": [[[32.84367207043036, 39.86076242896745], [32.84363888360967, 39.8606165008153], [32.84398278753763, 39.86056593111395], [32.8440200890594, 39.86071614235989], [32.84367207043036, 39.86076242896745]]]}}, {"type": "Feature", "properties": {"name": "Adsız Çokgen", "stroke": "#ff0000", "stroke-width": 2, "stroke-opacity": 1, "fill": "#ff0000", "fill-opacity": 0.5}, "geometry": {"type": "Polygon", "coordinates": [[[32.84277185810178, 39.86026892422586], [32.84271869859083, 39.86003931972106], [32.84305958785025, 39.86001777399888], [32.84311414762502, 39.86023828035397], [32.84277185810178, 39.86026892422586]]]}}, {"type": "Feature", "properties": {"name": "Adsız Çokgen", "stroke": "#ff0000", "stroke-width": 2, "stroke-opacity": 1, "fill": "#ff0000", "fill-opacity": 0.5}, "geometry": {"type": "Polygon", "coordinates": [[[32.84276742799268, 39.86047591872616], [32.84300710664177, 39.86039908723359], [32.84315077822396, 39.86058053641583], [32.84291020069205, 39.8606657739878], [32.84276742799268, 39.86047591872616]]]}}, {"type": "Feature", "properties": {"name": "Adsız Çokgen", "stroke": "#ff0000", "stroke-width": 2, "stroke-opacity": 1, "fill": "#ff0000", "fill-opacity": 0.5}, "geometry": {"type": "Polygon", "coordinates": [[[32.84319936098399, 39.86081284800271], [32.8432386382933, 39.86064873140452], [32.84354596302902, 39.86067568879055], [32.84349624316617, 39.86085766118671], [32.84319936098399, 39.86081284800271]]]}}, {"type": "Feature", "properties": {"name": "Adsız Çokgen", "stroke": "#ff0000", "stroke-width": 2, "stroke-opacity": 1, "fill": "#ff0000", "fill-opacity": 0.5}, "geometry": {"type": "Polygon", "coordinates": [[[32.84176203683118, 39.85785240310774], [32.84199006860126, 39.85803677875573], [32.84173652174747, 39.85825593441771], [32.84143806045567, 39.85806668211696], [32.84176203683118, 39.85785240310774]]]}}, {"type": "Feature", "properties": {"name": "Adsız Çokgen", "stroke": "#ff0000", "stroke-width": 2, "stroke-opacity": 1, "fill": "#ff0000", "fill-opacity": 0.5}, "geometry": {"type": "Polygon", "coordinates": [[[32.84132810452859, 39.85731941220397], [32.84160104647853, 39.85754143944632], [32.84134813165421, 39.85774867708731], [32.84102840922399, 39.85753512917546], [32.84132810452859, 39.85731941220397]]]}}, {"type": "Feature", "properties": {"name": "Adsız Çokgen", "stroke": "#ff0000", "stroke-width": 2, "stroke-opacity": 1, "fill": "#ff0000", "fill-opacity": 0.5}, "geometry": {"type": "Polygon", "coordinates": [[[32.84079099590161, 39.85697820539736], [32.84103010214719, 39.85715783452495], [32.84080087631985, 39.85730784123014], [32.84056148437895, 39.85712191343209], [32.84079099590161, 39.85697820539736]]]}}, {"type": "Feature", "properties": {"name": "Adsız Çokgen", "stroke": "#ff0000", "stroke-width": 2, "stroke-opacity": 1, "fill": "#ff0000", "fill-opacity": 0.5}, "geometry": {"type": "Polygon", "coordinates": [[[32.84130210568715, 39.85499052238266], [32.84118118272487, 39.85472811627969], [32.84143222945041, 39.85467809553506], [32.84152580693687, 39.85495552885474], [32.84130210568715, 39.85499052238266]]]}}, {"type": "Feature", "properties": {"name": "Adsız Çokgen", "stroke": "#ff0000", "stroke-width": 2, "stroke-opacity": 1, "fill": "#ff0000", "fill-opacity": 0.5}, "geometry": {"type": "Polygon", "coordinates": [[[32.84055290895877, 39.8558585886104], [32.84067584471994, 39.855637462333], [32.84115049229717, 39.85573693438052], [32.84103538745993, 39.85595437983986], [32.84055290895877, 39.8558585886104]]]}}, {"type": "Feature", "properties": {"name": "Adsız Çokgen", "stroke": "#ff0000", "stroke-width": 2, "stroke-opacity": 1, "fill": "#ff0000", "fill-opacity": 0.5}, "geometry": {"type": "Polygon", "coordinates": [[[32.84093402448039, 39.85623193343245], [32.84114959194497, 39.85608489793869], [32.8415294722834, 39.85644799726604], [32.84131848080771, 39.85659300181956], [32.84093402448039, 39.85623193343245]]]}}, {"type": "Feature", "properties": {"name": "Adsız Çokgen", "stroke": "#ff0000", "stroke-width": 2, "stroke-opacity": 1, "fill": "#ff0000", "fill-opacity": 0.5}, "geometry": {"type": "Polygon", "coordinates": [[[32.84167964524466, 39.85677291898787], [32.84164471865694, 39.85651999516703], [32.84194757438647, 39.85648620494958], [32.84196812296723, 39.85673468428728], [32.84167964524466, 39.85677291898787]]]}}, {"type": "Feature", "properties": {"name": "Adsız Çokgen", "stroke": "#ff0000", "stroke-width": 2, "stroke-opacity": 1, "fill": "#ff0000", "fill-opacity": 0.5}, "geometry": {"type": "Polygon", "coordinates": [[[32.84200480629245, 39.85641402979483], [32.84213206292638, 39.85602110879277], [32.84236523904192, 39.85604600251688], [32.84223524730145, 39.85644795132124], [32.84200480629245, 39.85641402979483]]]}}, {"type": "Feature", "properties": {"name": "Adsız Çokgen", "stroke": "#ff0000", "stroke-width": 2, "stroke-opacity": 1, "fill": "#ff0000", "fill-opacity": 0.5}, "geometry": {"type": "Polygon", "coordinates": [[[32.84228350520829, 39.85532370240265], [32.84257757336155, 39.85551659006942], [32.84227696881741, 39.85578654738088], [32.84199870733143, 39.85561429484058], [32.84228350520829, 39.85532370240265]]]}}, {"type": "Feature", "properties": {"name": "Adsız Çokgen", "stroke": "#ff0000", "stroke-width": 2, "stroke-opacity": 1, "fill": "#ff0000", "fill-opacity": 0.5}, "geometry": {"type": "Polygon", "coordinates": [[[32.83901923462687, 39.85914642461989], [32.8396174341264, 39.85955537501744], [32.83946987245044, 39.85983532350488], [32.83915476208711, 39.85980927535552], [32.83915978028791, 39.85957354317799], [32.83880061257072, 39.85932618287144], [32.83901923462687, 39.85914642461989]]]}}, {"type": "Feature", "properties": {"name": "Adsız Çokgen", "stroke": "#ff0000", "stroke-width": 2, "stroke-opacity": 1, "fill": "#ff0000", "fill-opacity": 0.5}, "geometry": {"type": "Polygon", "coordinates": [[[32.83993081580138, 39.85981192897481], [32.84020006291622, 39.86020488928581], [32.83998827972105, 39.86050264220906], [32.83969801035842, 39.86032668152595], [32.83985420271093, 39.8601635082522], [32.83969358197508, 39.85995067062137], [32.83993081580138, 39.85981192897481]]]}}, {"type": "Feature", "properties": {"name": "Adsız Çokgen", "stroke": "#ff0000", "stroke-width": 2, "stroke-opacity": 1, "fill": "#ff0000", "fill-opacity": 0.5}, "geometry": {"type": "Polygon", "coordinates": [[[32.84029541123131, 39.86067719912705], [32.84054593679606, 39.86057268365784], [32.84078416226568, 39.86104891775229], [32.84054908662388, 39.86133281373247], [32.84027516340913, 39.8612012370797], [32.84046836384928, 39.86098558798539], [32.84029541123131, 39.86067719912705]]]}}, {"type": "Feature", "properties": {"name": "Adsız Çokgen", "stroke": "#ff0000", "stroke-width": 2, "stroke-opacity": 1, "fill": "#ff0000", "fill-opacity": 0.5}, "geometry": {"type": "Polygon", "coordinates": [[[32.84100803994157, 39.86185859536084], [32.84082268215861, 39.86150415419843], [32.84100918992514, 39.86142915123845], [32.84126812847624, 39.86188096796987], [32.84101247026005, 39.86214973829912], [32.84077202453815, 39.86199611635362], [32.84100803994157, 39.86185859536084]]]}}, {"type": "Feature", "properties": {"name": "Adsız Çokgen", "stroke": "#ff0000", "stroke-width": 2, "stroke-opacity": 1, "fill": "#ff0000", "fill-opacity": 0.5}, "geometry": {"type": "Polygon", "coordinates": [[[32.8391433963839, 39.8606002996024], [32.8394409769522, 39.86062999847341], [32.83938022363233, 39.86098521093134], [32.83959707984693, 39.8611179038449], [32.83946865242712, 39.86125829167625], [32.83909253759069, 39.8609912860265], [32.8391433963839, 39.8606002996024]]]}}, {"type": "Feature", "properties": {"name": "Adsız Çokgen", "stroke": "#ff0000", "stroke-width": 2, "stroke-opacity": 1, "fill": "#ff0000", "fill-opacity": 0.5}, "geometry": {"type": "Polygon", "coordinates": [[[32.83581886850816, 39.85856382742413], [32.83545132132813, 39.85784948831342], [32.83582268252211, 39.85773614276142], [32.8361869288109, 39.85846644419007], [32.83581886850816, 39.85856382742413]]]}}, {"type": "Feature", "properties": {"name": "Adsız Çokgen", "stroke": "#ff0000", "stroke-width": 2, "stroke-opacity": 1, "fill": "#ff0000", "fill-opacity": 0.5}, "geometry": {"type": "Polygon", "coordinates": [[[32.84714431728003, 39.86771468194963], [32.84725120674661, 39.86758769119156], [32.84753825346326, 39.86728506221952], [32.84775237521411, 39.86735618153853], [32.84744082797514, 39.86787688392231], [32.84714431728003, 39.86771468194963]]]}}, {"type": "Feature", "properties": {"name": "Adsız Çokgen", "stroke": "#ff0000", "stroke-width": 2, "stroke-opacity": 1, "fill": "#ff0000", "fill-opacity": 0.5}, "geometry": {"type": "Polygon", "coordinates": [[[32.8485739063842, 39.86719006316806], [32.84868500961583, 39.86741999907393], [32.84831494314609, 39.86748872280005], [32.84819170476271, 39.86726292259022], [32.8485739063842, 39.86719006316806]]]}}, {"type": "Feature", "properties": {"name": "Adsız Çokgen", "stroke": "#ff0000", "stroke-width": 2, "stroke-opacity": 1, "fill": "#ff0000", "fill-opacity": 0.5}, "geometry": {"type": "Polygon", "coordinates": [[[32.84455297468126, 39.8617608526596], [32.84489657607574, 39.86207254878838], [32.84462924319678, 39.86221103440332], [32.8443246201786, 39.86187436507998], [32.84455297468126, 39.8617608526596]]]}}, {"type": "Feature", "properties": {"name": "Adsız Çokgen", "stroke": "#ff0000", "stroke-width": 2, "stroke-opacity": 1, "fill": "#ff0000", "fill-opacity": 0.5}, "geometry": {"type": "Polygon", "coordinates": [[[32.84497100904419, 39.86155634602623], [32.84497160024976, 39.86133209159349], [32.84544234724532, 39.8613246719818], [32.84544675509822, 39.86156801642726], [32.84497100904419, 39.86155634602623]]]}}, {"type": "Feature", "properties": {"name": "Adsız Çokgen", "stroke": "#ff0000", "stroke-width": 2, "stroke-opacity": 1, "fill": "#ff0000", "fill-opacity": 0.5}, "geometry": {"type": "Polygon", "coordinates": [[[32.85108236751004, 39.87218486031454], [32.85098820713142, 39.87178792132114], [32.85143768769923, 39.87173454179251], [32.85145802796129, 39.87215599161064], [32.85108236751004, 39.87218486031454]]]}}, {"type": "Feature", "properties": {"name": "Adsız Çokgen", "stroke": "#ff0000", "stroke-width": 2, "stroke-opacity": 1, "fill": "#ff0000", "fill-opacity": 0.5}, "geometry": {"type": "Polygon", "coordinates": [[[32.85033362086571, 39.87132223377342], [32.85090958661925, 39.87126346776462], [32.85095925867499, 39.87152705825348], [32.85040844161499, 39.8715866495255], [32.85033362086571, 39.87132223377342]]]}}]}