{
  "type": "FeatureCollection",
  "features": [
    {
      "type": "Feature",
      "properties": {},
      "geometry": {
        "type": "Polygon",
        "coordinates": [
          [
            [
              32.8432405,
              39.8583176
            ],
            [
              32.8455254,
              39.8595176
            ],
            [
              32.8451245,
              39.8602561
            ],
            [
              32.8447638,
              39.8608099
            ],
            [
              32.8436414,
              39.8612561
            ],
            [
              32.8426994,
              39.86101
            ],
            [
              32.8423586,
              39.8605638
            ],
            [
              32.8424789,
              39.8597176
            ],
            [
              32.8429198,
              39.8585945
            ],
            [
              32.8432405,
              39.8583176
            ]
          ]
        ]
      }
    },
    {
      "type": "Feature",
      "properties": {},
      "geometry": {
        "type": "Polygon",
        "coordinates": [
          [
            [
              32.8416861,
              39.8585937
            ],
            [
              32.8402613,
              39.8575841
            ],
            [
              32.839969,
              39.8568129
            ],
            [
              32.8407362,
              39.8564483
            ],
            [
              32.8426725,
              39.8578085
            ],
            [
              32.8416861,
              39.8585937
            ]
          ]
        ]
      }
    },
    {
      "type": "Feature",
      "properties": {},
      "geometry": {
        "type": "Polygon",
        "coordinates": [
          [
            [
              32.843179,
              39.8568442
            ],
            [
              32.8436648,
              39.8567717
            ],
            [
              32.8443666,
              39.8568753
            ],
            [
              32.8451494,
              39.8569893
            ],
            [
              32.8456892,
              39.8553212
            ],
            [
              32.844785,
              39.8550726
            ],
            [
              32.8437323,
              39.854741
            ],
            [
              32.8434354,
              39.8549793
            ],
            [
              32.843233,
              39.855487
            ],
            [
              32.8432734,
              39.8558807
            ],
            [
              32.842936,
              39.8559325
            ],
            [
              32.8428551,
              39.856637
            ],
            [
              32.843179,
              39.8568442
            ]
          ]
        ]
      }
    },
    {
      "type": "Feature",
      "properties": {},
      "geometry": {
        "type": "Polygon",
        "coordinates": [
          [
            [
              32.8410685,
              39.8566467
            ],
            [
              32.8416523,
              39.8569625
            ],
            [
              32.8422805,
              39.8568553
            ],
            [
              32.8426495,
              39.8563195
            ],
            [
              32.8427093,
              39.8560133
            ],
            [
              32.8429486,
              39.8557684
            ],
            [
              32.843148,
              39.855776
            ],
            [
              32.8432876,
              39.8549647
            ],
            [
              32.8416324,
              39.8551943
            ],
            [
              32.8402065,
              39.8554852
            ],
            [
              32.8401965,
              39.8558296
            ],
            [
              32.8405555,
              39.8562813
            ],
            [
              32.8410685,
              39.8566467
            ]
          ]
        ]
      }
    },
    {
      "type": "Feature",
      "properties": {},
      "geometry": {
        "type": "Polygon",
        "coordinates": [
          [
            [
              32.837525,
              39.8605874
            ],
            [
              32.8377683,
              39.8600271
            ],
            [
              32.8383673,
              39.8590788
            ],
            [
              32.8391159,
              39.8589782
            ],
            [
              32.8400518,
              39.8596535
            ],
            [
              32.840632,
              39.8601851
            ],
            [
              32.8410999,
              39.8610902
            ],
            [
              32.8416614,
              39.8621965
            ],
            [
              32.8413058,
              39.8625413
            ],
            [
              32.8402951,
              39.8626275
            ],
            [
              32.838648,
              39.8629723
            ],
            [
              32.8387042,
              39.86257
            ],
            [
              32.838517,
              39.8619666
            ],
            [
              32.8381239,
              39.8615931
            ],
            [
              32.8383673,
              39.8613201
            ],
            [
              32.8381614,
              39.8608747
            ],
            [
              32.8378993,
              39.860688
            ],
            [
              32.837525,
              39.8605874
            ]
          ]
        ]
      }
    },
    {
      "type": "Feature",
      "properties": {},
      "geometry": {
        "type": "Polygon",
        "coordinates": [
          [
            [
              32.8356032,
              39.8586774
            ],
            [
              32.8350791,
              39.857686
            ],
            [
              32.8361834,
              39.8576573
            ],
            [
              32.8371941,
              39.8580883
            ],
            [
              32.8375123,
              39.8588498
            ],
            [
              32.8378117,
              39.8593526
            ],
            [
              32.8369695,
              39.8593383
            ],
            [
              32.8363893,
              39.8594676
            ],
            [
              32.8355283,
              39.8597118
            ],
            [
              32.8352475,
              39.8587923
            ],
            [
              32.8356032,
              39.8586774
            ]
          ]
        ]
      }
    },
    {
      "type": "Feature",
      "properties": {},
      "geometry": {
        "type": "Polygon",
        "coordinates": [
          [
            [
              32.8449233,
              39.8610192
            ],
            [
              32.8439084,
              39.861619
            ],
            [
              32.8442235,
              39.8624026
            ],
            [
              32.8451814,
              39.8626058
            ],
            [
              32.8461392,
              39.8617157
            ],
            [
              32.8463787,
              39.8603517
            ],
            [
              32.8457863,
              39.8599937
            ],
            [
              32.8454335,
              39.8599647
            ],
            [
              32.8449233,
              39.8610192
            ]
          ]
        ]
      }
    },
    {
      "type": "Feature",
      "properties": {},
      "geometry": {
        "type": "Polygon",
        "coordinates": [
          [
            [
              32.847911,
              39.8679134
            ],
            [
              32.8475859,
              39.8680597
            ],
            [
              32.8471039,
              39.8680683
            ],
            [
              32.8467589,
              39.8678353
            ],
            [
              32.8467029,
              39.8676288
            ],
            [
              32.8475212,
              39.86682
            ],
            [
              32.8479697,
              39.8670781
            ],
            [
              32.8483957,
              39.8670781
            ],
            [
              32.8489001,
              39.8669405
            ],
            [
              32.8491355,
              39.8672416
            ],
            [
              32.8490907,
              39.8676718
            ],
            [
              32.8488216,
              39.8680074
            ],
            [
              32.8483284,
              39.8680332
            ],
            [
              32.847911,
              39.8679134
            ]
          ]
        ]
      }
    },
    {
      "type": "Feature",
      "properties": {},
      "geometry": {
        "type": "Polygon",
        "coordinates": [
          [
            [
              32.8515838,
              39.8726139
            ],
            [
              32.8514842,
              39.8724801
            ],
            [
              32.8510235,
              39.8723081
            ],
            [
              32.8504436,
              39.8719181
            ],
            [
              32.8501644,
              39.8713525
            ],
            [
              32.8510609,
              39.8711996
            ],
            [
              32.8520694,
              39.8710372
            ],
            [
              32.8525052,
              39.8711136
            ],
            [
              32.8522437,
              39.8714576
            ],
            [
              32.8522561,
              39.8718207
            ],
            [
              32.8522935,
              39.8725947
            ],
            [
              32.8515838,
              39.8726139
            ]
          ]
        ]
      }
    },
    {
      "type": "Feature",
      "properties": {},
      "geometry": {
        "type": "Polygon",
        "coordinates": [
          [
            [
              32.8445713,
              39.8587691
            ],
            [
              32.8476238,
              39.8589084
            ],
            [
              32.8477373,
              39.8598318
            ],
            [
              32.8462281,
              39.8597534
            ],
            [
              32.8452181,
              39.8592307
            ],
            [
              32.8445713,
              39.8587691
            ]
          ]
        ]
      }
    },
    {
      "type": "Feature",
      "properties": {},
      "geometry": {
        "type": "Polygon",
        "coordinates": [
          [
            [
              32.8404782,
              39.8522601
            ],
            [
              32.8416924,
              39.8527567
            ],
            [
              32.8420669,
              39.8521905
            ],
            [
              32.842396,
              39.8514674
            ],
            [
              32.8402513,
              39.8508837
            ],
            [
              32.8402173,
              39.8516678
            ],
            [
              32.8404782,
              39.8522601
            ]
          ]
        ]
      }
    }
  ]
}