<?xml version="1.0" encoding="UTF-8"?>
<kml xmlns="http://www.opengis.net/kml/2.2" xmlns:gx="http://www.google.com/kml/ext/2.2" xmlns:kml="http://www.opengis.net/kml/2.2" xmlns:atom="http://www.w3.org/2005/Atom">
<Document>
	<name>Vadi - Demolished Total.kml</name>
	<StyleMap id="msn_ylw-pushpin">
		<Pair>
			<key>normal</key>
			<styleUrl>#sn_ylw-pushpin</styleUrl>
		</Pair>
		<Pair>
			<key>highlight</key>
			<styleUrl>#sh_ylw-pushpin</styleUrl>
		</Pair>
	</StyleMap>
	<Style id="sh_ylw-pushpin">
		<IconStyle>
			<scale>1.3</scale>
			<Icon>
				<href>http://maps.google.com/mapfiles/kml/pushpin/ylw-pushpin.png</href>
			</Icon>
			<hotSpot x="20" y="2" xunits="pixels" yunits="pixels"/>
		</IconStyle>
		<BalloonStyle>
		</BalloonStyle>
		<LineStyle>
			<color>ff0055ff</color>
		</LineStyle>
		<PolyStyle>
			<color>ff00aaff</color>
		</PolyStyle>
	</Style>
	<Style id="sn_ylw-pushpin">
		<IconStyle>
			<scale>1.1</scale>
			<Icon>
				<href>http://maps.google.com/mapfiles/kml/pushpin/ylw-pushpin.png</href>
			</Icon>
			<hotSpot x="20" y="2" xunits="pixels" yunits="pixels"/>
		</IconStyle>
		<BalloonStyle>
		</BalloonStyle>
		<LineStyle>
			<color>ff0055ff</color>
		</LineStyle>
		<PolyStyle>
			<color>ff00aaff</color>
		</PolyStyle>
	</Style>
	<Folder>
		<name>Vadi - Demolished Total</name>
		<open>1</open>
		<Placemark>
			<name>Vadi</name>
			<visibility>0</visibility>
			<styleUrl>#msn_ylw-pushpin</styleUrl>
			<Polygon>
				<tessellate>1</tessellate>
				<outerBoundaryIs>
					<LinearRing>
						<coordinates>
							32.83347029638249,39.85582382147471,0 32.83287432446676,39.85587741094006,0 32.83282806757583,39.85532815914043,0 32.83280421260627,39.85493237447045,0 32.83277135069368,39.85433071627662,0 32.8326987853473,39.85368167752079,0 32.83269452809198,39.85367584429694,0 32.83289573542041,39.85324504538001,0 32.83333792930954,39.85281510004512,0 32.83457689173406,39.85302256094339,0 32.83575031717543,39.8527775428344,0 32.83628863383128,39.85235367462511,0 32.83607412067329,39.85179899983481,0 32.83672860465823,39.85162950130627,0 32.83824811218862,39.85257322187339,0 32.84024258715142,39.85163385168007,0 32.84036028221484,39.8521632374021,0 32.84109137949835,39.85256433507076,0 32.84190206894958,39.85280516541648,0 32.84215829347738,39.85244757749295,0 32.84275833669454,39.85254027532117,0 32.84329616062688,39.85277783610573,0 32.84424283430406,39.85266693998103,0 32.84445926965021,39.85361479314561,0 32.84427212518656,39.85365442255717,0 32.84393082919534,39.85378178321444,0 32.84371711881728,39.85395956428218,0 32.84367556795779,39.85419585747994,0 32.84369329109548,39.85450156335992,0 32.84386123609438,39.85477240376826,0 32.84441673834326,39.85490862372007,0 32.84498143918686,39.85515357853623,0 32.84565839756064,39.85537154115923,0 32.84559374003818,39.85580297838901,0 32.84607408495381,39.85720632128174,0 32.84618262203407,39.85746430090414,0 32.84652181912746,39.85779507953622,0 32.84764484771872,39.85809767582941,0 32.84778540607876,39.85853177250915,0 32.84794533693677,39.85895723734573,0 32.84881401462034,39.8600622567845,0 32.84881435734481,39.86006708116653,0 32.84913660417251,39.86060043394529,0 32.8492496340044,39.86096765348842,0 32.84949196323762,39.86130284504625,0 32.84993463331761,39.86175908602057,0 32.85041725370878,39.86171649805799,0 32.85114361400404,39.86185462911828,0 32.85117843539518,39.8622673424788,0 32.85189449826712,39.86385793452202,0 32.85083590863591,39.86464822944775,0 32.85207762118581,39.86552615003805,0 32.84990748392956,39.86757655030322,0 32.85007811862946,39.86769468539507,0 32.85075891352378,39.86808521469793,0 32.85041293891209,39.86829222840734,0 32.84989806580101,39.86890757487537,0 32.84974550064855,39.86935461442872,0 32.84935376826461,39.86998606017163,0 32.84934140188691,39.8699985738335,0 32.84962255126873,39.87033110804499,0 32.85002511028457,39.87044057801493,0 32.85001460622978,39.87124445481625,0 32.85025943686433,39.87124859256306,0 32.85093153872761,39.8711211953048,0 32.85176962043019,39.87103800341894,0 32.85223535044908,39.87096982316341,0 32.8524748382597,39.871120545551,0 32.8523204086508,39.87137031350223,0 32.85233016827511,39.87201574246014,0 32.85232464261168,39.87269259480989,0 32.8523396509003,39.87295583124199,0 32.85242867132397,39.87327321576223,0 32.85258953624208,39.87324600955486,0 32.85317031652626,39.87325129537917,0 32.85324051522983,39.87339468635169,0 32.85307149277968,39.87377568822588,0 32.85274357121195,39.87387401666255,0 32.85186009882075,39.87421539807199,0 32.85098758726836,39.87458263411056,0 32.85047707197366,39.87472652294741,0 32.85011762060476,39.87507876233846,0 32.84959600492093,39.87513776227485,0 32.84931764836055,39.87540839730448,0 32.84906197390109,39.87510297283588,0 32.84868238836204,39.87480389164953,0 32.8484959282959,39.87454387149165,0 32.84786165270982,39.87379352009309,0 32.84643694043483,39.87280688796995,0 32.84548953425338,39.87257686248044,0 32.84531746681586,39.87293100220381,0 32.84331402520245,39.87225675460827,0 32.84286321352011,39.87183030907567,0 32.84250925126548,39.87126825346785,0 32.84368724204439,39.87097141707907,0 32.84385443661931,39.87102162712698,0 32.84446332164913,39.87091843044661,0 32.84509402612671,39.87080927613394,0 32.84519313414584,39.87047114130601,0 32.84521874010731,39.86985318265516,0 32.84507729132235,39.86945757571333,0 32.84476417814469,39.86881207775969,0 32.84449002870218,39.86864144682678,0 32.84402339210913,39.868683311901,0 32.84381261656887,39.86860285617757,0 32.84309919434421,39.86855531947883,0 32.84189887893227,39.86871028484848,0 32.84160526062572,39.86835451502773,0 32.84053377499708,39.86864640087749,0 32.83998710504237,39.86803066800992,0 32.84058023357958,39.86775586954329,0 32.84140435832369,39.86712407580708,0 32.8420798495218,39.86643308633116,0 32.84241453572645,39.86620797498114,0 32.84254302951492,39.86563514827218,0 32.84249103001753,39.86504926747914,0 32.84213107686591,39.86513296580905,0 32.84107175860192,39.8655148912583,0 32.83859880868741,39.86644738948954,0 32.83785169803513,39.86607664608337,0 32.83838596639916,39.86581169094751,0 32.83922807598131,39.86527861859859,0 32.83984086186427,39.86482712982338,0 32.84006672959114,39.86428209922995,0 32.84053450235675,39.86420559573752,0 32.8405052267642,39.86380423802483,0 32.8400895987918,39.86335727246979,0 32.83939717873599,39.86332701676307,0 32.83894295194833,39.86345886477172,0 32.83772623073752,39.863969587208,0 32.83761093242956,39.863729432181,0 32.83836698915822,39.86330108517642,0 32.8387321051805,39.86295332067271,0 32.83876266648852,39.86235615386763,0 32.8385241616129,39.86203379105283,0 32.83816308349797,39.86156884347037,0 32.83847236567214,39.86133072169931,0 32.83840403617712,39.86122130883831,0 32.83778868919507,39.86076465952632,0 32.83612831507527,39.86016369742816,0 32.83569772176688,39.86000070051779,0 32.83527501327855,39.8589696008704,0 32.83509403545978,39.85830406757947,0 32.83496778466466,39.85776799828487,0 32.83496775247949,39.85776256511373,0 32.83512595582521,39.85718534017931,0 32.83574432261243,39.85670368018199,0 32.83643502618854,39.85623695036795,0 32.83671083231294,39.85574951569961,0 32.83660676788666,39.85545981111629,0 32.83613597312381,39.85525902440411,0 32.83527645125615,39.85553435208846,0 32.83357779950445,39.85609251847539,0 32.83347029638249,39.85582382147471,0 
						</coordinates>
					</LinearRing>
				</outerBoundaryIs>
			</Polygon>
		</Placemark>
		<Placemark>
			<name>Vadiden çıkarılacak alan</name>
			<styleUrl>#msn_ylw-pushpin</styleUrl>
			<Polygon>
				<tessellate>1</tessellate>
				<outerBoundaryIs>
					<LinearRing>
						<coordinates>
							32.84871951030682,39.86512461217104,0 32.85008485339059,39.86611874568659,0 32.84920654993707,39.86674005159298,0 32.84861542999693,39.86699640745595,0 32.84818177278877,39.86708540289782,0 32.84816887174599,39.86707927759022,0 32.84774667420778,39.86696950517707,0 32.84773390396818,39.8669635868748,0 32.84772208460623,39.86695179479626,0 32.84752192018359,39.86671515345074,0 32.84751946496336,39.86669193720682,0 32.84751423833869,39.86642542670726,0 32.84751828516255,39.86640316030281,0 32.84752327801066,39.86637545632176,0 32.84772110589058,39.86600140285325,0 32.84772861532705,39.86599602080797,0 32.84807152972954,39.86560142497699,0 32.8485467741561,39.86520349247457,0 32.84871951030682,39.86512461217104,0 
						</coordinates>
					</LinearRing>
				</outerBoundaryIs>
			</Polygon>
		</Placemark>
		<atom:link rel="app" href="https://www.google.com/earth/about/versions/#earth-pro" title="Google Earth Pro 7.3.7.1155"></atom:link>
	</Folder>
</Document>
</kml>
