{"type":"FeatureCollection","features":[{"type":"Feature","properties":{},"geometry":{"type":"Polygon","coordinates":[[[32.84508,39.85233],[32.84503,39.85215],[32.84584,39.85202],[32.84594,39.85225],[32.84508,39.85233]]]}},{"type":"Feature","properties":{},"geometry":{"type":"Polygon","coordinates":[[[32.84282,39.85149],[32.84311,39.85092],[32.84369,39.85117],[32.84339,39.85164],[32.84282,39.85149]]]}},{"type":"Feature","properties":{},"geometry":{"type":"Polygon","coordinates":[[[32.84906,39.85614],[32.84898,39.85586],[32.84897,39.85544],[32.84974,39.85554],[32.84978,39.8557],[32.84975,39.85599],[32.8491,39.85614],[32.84906,39.85614]]]}},{"type":"Feature","properties":{},"geometry":{"type":"Polygon","coordinates":[[[32.82191,39.8492],[32.82163,39.84912],[32.82149,39.84891],[32.82194,39.84877],[32.82205,39.8488],[32.82227,39.84906],[32.82191,39.8492]]]}},{"type":"Feature","properties":{},"geometry":{"type":"Polygon","coordinates":[[[32.82391,39.84714],[32.82397,39.84726],[32.82404,39.84736],[32.824,39.84739],[32.82412,39.84756],[32.82355,39.84775],[32.82342,39.8475],[32.82335,39.84753],[32.82323,39.8473],[32.82391,39.84714]]]}},{"type":"Feature","properties":{},"geometry":{"type":"Polygon","coordinates":[[[32.8247,39.84774],[32.8248,39.8477],[32.82476,39.84757],[32.82497,39.84749],[32.82495,39.84746],[32.82519,39.84737],[32.82527,39.84752],[32.82535,39.8475],[32.82523,39.84728],[32.82506,39.84734],[32.82503,39.8473],[32.82497,39.84717],[32.82502,39.84715],[32.82493,39.84699],[32.82505,39.84695],[32.82503,39.84691],[32.82489,39.84694],[32.82481,39.84701],[32.8247,39.84774]]]}},{"type":"Feature","properties":{},"geometry":{"type":"Polygon","coordinates":[[[32.83223,39.85997],[32.83304,39.85997],[32.83304,39.85912],[32.83206,39.85912],[32.832,39.85919],[32.83223,39.85997]]]}},{"type":"Feature","properties":{},"geometry":{"type":"Polygon","coordinates":[[[32.82937,39.85845],[32.82962,39.85876],[32.83031,39.85836],[32.83024,39.85829],[32.83082,39.85796],[32.83065,39.85775],[32.83062,39.85773],[32.83058,39.85773],[32.8294,39.85842],[32.82937,39.85845]]]}},{"type":"Feature","properties":{},"geometry":{"type":"Polygon","coordinates":[[[32.85136,39.85344],[32.85113,39.85316],[32.852,39.85286],[32.85219,39.8532],[32.85136,39.85344]]]}},{"type":"Feature","properties":{},"geometry":{"type":"Polygon","coordinates":[[[32.8534,39.85166],[32.85332,39.85227],[32.85293,39.85225],[32.85283,39.85186],[32.8534,39.85166]]]}},{"type":"Feature","properties":{},"geometry":{"type":"Polygon","coordinates":[[[32.85965,39.86868],[32.8595,39.86832],[32.85938,39.86802],[32.86003,39.86786],[32.86005,39.86761],[32.86022,39.86759],[32.8607,39.86753],[32.86085,39.86843],[32.86079,39.86851],[32.86057,39.86854],[32.85965,39.86868]]]}},{"type":"Feature","properties":{},"geometry":{"type":"Polygon","coordinates":[[[32.85667,39.86662],[32.85702,39.86648],[32.85708,39.86652],[32.85717,39.86677],[32.85689,39.86709],[32.85667,39.86662]]]}},{"type":"Feature","properties":{},"geometry":{"type":"Polygon","coordinates":[[[32.85368,39.87211],[32.85425,39.8721],[32.85423,39.87253],[32.85382,39.87254],[32.85376,39.8725],[32.85368,39.87211]]]}},{"type":"Feature","properties":{},"geometry":{"type":"Polygon","coordinates":[[[32.83395,39.86364],[32.83441,39.86351],[32.83449,39.86356],[32.83472,39.864],[32.83418,39.86417],[32.83395,39.86364]]]}},{"type":"Feature","properties":{},"geometry":{"type":"Polygon","coordinates":[[[32.84132,39.85115],[32.84042,39.85095],[32.84036,39.85097],[32.84033,39.85123],[32.84031,39.85144],[32.84031,39.85155],[32.84032,39.85171],[32.84036,39.85193],[32.8405,39.85215],[32.84112,39.85163],[32.84098,39.85158],[32.84113,39.85147],[32.84121,39.85136],[32.84132,39.85115]]]}},{"type":"Feature","properties":{},"geometry":{"type":"Polygon","coordinates":[[[32.82996,39.87369],[32.82958,39.87352],[32.82991,39.87309],[32.83029,39.87326],[32.82996,39.87369]]]}},{"type":"Feature","properties":{},"geometry":{"type":"Polygon","coordinates":[[[32.81845,39.86342],[32.81875,39.8637],[32.81898,39.86391],[32.81917,39.86417],[32.81926,39.86431],[32.81932,39.86449],[32.81949,39.86501],[32.81956,39.86518],[32.81963,39.8652],[32.82035,39.86496],[32.82019,39.86488],[32.82005,39.8647],[32.81991,39.86443],[32.81987,39.86415],[32.81976,39.86401],[32.81945,39.86376],[32.81921,39.8636],[32.81884,39.86345],[32.81858,39.86341],[32.81845,39.86342]]]}},{"type":"Feature","properties":{},"geometry":{"type":"Polygon","coordinates":[[[32.85422,39.85155],[32.85435,39.8509],[32.85479,39.85096],[32.855,39.85104],[32.85472,39.8516],[32.85422,39.85155]]]}},{"type":"Feature","properties":{},"geometry":{"type":"Polygon","coordinates":[[[32.86142,39.86604],[32.86077,39.86569],[32.86154,39.86517],[32.86231,39.86464],[32.8627,39.86491],[32.8621,39.86542],[32.86152,39.86595],[32.86142,39.86604]]]}},{"type":"Feature","properties":{},"geometry":{"type":"Polygon","coordinates":[[[32.83125,39.84838],[32.83124,39.84902],[32.83241,39.84986],[32.8325,39.85037],[32.83258,39.85055],[32.83279,39.85069],[32.83295,39.85074],[32.83349,39.85076],[32.83432,39.85078],[32.8348,39.85077],[32.83434,39.85015],[32.83396,39.84939],[32.83125,39.84838]]]}},{"type":"Feature","properties":{},"geometry":{"type":"Polygon","coordinates":[[[32.8554,39.85098],[32.85518,39.85091],[32.85511,39.85087],[32.85502,39.85082],[32.855,39.85081],[32.8549,39.85079],[32.85498,39.85057],[32.8551,39.85027],[32.85518,39.85012],[32.85533,39.85006],[32.85554,39.85004],[32.85574,39.85008],[32.85591,39.85008],[32.856,39.85009],[32.85588,39.85028],[32.8554,39.85098]]]}},{"type":"Feature","properties":{},"geometry":{"type":"Polygon","coordinates":[[[32.82261,39.86471],[32.82304,39.86432],[32.82328,39.86441],[32.82297,39.86484],[32.82261,39.86471]]]}},{"type":"Feature","properties":{},"geometry":{"type":"Polygon","coordinates":[[[32.8254,39.8664],[32.82628,39.86575],[32.82671,39.86619],[32.82672,39.86625],[32.82667,39.86634],[32.82642,39.86643],[32.82609,39.86654],[32.82593,39.86666],[32.82582,39.86678],[32.82576,39.86684],[32.8254,39.8664]]]}},{"type":"Feature","properties":{},"geometry":{"type":"Polygon","coordinates":[[[32.83227,39.86422],[32.83297,39.86405],[32.83331,39.86484],[32.83282,39.86497],[32.8326,39.8646],[32.83241,39.86436],[32.83227,39.86422]]]}},{"type":"Feature","properties":{},"geometry":{"type":"Polygon","coordinates":[[[32.82856,39.86699],[32.82901,39.86705],[32.829,39.86719],[32.82925,39.86723],[32.8294,39.86728],[32.82977,39.86747],[32.83023,39.86771],[32.83035,39.86782],[32.83041,39.86808],[32.82949,39.86796],[32.82946,39.86806],[32.82945,39.86821],[32.82922,39.86812],[32.82892,39.86789],[32.82866,39.86757],[32.8285,39.86729],[32.82856,39.86699]]]}},{"type":"Feature","properties":{},"geometry":{"type":"Polygon","coordinates":[[[32.83047,39.86775],[32.83109,39.86735],[32.83123,39.86738],[32.8314,39.86751],[32.83151,39.8677],[32.83097,39.86793],[32.8306,39.86799],[32.83047,39.86775]]]}},{"type":"Feature","properties":{},"geometry":{"type":"Polygon","coordinates":[[[32.83232,39.86988],[32.83256,39.86956],[32.83315,39.86988],[32.83298,39.87008],[32.83294,39.87005],[32.83281,39.87022],[32.83232,39.86988]]]}},{"type":"Feature","properties":{},"geometry":{"type":"Polygon","coordinates":[[[32.83582,39.87237],[32.83611,39.87197],[32.83641,39.8723],[32.83599,39.87252],[32.83582,39.87237]]]}},{"type":"Feature","properties":{},"geometry":{"type":"Polygon","coordinates":[[[32.82855,39.8715],[32.82907,39.87099],[32.82934,39.87113],[32.82924,39.87122],[32.8293,39.8713],[32.82942,39.87138],[32.82921,39.87155],[32.82899,39.87142],[32.82875,39.87164],[32.82855,39.8715]]]}},{"type":"Feature","properties":{},"geometry":{"type":"Polygon","coordinates":[[[32.85353,39.87071],[32.85379,39.87028],[32.85396,39.87037],[32.85398,39.87043],[32.85395,39.87054],[32.85384,39.87077],[32.85381,39.87079],[32.85353,39.87071]]]}},{"type":"Feature","properties":{},"geometry":{"type":"Polygon","coordinates":[[[32.83167,39.8739],[32.83194,39.87365],[32.83224,39.87389],[32.83229,39.8739],[32.83309,39.87324],[32.83337,39.87342],[32.83346,39.87352],[32.83288,39.87383],[32.83266,39.87395],[32.83261,39.87392],[32.83245,39.87401],[32.83246,39.87407],[32.83228,39.87415],[32.83215,39.87413],[32.83203,39.87419],[32.83167,39.8739]]]}},{"type":"Feature","properties":{},"geometry":{"type":"Polygon","coordinates":[[[32.83759,39.87223],[32.83814,39.87193],[32.83819,39.87193],[32.83828,39.87197],[32.83862,39.87236],[32.83828,39.87248],[32.83806,39.87251],[32.83792,39.87251],[32.83778,39.87243],[32.83759,39.87223]]]}},{"type":"Feature","properties":{},"geometry":{"type":"Polygon","coordinates":[[[32.83889,39.87105],[32.83864,39.87071],[32.83953,39.87038],[32.83958,39.87038],[32.83962,39.87041],[32.83967,39.87051],[32.83942,39.87064],[32.83951,39.87079],[32.83889,39.87105]]]}},{"type":"Feature","properties":{},"geometry":{"type":"Polygon","coordinates":[[[32.83743,39.86666],[32.83739,39.86651],[32.83725,39.86629],[32.83762,39.86616],[32.83791,39.86632],[32.8383,39.86655],[32.83804,39.86666],[32.8379,39.86652],[32.83777,39.86646],[32.83743,39.86666]]]}},{"type":"Feature","properties":{},"geometry":{"type":"Polygon","coordinates":[[[32.83973,39.86414],[32.83946,39.86376],[32.83955,39.86375],[32.83971,39.86377],[32.83982,39.86382],[32.83996,39.86404],[32.83973,39.86414]]]}},{"type":"Feature","properties":{},"geometry":{"type":"Polygon","coordinates":[[[32.8383,39.86858],[32.83885,39.86862],[32.83889,39.8686],[32.83887,39.86839],[32.83826,39.86839],[32.83825,39.86848],[32.83827,39.86855],[32.8383,39.86858]]]}},{"type":"Feature","properties":{},"geometry":{"type":"Polygon","coordinates":[[[32.83594,39.86127],[32.83585,39.86099],[32.83588,39.86096],[32.8359,39.86094],[32.83637,39.86106],[32.83652,39.86109],[32.8366,39.86117],[32.83594,39.86127]]]}},{"type":"Feature","properties":{},"geometry":{"type":"Polygon","coordinates":[[[32.83374,39.86108],[32.83373,39.86008],[32.83313,39.86007],[32.83314,39.86034],[32.83316,39.86047],[32.83325,39.86058],[32.83374,39.86108]]]}},{"type":"Feature","properties":{},"geometry":{"type":"Polygon","coordinates":[[[32.85362,39.85984],[32.85411,39.85947],[32.85399,39.85938],[32.85376,39.85923],[32.85359,39.85914],[32.8535,39.85913],[32.8534,39.85915],[32.85326,39.85923],[32.85324,39.85928],[32.85322,39.85932],[32.85321,39.85945],[32.85334,39.85977],[32.85344,39.85982],[32.85356,39.85989],[32.85362,39.85984]]]}},{"type":"Feature","properties":{},"geometry":{"type":"Polygon","coordinates":[[[32.82746,39.87057],[32.82734,39.87073],[32.82844,39.87144],[32.82868,39.87125],[32.82746,39.87057]]]}},{"type":"Feature","properties":{},"geometry":{"type":"Polygon","coordinates":[[[32.82433,39.85125],[32.82442,39.85132],[32.82597,39.85011],[32.8258,39.85005],[32.8256,39.85003],[32.82485,39.8502],[32.82479,39.85083],[32.82433,39.85125]]]}},{"type":"Feature","properties":{},"geometry":{"type":"Polygon","coordinates":[[[32.85359,39.86017],[32.85367,39.86048],[32.85383,39.8606],[32.85414,39.86038],[32.85421,39.86033],[32.85392,39.86015],[32.85378,39.86007],[32.85366,39.86011],[32.85359,39.86017]]]}},{"type":"Feature","properties":{},"geometry":{"type":"Polygon","coordinates":[[[32.8326,39.86942],[32.83284,39.86952],[32.8331,39.86945],[32.83348,39.86942],[32.83442,39.8693],[32.83461,39.8694],[32.83504,39.86942],[32.8352,39.86946],[32.83525,39.8694],[32.83521,39.86807],[32.8346,39.86781],[32.83394,39.86756],[32.83347,39.86768],[32.83262,39.86824],[32.83246,39.86834],[32.83234,39.8686],[32.83232,39.86896],[32.8326,39.86942]]]}},{"type":"Feature","properties":{},"geometry":{"type":"Polygon","coordinates":[[[32.81767,39.85134],[32.81886,39.85158],[32.81891,39.8515],[32.8189,39.8514],[32.81878,39.85123],[32.81873,39.8512],[32.8179,39.85119],[32.81778,39.85123],[32.81771,39.85127],[32.81767,39.85134]]]}},{"type":"Feature","properties":{},"geometry":{"type":"Polygon","coordinates":[[[32.83908,39.84922],[32.83958,39.84867],[32.83976,39.8487],[32.83979,39.84876],[32.83994,39.84932],[32.8399,39.84941],[32.83915,39.84933],[32.83908,39.84922]]]}},{"type":"Feature","properties":{},"geometry":{"type":"Polygon","coordinates":[[[32.84572,39.85523],[32.84582,39.85483],[32.84649,39.85494],[32.84637,39.85536],[32.84572,39.85523]]]}},{"type":"Feature","properties":{},"geometry":{"type":"Polygon","coordinates":[[[32.84161,39.85072],[32.84164,39.8507],[32.84168,39.85066],[32.84172,39.85063],[32.84183,39.85048],[32.84189,39.85035],[32.84142,39.85016],[32.84137,39.85019],[32.84122,39.85041],[32.84124,39.85049],[32.84139,39.85062],[32.84147,39.85067],[32.84158,39.85072],[32.84161,39.85072]]]}},{"type":"Feature","properties":{},"geometry":{"type":"Polygon","coordinates":[[[32.85624,39.8477],[32.85634,39.84786],[32.85639,39.84799],[32.85641,39.84821],[32.85624,39.84833],[32.85605,39.84841],[32.85595,39.84842],[32.85583,39.84842],[32.85571,39.84841],[32.85559,39.84837],[32.8555,39.84834],[32.85537,39.84824],[32.85526,39.84811],[32.85523,39.84795],[32.85528,39.8478],[32.8554,39.84767],[32.85555,39.84758],[32.85565,39.84754],[32.85581,39.84753],[32.85592,39.84755],[32.85609,39.8476],[32.85624,39.8477]]]}},{"type":"Feature","properties":{},"geometry":{"type":"Polygon","coordinates":[[[32.85462,39.85302],[32.85472,39.85247],[32.85507,39.85251],[32.85499,39.85306],[32.85462,39.85302]]]}},{"type":"Feature","properties":{},"geometry":{"type":"Polygon","coordinates":[[[32.82285,39.86427],[32.82263,39.86446],[32.82206,39.86428],[32.82218,39.86407],[32.82285,39.86427]]]}},{"type":"Feature","properties":{},"geometry":{"type":"Polygon","coordinates":[[[32.83207,39.86709],[32.8325,39.86694],[32.83271,39.86694],[32.83312,39.86683],[32.83334,39.86672],[32.83365,39.86707],[32.83351,39.86721],[32.8337,39.86732],[32.83381,39.86736],[32.83347,39.86747],[32.83308,39.86767],[32.83274,39.86739],[32.83263,39.86741],[32.83257,39.86733],[32.83217,39.86741],[32.83207,39.86709]]]}},{"type":"Feature","properties":{},"geometry":{"type":"Polygon","coordinates":[[[32.80431,39.84109],[32.80486,39.84143],[32.80523,39.84159],[32.8055,39.84158],[32.80608,39.84149],[32.8063,39.8415],[32.8065,39.84156],[32.8069,39.84171],[32.80705,39.84176],[32.80721,39.84178],[32.80752,39.84173],[32.80771,39.8417],[32.80789,39.84168],[32.80895,39.84163],[32.8138,39.84234],[32.81992,39.84321],[32.82276,39.84366],[32.82542,39.84441],[32.82972,39.84479],[32.83205,39.84485],[32.8332,39.84498],[32.83528,39.84553],[32.83737,39.84608],[32.83849,39.84655],[32.84037,39.8474],[32.84044,39.84739],[32.84048,39.84733],[32.83989,39.84625],[32.83911,39.84524],[32.83847,39.84417],[32.83817,39.84346],[32.83784,39.84227],[32.83836,39.84095],[32.83854,39.84063],[32.83862,39.8403],[32.83879,39.83975],[32.83876,39.83927],[32.83864,39.83872],[32.83844,39.83797],[32.83893,39.83678],[32.83965,39.83584],[32.83989,39.83571],[32.84084,39.83507],[32.84172,39.83407],[32.84327,39.83346],[32.84405,39.83241],[32.84501,39.83051],[32.84581,39.82894],[32.84386,39.83084],[32.84217,39.83146],[32.84088,39.83106],[32.83931,39.83028],[32.8377,39.83063],[32.83605,39.83042],[32.83407,39.83133],[32.83279,39.83219],[32.83229,39.83207],[32.83141,39.83191],[32.8308,39.83207],[32.83015,39.83234],[32.82941,39.83221],[32.82926,39.83182],[32.82872,39.83129],[32.82667,39.82987],[32.82661,39.82914],[32.8271,39.82839],[32.82797,39.8277],[32.82981,39.82688],[32.83091,39.82632],[32.83104,39.82554],[32.83061,39.82518],[32.82969,39.82506],[32.82774,39.82569],[32.8263,39.82594],[32.82574,39.826],[32.82485,39.8259],[32.82386,39.8256],[32.82299,39.8256],[32.82206,39.82523],[32.8213,39.82466],[32.81925,39.8243],[32.81648,39.82301],[32.8158,39.82239],[32.81577,39.82129],[32.81639,39.82023],[32.81639,39.81774],[32.81524,39.81519],[32.81572,39.81476],[32.81575,39.81437],[32.81693,39.81416],[32.81994,39.81367],[32.82042,39.81381],[32.82095,39.81447],[32.82076,39.81565],[32.82099,39.81716],[32.82124,39.81831],[32.82089,39.81877],[32.82105,39.81957],[32.8208,39.82006],[32.82046,39.82048],[32.82073,39.82093],[32.82126,39.82207],[32.82215,39.82252],[32.82542,39.82264],[32.82642,39.82276],[32.82728,39.82257],[32.82781,39.8221],[32.82932,39.82162],[32.82991,39.82168],[32.83123,39.82196],[32.8325,39.82238],[32.83465,39.82418],[32.83543,39.82606],[32.83178,39.82869],[32.82999,39.82945],[32.829,39.83008],[32.83035,39.82968],[32.83179,39.82988],[32.83301,39.82903],[32.83404,39.82837],[32.83515,39.82803],[32.8369,39.82819],[32.83815,39.82889],[32.839,39.82866],[32.83976,39.8289],[32.84077,39.82923],[32.84168,39.82904],[32.84265,39.82921],[32.84361,39.82958],[32.84403,39.83012],[32.8457,39.82844],[32.84665,39.82799],[32.84947,39.82673],[32.84889,39.82425],[32.84913,39.82069],[32.85054,39.81798],[32.85298,39.81614],[32.85321,39.81564],[32.84848,39.81625],[32.84031,39.81546],[32.83595,39.81414],[32.83058,39.81313],[32.82816,39.81285],[32.82556,39.81286],[32.82377,39.81294],[32.82128,39.8136],[32.82046,39.81364],[32.81961,39.81364],[32.8182,39.81387],[32.81534,39.81438],[32.81324,39.8145],[32.81135,39.81431],[32.81123,39.81428],[32.80961,39.81393],[32.80703,39.81293],[32.80472,39.81202],[32.80437,39.81189],[32.80218,39.81108],[32.80143,39.81252],[32.80136,39.81295],[32.80155,39.81336],[32.80211,39.81388],[32.80221,39.81414],[32.80227,39.81431],[32.80215,39.81475],[32.80179,39.81508],[32.80117,39.8153],[32.80047,39.81541],[32.79942,39.81542],[32.79921,39.81568],[32.79914,39.81582],[32.79911,39.81603],[32.79899,39.81621],[32.79801,39.81744],[32.79784,39.81773],[32.79767,39.81826],[32.7976,39.81848],[32.79759,39.8185],[32.7975,39.81885],[32.79747,39.819],[32.79745,39.8191],[32.79742,39.81932],[32.79741,39.8196],[32.79737,39.82012],[32.79735,39.8203],[32.79733,39.82089],[32.79727,39.82122],[32.79714,39.8219],[32.79702,39.82252],[32.79639,39.82655],[32.7964,39.82717],[32.79652,39.82775],[32.79673,39.82843],[32.79795,39.83077],[32.79807,39.831],[32.79818,39.83164],[32.79807,39.83244],[32.79805,39.83256],[32.79777,39.8339],[32.79763,39.83453],[32.79756,39.83484],[32.79774,39.83545],[32.79798,39.83597],[32.79857,39.83652],[32.79944,39.83723],[32.79976,39.83736],[32.80147,39.83909],[32.80299,39.84024],[32.80431,39.84109]]]}},{"type":"Feature","properties":{},"geometry":{"type":"Polygon","coordinates":[[[32.81109,39.84786],[32.81089,39.84714],[32.8106,39.84656],[32.8103,39.84603],[32.80989,39.84549],[32.80943,39.84501],[32.80868,39.84438],[32.80783,39.84364],[32.80788,39.84352],[32.8084,39.84349],[32.80839,39.84316],[32.80762,39.84323],[32.80788,39.84239],[32.80801,39.84223],[32.8082,39.84213],[32.80851,39.84205],[32.80887,39.84202],[32.80926,39.84203],[32.82092,39.84369],[32.82241,39.84398],[32.82347,39.84426],[32.82489,39.84468],[32.82588,39.84484],[32.82483,39.84674],[32.82352,39.8465],[32.82239,39.84642],[32.82133,39.8465],[32.82052,39.84655],[32.8194,39.84661],[32.81927,39.84662],[32.8182,39.84664],[32.81707,39.84684],[32.81637,39.84699],[32.81565,39.84722],[32.81529,39.84735],[32.81468,39.84739],[32.8146,39.84742],[32.81445,39.8475],[32.81416,39.84777],[32.8139,39.84801],[32.81344,39.84857],[32.81344,39.84854],[32.81297,39.84911],[32.81289,39.84958],[32.81314,39.84962],[32.81353,39.84987],[32.81326,39.8501],[32.81309,39.85001],[32.81273,39.84994],[32.81243,39.84979],[32.8121,39.84907],[32.81163,39.84931],[32.81109,39.84786]]]}},{"type":"Feature","properties":{},"geometry":{"type":"Polygon","coordinates":[[[32.84486,39.85363],[32.84521,39.85293],[32.84585,39.85313],[32.84594,39.85299],[32.84604,39.85302],[32.84616,39.85288],[32.84672,39.85305],[32.84617,39.85375],[32.84592,39.85377],[32.84559,39.85374],[32.84486,39.85363]]]}},{"type":"Feature","properties":{},"geometry":{"type":"Polygon","coordinates":[[[32.83921,39.8497],[32.83929,39.84972],[32.83977,39.84981],[32.83991,39.84984],[32.83999,39.84955],[32.83932,39.84947],[32.8393,39.84948],[32.83928,39.84949],[32.83921,39.8497]]]}},{"type":"Feature","properties":{},"geometry":{"type":"Polygon","coordinates":[[[32.84017,39.85136],[32.83948,39.8513],[32.83938,39.85157],[32.84015,39.85149],[32.84017,39.85136]]]}},{"type":"Feature","properties":{},"geometry":{"type":"Polygon","coordinates":[[[32.83033,39.84948],[32.83001,39.84927],[32.83001,39.84922],[32.83072,39.8492],[32.83083,39.84924],[32.83142,39.84967],[32.83128,39.84977],[32.83089,39.84949],[32.83085,39.84948],[32.83033,39.84948]]]}},{"type":"Feature","properties":{},"geometry":{"type":"Polygon","coordinates":[[[32.83149,39.85032],[32.8315,39.85003],[32.83149,39.84991],[32.83139,39.84983],[32.83152,39.84973],[32.83189,39.85],[32.83192,39.85005],[32.83197,39.85062],[32.83193,39.85062],[32.83149,39.85032]]]}},{"type":"Feature","properties":{},"geometry":{"type":"Polygon","coordinates":[[[32.85461,39.86383],[32.85464,39.86306],[32.8553,39.86355],[32.85519,39.86356],[32.85498,39.86361],[32.85461,39.86383]]]}},{"type":"Feature","properties":{},"geometry":{"type":"Polygon","coordinates":[[[32.85924,39.86626],[32.85941,39.8665],[32.8593,39.86658],[32.85914,39.86667],[32.85899,39.86672],[32.85891,39.86669],[32.85879,39.86656],[32.85924,39.86626]]]}},{"type":"Feature","properties":{},"geometry":{"type":"Polygon","coordinates":[[[32.85075,39.86016],[32.85077,39.86007],[32.85096,39.85991],[32.85106,39.85984],[32.85126,39.85984],[32.85136,39.85987],[32.85144,39.85998],[32.85152,39.86017],[32.85154,39.86022],[32.85157,39.8603],[32.85154,39.86044],[32.85148,39.86053],[32.85137,39.86065],[32.85129,39.8607],[32.85121,39.86074],[32.85115,39.86072],[32.85107,39.86071],[32.85097,39.86075],[32.85084,39.86071],[32.85093,39.86068],[32.85118,39.86062],[32.85106,39.8603],[32.851,39.86024],[32.85075,39.86016]]]}},{"type":"Feature","properties":{},"geometry":{"type":"Polygon","coordinates":[[[32.84922,39.84826],[32.84901,39.84819],[32.84873,39.84807],[32.84862,39.84802],[32.84859,39.84796],[32.84859,39.84788],[32.84874,39.84776],[32.84882,39.84775],[32.84889,39.84781],[32.84924,39.84823],[32.84922,39.84826]]]}},{"type":"Feature","properties":{},"geometry":{"type":"Polygon","coordinates":[[[32.83739,39.85207],[32.8377,39.85218],[32.83782,39.85219],[32.83757,39.85103],[32.83767,39.85103],[32.83746,39.85013],[32.83697,39.85033],[32.83617,39.8503],[32.83613,39.85051],[32.83599,39.85054],[32.836,39.85059],[32.8365,39.85124],[32.83693,39.85159],[32.83739,39.85207]]]}},{"type":"Feature","properties":{},"geometry":{"type":"Polygon","coordinates":[[[32.82258,39.86482],[32.82333,39.86507],[32.82379,39.86518],[32.82375,39.86549],[32.82367,39.86546],[32.82336,39.8653],[32.82309,39.86521],[32.82291,39.86516],[32.8227,39.86509],[32.82257,39.86501],[32.82252,39.86498],[32.8225,39.86494],[32.8225,39.8649],[32.82252,39.86485],[32.82258,39.86482]]]}},{"type":"Feature","properties":{},"geometry":{"type":"Polygon","coordinates":[[[32.85156,39.85873],[32.85184,39.85885],[32.85221,39.85901],[32.8524,39.8591],[32.85246,39.85914],[32.85256,39.85937],[32.85264,39.85944],[32.85266,39.85951],[32.85265,39.85957],[32.8529,39.86016],[32.85297,39.86023],[32.85299,39.86036],[32.8532,39.86032],[32.85308,39.85994],[32.85296,39.85965],[32.85273,39.85915],[32.85248,39.85872],[32.85223,39.85867],[32.85207,39.85866],[32.85156,39.85867],[32.85156,39.85873]]]}},{"type":"Feature","properties":{},"geometry":{"type":"Polygon","coordinates":[[[32.83684,39.84656],[32.83673,39.84623],[32.83779,39.84662],[32.83785,39.84665],[32.83835,39.84683],[32.83878,39.84704],[32.83917,39.84724],[32.83895,39.84749],[32.83849,39.8472],[32.83684,39.84656]]]}},{"type":"Feature","properties":{},"geometry":{"type":"Polygon","coordinates":[[[32.82629,39.84972],[32.82607,39.84991],[32.82575,39.84978],[32.82586,39.84957],[32.82629,39.84972]]]}},{"type":"Feature","properties":{},"geometry":{"type":"Polygon","coordinates":[[[32.83746,39.84912],[32.83727,39.84925],[32.83738,39.84983],[32.83776,39.84976],[32.83834,39.84965],[32.839,39.84963],[32.83908,39.84947],[32.83872,39.84947],[32.83822,39.84951],[32.83793,39.84949],[32.83771,39.84937],[32.83768,39.84934],[32.83752,39.8492],[32.83746,39.84912]]]}},{"type":"Feature","properties":{},"geometry":{"type":"Polygon","coordinates":[[[32.83636,39.84925],[32.8364,39.84851],[32.83665,39.84845],[32.83682,39.84828],[32.83693,39.8486],[32.83694,39.84885],[32.83683,39.84907],[32.83672,39.84915],[32.83651,39.84925],[32.83636,39.84925]]]}},{"type":"Feature","properties":{},"geometry":{"type":"Polygon","coordinates":[[[32.85186,39.85681],[32.85192,39.85691],[32.85201,39.85697],[32.85209,39.85701],[32.85218,39.85701],[32.85228,39.857],[32.85234,39.85697],[32.85232,39.85688],[32.85228,39.85676],[32.85226,39.85666],[32.85186,39.85681]]]}},{"type":"Feature","properties":{},"geometry":{"type":"Polygon","coordinates":[[[32.85695,39.86366],[32.85699,39.86365],[32.85704,39.86368],[32.85707,39.86368],[32.85711,39.86363],[32.85714,39.86357],[32.85714,39.86352],[32.85712,39.86347],[32.85709,39.86339],[32.85707,39.86334],[32.85702,39.86332],[32.85697,39.86332],[32.85693,39.86335],[32.85687,39.86336],[32.85681,39.86336],[32.85677,39.86337],[32.85669,39.86349],[32.85673,39.86354],[32.85676,39.86358],[32.85682,39.86363],[32.85692,39.86367],[32.85695,39.86366]]]}},{"type":"Feature","properties":{},"geometry":{"type":"Polygon","coordinates":[[[32.85448,39.84938],[32.85457,39.84906],[32.8547,39.84888],[32.85475,39.84884],[32.85487,39.84893],[32.85515,39.84915],[32.85498,39.84914],[32.85467,39.84921],[32.85448,39.84938]]]}},{"type":"Feature","properties":{},"geometry":{"type":"Polygon","coordinates":[[[32.8394,39.85014],[32.83931,39.85036],[32.83961,39.85042],[32.8397,39.85021],[32.83964,39.8502],[32.83961,39.85016],[32.83955,39.85018],[32.8395,39.85014],[32.83951,39.85011],[32.83939,39.85008],[32.8394,39.85003],[32.83944,39.85],[32.8395,39.85002],[32.83958,39.84981],[32.83928,39.84975],[32.83929,39.84972],[32.83977,39.84981],[32.83968,39.85007],[32.83983,39.8501],[32.83982,39.85015],[32.83969,39.85048],[32.83899,39.85034],[32.83908,39.85008],[32.8394,39.85014]]]}},{"type":"Feature","properties":{},"geometry":{"type":"Polygon","coordinates":[[[32.83926,39.8498],[32.83918,39.84979],[32.8391,39.85002],[32.83932,39.85007],[32.83935,39.84999],[32.83928,39.85001],[32.83926,39.84997],[32.8392,39.84996],[32.83926,39.8498]]]}},{"type":"Feature","properties":{},"geometry":{"type":"Polygon","coordinates":[[[32.84657,39.85646],[32.8468,39.85654],[32.84715,39.85605],[32.84821,39.85642],[32.84815,39.85652],[32.84871,39.85673],[32.84894,39.85635],[32.84722,39.8557],[32.84703,39.85568],[32.84657,39.85646]]]}},{"type":"Feature","properties":{},"geometry":{"type":"Polygon","coordinates":[[[32.8394,39.85014],[32.83931,39.85036],[32.83961,39.85042],[32.8397,39.85021],[32.83964,39.8502],[32.83961,39.85016],[32.83955,39.85018],[32.8395,39.85014],[32.83951,39.85011],[32.83939,39.85008],[32.8394,39.85003],[32.83944,39.85],[32.8395,39.85002],[32.83958,39.84981],[32.83928,39.84975],[32.83929,39.84972],[32.83977,39.84981],[32.83968,39.85007],[32.83983,39.8501],[32.83982,39.85015],[32.83969,39.85048],[32.83899,39.85034],[32.83908,39.85008],[32.8394,39.85014]]]}},{"type":"Feature","properties":{},"geometry":{"type":"Polygon","coordinates":[[[32.83926,39.8498],[32.83918,39.84979],[32.8391,39.85002],[32.83932,39.85007],[32.83935,39.84999],[32.83928,39.85001],[32.83926,39.84997],[32.8392,39.84996],[32.83926,39.8498]]]}}]}