{"type":"FeatureCollection","features":[{"type":"Feature","properties":{},"geometry":{"type":"Polygon","coordinates":[[[32.84507,39.85229],[32.84502,39.85211],[32.84583,39.85198],[32.84593,39.85221],[32.84507,39.85229]]]}},{"type":"Feature","properties":{},"geometry":{"type":"Polygon","coordinates":[[[32.84287,39.85144],[32.8431,39.85094],[32.84369,39.85113],[32.84341,39.8516],[32.84287,39.85144]]]}},{"type":"Feature","properties":{},"geometry":{"type":"Polygon","coordinates":[[[32.84485,39.85359],[32.84527,39.85329],[32.84622,39.85358],[32.84614,39.8537],[32.84593,39.85373],[32.84485,39.85359]]]}},{"type":"Feature","properties":{},"geometry":{"type":"Polygon","coordinates":[[[32.84907,39.85612],[32.84904,39.85555],[32.8491,39.85546],[32.84942,39.8555],[32.84945,39.85551],[32.84974,39.85555],[32.84977,39.85599],[32.84974,39.856],[32.84911,39.85612],[32.84907,39.85612]]]}},{"type":"Feature","properties":{},"geometry":{"type":"Polygon","coordinates":[[[32.82191,39.8492],[32.82163,39.84912],[32.82149,39.84891],[32.82194,39.84877],[32.82205,39.8488],[32.82227,39.84906],[32.82191,39.8492]]]}},{"type":"Feature","properties":{},"geometry":{"type":"Polygon","coordinates":[[[32.82391,39.84714],[32.82397,39.84726],[32.82404,39.84736],[32.824,39.84739],[32.82412,39.84756],[32.82355,39.84775],[32.82342,39.8475],[32.82335,39.84753],[32.82323,39.8473],[32.82391,39.84714]]]}},{"type":"Feature","properties":{},"geometry":{"type":"Polygon","coordinates":[[[32.8247,39.84774],[32.8248,39.8477],[32.82476,39.84757],[32.82497,39.84749],[32.82495,39.84746],[32.82519,39.84737],[32.82527,39.84752],[32.82535,39.8475],[32.82523,39.84728],[32.82506,39.84734],[32.82497,39.84717],[32.82502,39.84715],[32.82493,39.84699],[32.82505,39.84695],[32.82503,39.84691],[32.82489,39.84694],[32.82481,39.84701],[32.8247,39.84774]]]}},{"type":"Feature","properties":{},"geometry":{"type":"Polygon","coordinates":[[[32.83223,39.85997],[32.83304,39.85997],[32.83304,39.85912],[32.83206,39.85912],[32.832,39.85919],[32.83223,39.85997]]]}},{"type":"Feature","properties":{},"geometry":{"type":"Polygon","coordinates":[[[32.82937,39.85845],[32.82962,39.85876],[32.83031,39.85836],[32.83024,39.85829],[32.83082,39.85796],[32.83065,39.85775],[32.83062,39.85773],[32.83058,39.85773],[32.8294,39.85842],[32.82937,39.85845]]]}},{"type":"Feature","properties":{},"geometry":{"type":"Polygon","coordinates":[[[32.85136,39.8534],[32.85119,39.85322],[32.85208,39.85289],[32.85215,39.85317],[32.85136,39.8534]]]}},{"type":"Feature","properties":{},"geometry":{"type":"Polygon","coordinates":[[[32.8534,39.85166],[32.85332,39.85227],[32.85293,39.85225],[32.85283,39.85186],[32.8534,39.85166]]]}},{"type":"Feature","properties":{},"geometry":{"type":"Polygon","coordinates":[[[32.85965,39.86872],[32.85938,39.86802],[32.86003,39.86786],[32.86005,39.86761],[32.8607,39.86753],[32.86082,39.86851],[32.85965,39.86872]]]}},{"type":"Feature","properties":{},"geometry":{"type":"Polygon","coordinates":[[[32.85368,39.87211],[32.85425,39.8721],[32.85423,39.87253],[32.85382,39.87254],[32.85376,39.8725],[32.85368,39.87211]]]}},{"type":"Feature","properties":{},"geometry":{"type":"Polygon","coordinates":[[[32.83395,39.86364],[32.83441,39.86351],[32.83449,39.86356],[32.83472,39.864],[32.83418,39.86417],[32.83395,39.86364]]]}},{"type":"Feature","properties":{},"geometry":{"type":"Polygon","coordinates":[[[32.82996,39.87369],[32.82958,39.87352],[32.82991,39.87309],[32.83029,39.87326],[32.82996,39.87369]]]}},{"type":"Feature","properties":{},"geometry":{"type":"Polygon","coordinates":[[[32.81845,39.86342],[32.81875,39.8637],[32.81898,39.86391],[32.81917,39.86417],[32.81926,39.86431],[32.81932,39.86449],[32.81949,39.86501],[32.81956,39.86518],[32.81963,39.8652],[32.82035,39.86496],[32.82019,39.86488],[32.82005,39.8647],[32.81991,39.86443],[32.81987,39.86415],[32.81976,39.86401],[32.81945,39.86376],[32.81921,39.8636],[32.81884,39.86345],[32.81858,39.86341],[32.81845,39.86342]]]}},{"type":"Feature","properties":{},"geometry":{"type":"Polygon","coordinates":[[[32.85307,39.81565],[32.85316,39.81592],[32.8531,39.81614],[32.85196,39.81735],[32.85058,39.81804],[32.85014,39.81899],[32.84968,39.81975],[32.84892,39.82329],[32.84903,39.82466],[32.84948,39.82648],[32.84959,39.82671],[32.84903,39.82741],[32.8468,39.82781],[32.84625,39.82812],[32.84647,39.82826],[32.84573,39.8294],[32.84532,39.83014],[32.84521,39.83184],[32.84424,39.83258],[32.84389,39.83346],[32.84253,39.83393],[32.83989,39.8357],[32.8391,39.8366],[32.83861,39.838],[32.8388,39.83976],[32.83841,39.84094],[32.83791,39.84227],[32.83826,39.84354],[32.83892,39.84491],[32.84051,39.84732],[32.84046,39.8474],[32.8377,39.84619],[32.83735,39.84604],[32.83557,39.84558],[32.83351,39.84506],[32.83304,39.84496],[32.83205,39.84487],[32.82975,39.84481],[32.82876,39.84473],[32.82542,39.84442],[32.82273,39.84368],[32.81308,39.84229],[32.80894,39.84169],[32.80789,39.84173],[32.8077,39.84174],[32.80721,39.84181],[32.80703,39.84178],[32.80688,39.84175],[32.80649,39.84159],[32.80628,39.84153],[32.80608,39.84153],[32.8055,39.84163],[32.8052,39.84164],[32.80479,39.84145],[32.80296,39.84027],[32.80143,39.83913],[32.79788,39.83609],[32.79734,39.83483],[32.79788,39.83178],[32.7978,39.83098],[32.79654,39.8282],[32.79626,39.82713],[32.79634,39.82622],[32.79648,39.82519],[32.79751,39.81889],[32.79881,39.81617],[32.79899,39.81623],[32.79961,39.81513],[32.80054,39.81529],[32.8011,39.81525],[32.80141,39.81517],[32.80176,39.815],[32.80204,39.81469],[32.80217,39.81428],[32.80198,39.81388],[32.80161,39.81336],[32.80138,39.81292],[32.80151,39.81241],[32.80219,39.81125],[32.80902,39.81381],[32.81239,39.81454],[32.81526,39.81438],[32.81575,39.81428],[32.81633,39.81416],[32.81686,39.81404],[32.81784,39.81383],[32.81857,39.81366],[32.81958,39.81343],[32.82106,39.81318],[32.82207,39.81303],[32.82492,39.81279],[32.82844,39.81276],[32.83528,39.81395],[32.84359,39.81545],[32.84744,39.81609],[32.85007,39.81618],[32.85173,39.81595],[32.85307,39.81565]]]}},{"type":"Feature","properties":{},"geometry":{"type":"Polygon","coordinates":[[[32.80431,39.84109],[32.80486,39.84143],[32.80523,39.84159],[32.8055,39.84158],[32.80608,39.84149],[32.8063,39.8415],[32.8065,39.84156],[32.8069,39.84171],[32.80705,39.84176],[32.80721,39.84178],[32.80771,39.8417],[32.80789,39.84168],[32.80895,39.84163],[32.8138,39.84234],[32.81992,39.84321],[32.82276,39.84366],[32.82542,39.84441],[32.82972,39.84479],[32.83205,39.84485],[32.83319,39.84496],[32.83739,39.84602],[32.84048,39.84733],[32.83902,39.84524],[32.8381,39.84346],[32.83775,39.84228],[32.83821,39.84095],[32.83855,39.83971],[32.83844,39.83797],[32.83933,39.83574],[32.84172,39.83407],[32.84327,39.83346],[32.84405,39.83241],[32.84501,39.83051],[32.84581,39.82894],[32.84386,39.83084],[32.84217,39.83146],[32.84088,39.83106],[32.83931,39.83028],[32.8377,39.83063],[32.83605,39.83042],[32.83407,39.83133],[32.83279,39.83219],[32.83229,39.83207],[32.83141,39.83191],[32.8308,39.83207],[32.83015,39.83234],[32.82941,39.83221],[32.82926,39.83182],[32.82872,39.83129],[32.82667,39.82987],[32.82661,39.82914],[32.8271,39.82839],[32.82797,39.8277],[32.82981,39.82688],[32.83091,39.82632],[32.83104,39.82554],[32.83061,39.82518],[32.82969,39.82506],[32.82774,39.82569],[32.8263,39.82594],[32.82574,39.826],[32.82485,39.8259],[32.82386,39.8256],[32.82299,39.8256],[32.82206,39.82523],[32.8213,39.82466],[32.81925,39.8243],[32.81648,39.82301],[32.8158,39.82239],[32.81577,39.82129],[32.81639,39.82023],[32.81639,39.81774],[32.81663,39.81585],[32.81766,39.81499],[32.81937,39.81466],[32.8204,39.81519],[32.82073,39.81402],[32.81829,39.81445],[32.81542,39.81469],[32.81322,39.81476],[32.8113,39.81452],[32.80936,39.81407],[32.8067,39.81309],[32.80221,39.81147],[32.80159,39.81251],[32.80154,39.81297],[32.80171,39.81336],[32.80211,39.81388],[32.80227,39.81431],[32.80215,39.81475],[32.80179,39.81508],[32.80117,39.8153],[32.80047,39.81541],[32.79958,39.81538],[32.79899,39.81623],[32.79837,39.81712],[32.79747,39.81951],[32.79639,39.82655],[32.7964,39.82717],[32.79652,39.82775],[32.79673,39.82843],[32.79807,39.831],[32.79818,39.83164],[32.79805,39.83256],[32.79777,39.8339],[32.79756,39.83484],[32.79774,39.83545],[32.79798,39.83597],[32.79857,39.83652],[32.79944,39.83723],[32.79976,39.83736],[32.80147,39.83909],[32.80299,39.84024],[32.80431,39.84109]]]}},{"type":"Feature","properties":{},"geometry":{"type":"Polygon","coordinates":[[[32.81126,39.84865],[32.81109,39.84786],[32.81089,39.84714],[32.8106,39.84656],[32.8103,39.84603],[32.80989,39.84549],[32.80943,39.84501],[32.80868,39.84438],[32.80783,39.84364],[32.80788,39.84352],[32.8084,39.84349],[32.80839,39.84316],[32.80762,39.84323],[32.80788,39.84239],[32.80801,39.84223],[32.8082,39.84213],[32.80851,39.84205],[32.80887,39.84202],[32.80926,39.84203],[32.82092,39.84369],[32.82241,39.84398],[32.82347,39.84426],[32.82489,39.84468],[32.82586,39.84482],[32.82485,39.84668],[32.82356,39.84644],[32.82255,39.84636],[32.82123,39.84642],[32.81803,39.84654],[32.81709,39.84667],[32.81544,39.84718],[32.81463,39.84731],[32.81446,39.84741],[32.8139,39.84801],[32.81344,39.84854],[32.81299,39.84905],[32.81291,39.84952],[32.81316,39.84953],[32.81309,39.84993],[32.81246,39.84973],[32.81213,39.84901],[32.81166,39.84925],[32.81126,39.84865]]]}},{"type":"Feature","properties":{},"geometry":{"type":"Polygon","coordinates":[[[32.85667,39.86662],[32.85702,39.86648],[32.85708,39.86652],[32.85717,39.86677],[32.85689,39.86709],[32.85667,39.86662]]]}},{"type":"Feature","properties":{},"geometry":{"type":"Polygon","coordinates":[[[32.83921,39.8497],[32.83991,39.84985],[32.84002,39.84955],[32.83932,39.84947],[32.8393,39.84948],[32.83928,39.84949],[32.83921,39.8497]]]}},{"type":"Feature","properties":{},"geometry":{"type":"Polygon","coordinates":[[[32.84017,39.85136],[32.83948,39.8513],[32.83938,39.85157],[32.84015,39.85149],[32.84017,39.85136]]]}},{"type":"Feature","properties":{},"geometry":{"type":"Polygon","coordinates":[[[32.84072,39.8512],[32.84042,39.85095],[32.84036,39.85097],[32.84033,39.85123],[32.84031,39.85144],[32.84031,39.85155],[32.84032,39.85163],[32.84034,39.85173],[32.84054,39.85177],[32.84066,39.85161],[32.84072,39.85156],[32.84072,39.85147],[32.84072,39.85144],[32.84073,39.85143],[32.84074,39.85142],[32.84073,39.85141],[32.84072,39.85139],[32.84072,39.8512]]]}}]}