{"type":"FeatureCollection","features":[{"type":"Feature","properties":{},"geometry":{"type":"Polygon","coordinates":[[[32.84507,39.85229],[32.84502,39.85211],[32.84583,39.85198],[32.84593,39.85221],[32.84507,39.85229]]]}},{"type":"Feature","properties":{},"geometry":{"type":"Polygon","coordinates":[[[32.84287,39.85144],[32.8431,39.85094],[32.84369,39.85113],[32.84341,39.8516],[32.84287,39.85144]]]}},{"type":"Feature","properties":{},"geometry":{"type":"Polygon","coordinates":[[[32.84485,39.85359],[32.84527,39.85329],[32.84622,39.85358],[32.84614,39.8537],[32.84593,39.85373],[32.84485,39.85359]]]}},{"type":"Feature","properties":{},"geometry":{"type":"Polygon","coordinates":[[[32.84907,39.85612],[32.84904,39.85555],[32.8491,39.85546],[32.84974,39.85555],[32.84977,39.85599],[32.84907,39.85612]]]}},{"type":"Feature","properties":{},"geometry":{"type":"Polygon","coordinates":[[[32.80431,39.84113],[32.80473,39.84141],[32.80519,39.84159],[32.80612,39.84153],[32.80718,39.84179],[32.80895,39.84163],[32.8138,39.84234],[32.81992,39.84321],[32.82276,39.84366],[32.82542,39.84441],[32.82972,39.84479],[32.83205,39.84485],[32.83319,39.84496],[32.83739,39.84602],[32.84048,39.84733],[32.83902,39.84524],[32.8381,39.84346],[32.83775,39.84228],[32.83821,39.84095],[32.83855,39.83971],[32.83844,39.83797],[32.83933,39.83574],[32.84172,39.83407],[32.84327,39.83346],[32.84405,39.83241],[32.84501,39.83051],[32.84581,39.82894],[32.84386,39.83084],[32.84217,39.83146],[32.84088,39.83106],[32.83931,39.83028],[32.8377,39.83063],[32.83605,39.83042],[32.83407,39.83133],[32.83279,39.83219],[32.83229,39.83207],[32.83141,39.83191],[32.8308,39.83207],[32.83015,39.83234],[32.82941,39.83221],[32.82926,39.83182],[32.82872,39.83129],[32.82667,39.82987],[32.82661,39.82914],[32.8271,39.82839],[32.82797,39.8277],[32.82981,39.82688],[32.83091,39.82632],[32.83104,39.82554],[32.83061,39.82518],[32.82969,39.82506],[32.82774,39.82569],[32.8263,39.82594],[32.82587,39.82603],[32.82435,39.82584],[32.82342,39.82576],[32.82206,39.82523],[32.8213,39.82466],[32.81925,39.8243],[32.81648,39.82301],[32.8158,39.82239],[32.81577,39.82129],[32.81639,39.82023],[32.81639,39.81774],[32.81663,39.81585],[32.81766,39.81499],[32.81937,39.81466],[32.8204,39.81519],[32.82073,39.81402],[32.81829,39.81445],[32.81529,39.81511],[32.81211,39.81502],[32.80875,39.81439],[32.80608,39.8134],[32.80248,39.81184],[32.80175,39.81289],[32.80256,39.81416],[32.80243,39.81566],[32.79954,39.81543],[32.79837,39.81712],[32.79747,39.81951],[32.7964,39.82643],[32.79673,39.82843],[32.79834,39.83135],[32.7978,39.83426],[32.79778,39.83545],[32.79857,39.83652],[32.80431,39.84113]]]}},{"type":"Feature","properties":{},"geometry":{"type":"Polygon","coordinates":[[[32.81132,39.84862],[32.8109,39.84709],[32.8103,39.84603],[32.80968,39.84527],[32.80783,39.84364],[32.80839,39.84348],[32.80833,39.84318],[32.80758,39.84322],[32.80787,39.84239],[32.8082,39.84213],[32.80918,39.84204],[32.82017,39.84387],[32.82244,39.84421],[32.82435,39.84471],[32.82564,39.84502],[32.82481,39.84646],[32.82363,39.84631],[32.82152,39.84623],[32.81909,39.84629],[32.81676,39.84665],[32.81523,39.84722],[32.81429,39.84733],[32.81411,39.84813],[32.81411,39.84851],[32.8134,39.84862],[32.81312,39.84934],[32.81266,39.84982],[32.81209,39.84982],[32.81132,39.84862]]]}}]}