{"type":"FeatureCollection","features":[{"type":"Feature","properties":{},"geometry":{"type":"Polygon","coordinates":[[[32.84275,39.85151],[32.84291,39.85119],[32.84302,39.85097],[32.84307,39.85087],[32.84325,39.85095],[32.84341,39.85101],[32.84375,39.85114],[32.84362,39.85136],[32.8436,39.8514],[32.84342,39.8517],[32.84309,39.85161],[32.84287,39.85155],[32.84275,39.85151]]]}},{"type":"Feature","properties":{},"geometry":{"type":"Polygon","coordinates":[[[32.84893,39.85626],[32.84893,39.85617],[32.8489,39.8556],[32.8489,39.85554],[32.84889,39.85547],[32.84889,39.85535],[32.84972,39.85547],[32.84974,39.85599],[32.84912,39.85616],[32.84893,39.85626]]]}},{"type":"Feature","properties":{},"geometry":{"type":"Polygon","coordinates":[[[32.83223,39.85997],[32.83304,39.85997],[32.83304,39.85912],[32.83206,39.85912],[32.832,39.85919],[32.83223,39.85997]]]}},{"type":"Feature","properties":{},"geometry":{"type":"Polygon","coordinates":[[[32.82937,39.85845],[32.82962,39.85876],[32.83031,39.85836],[32.83024,39.85829],[32.83049,39.85817],[32.83029,39.85792],[32.8294,39.85842],[32.82937,39.85845]]]}},{"type":"Feature","properties":{},"geometry":{"type":"Polygon","coordinates":[[[32.85126,39.85345],[32.85109,39.85326],[32.85103,39.85319],[32.85155,39.85302],[32.85207,39.85284],[32.85221,39.85318],[32.85126,39.85345]]]}},{"type":"Feature","properties":{},"geometry":{"type":"Polygon","coordinates":[[[32.85341,39.85165],[32.85343,39.85168],[32.85337,39.85212],[32.8533,39.85228],[32.85291,39.85227],[32.85283,39.85186],[32.85341,39.85165]]]}},{"type":"Feature","properties":{},"geometry":{"type":"Polygon","coordinates":[[[32.85956,39.86875],[32.85939,39.86837],[32.85925,39.86804],[32.86005,39.86785],[32.86004,39.86761],[32.86075,39.86753],[32.86093,39.86857],[32.86072,39.86857],[32.86058,39.86856],[32.86042,39.86859],[32.85956,39.86875]]]}},{"type":"Feature","properties":{},"geometry":{"type":"Polygon","coordinates":[[[32.85656,39.8666],[32.85709,39.8664],[32.8571,39.86642],[32.85719,39.86661],[32.8572,39.86664],[32.85723,39.86673],[32.85721,39.8668],[32.85683,39.86724],[32.85656,39.8666]]]}},{"type":"Feature","properties":{},"geometry":{"type":"Polygon","coordinates":[[[32.85358,39.87211],[32.8543,39.8721],[32.85428,39.8724],[32.85427,39.87263],[32.85366,39.87262],[32.85358,39.87214],[32.85358,39.87211]]]}},{"type":"Feature","properties":{},"geometry":{"type":"Polygon","coordinates":[[[32.83395,39.86364],[32.83441,39.86351],[32.83449,39.86356],[32.83472,39.864],[32.83418,39.86417],[32.83395,39.86364]]]}},{"type":"Feature","properties":{},"geometry":{"type":"Polygon","coordinates":[[[32.84139,39.85112],[32.84129,39.8511],[32.84029,39.85084],[32.84023,39.85136],[32.84022,39.85146],[32.84022,39.85148],[32.84023,39.85159],[32.84026,39.85179],[32.8403,39.85191],[32.84035,39.85203],[32.84041,39.85213],[32.84046,39.85218],[32.84123,39.85156],[32.8412,39.85155],[32.84117,39.85152],[32.84117,39.8515],[32.84139,39.85112]]]}},{"type":"Feature","properties":{},"geometry":{"type":"Polygon","coordinates":[[[32.82996,39.87369],[32.82958,39.87352],[32.82991,39.87309],[32.83029,39.87326],[32.82996,39.87369]]]}},{"type":"Feature","properties":{},"geometry":{"type":"Polygon","coordinates":[[[32.81845,39.86342],[32.81875,39.8637],[32.81898,39.86391],[32.81917,39.86417],[32.81926,39.86431],[32.81932,39.86449],[32.81949,39.86501],[32.81956,39.86518],[32.81963,39.8652],[32.82035,39.86496],[32.82019,39.86488],[32.82005,39.8647],[32.81991,39.86443],[32.81987,39.86415],[32.81976,39.86401],[32.81945,39.86376],[32.81921,39.8636],[32.81884,39.86345],[32.81858,39.86341],[32.81845,39.86342]]]}},{"type":"Feature","properties":{},"geometry":{"type":"Polygon","coordinates":[[[32.8336,39.84917],[32.83323,39.84904],[32.83222,39.84867],[32.83154,39.84842],[32.8313,39.84833],[32.83114,39.84827],[32.83114,39.84859],[32.83114,39.84908],[32.83116,39.84909],[32.83192,39.84963],[32.83219,39.84982],[32.83228,39.84992],[32.83235,39.85003],[32.83237,39.85013],[32.83241,39.85043],[32.83243,39.85053],[32.83248,39.85063],[32.83255,39.8507],[32.83264,39.85076],[32.83276,39.85082],[32.83292,39.85085],[32.83315,39.85086],[32.8339,39.85087],[32.83436,39.85088],[32.83436,39.85103],[32.83452,39.85104],[32.8346,39.85106],[32.83467,39.85109],[32.83542,39.8516],[32.83544,39.85155],[32.83544,39.85149],[32.83539,39.85139],[32.83531,39.85124],[32.83504,39.85088],[32.83465,39.85037],[32.83452,39.85019],[32.83435,39.84996],[32.83419,39.84964],[32.83409,39.84937],[32.83407,39.84931],[32.83406,39.84925],[32.83393,39.84924],[32.83377,39.84922],[32.8336,39.84917]]]}},{"type":"Feature","properties":{},"geometry":{"type":"Polygon","coordinates":[[[32.85542,39.85098],[32.8551,39.85089],[32.85502,39.85084],[32.85499,39.85083],[32.85493,39.8508],[32.8551,39.85027],[32.85518,39.85016],[32.85528,39.85008],[32.85544,39.85004],[32.85559,39.85007],[32.85574,39.85011],[32.85593,39.85019],[32.85588,39.85027],[32.85567,39.85061],[32.85555,39.85078],[32.85545,39.85094],[32.85542,39.85098]]]}},{"type":"Feature","properties":{},"geometry":{"type":"Polygon","coordinates":[[[32.82261,39.86471],[32.82304,39.86432],[32.82328,39.86441],[32.82297,39.86484],[32.82261,39.86471]]]}},{"type":"Feature","properties":{},"geometry":{"type":"Polygon","coordinates":[[[32.8254,39.8664],[32.82628,39.86575],[32.82671,39.86619],[32.82672,39.86625],[32.82667,39.86634],[32.82642,39.86643],[32.82609,39.86654],[32.82593,39.86666],[32.82582,39.86678],[32.82576,39.86684],[32.8254,39.8664]]]}},{"type":"Feature","properties":{},"geometry":{"type":"Polygon","coordinates":[[[32.83227,39.86422],[32.83297,39.86405],[32.83331,39.86484],[32.83282,39.86497],[32.8326,39.8646],[32.83241,39.86436],[32.83227,39.86422]]]}},{"type":"Feature","properties":{},"geometry":{"type":"Polygon","coordinates":[[[32.82856,39.86699],[32.82901,39.86705],[32.829,39.86719],[32.82925,39.86723],[32.8294,39.86728],[32.82977,39.86747],[32.83023,39.86771],[32.83035,39.86782],[32.83041,39.86808],[32.82949,39.86796],[32.82946,39.86806],[32.82945,39.86821],[32.82922,39.86812],[32.82892,39.86789],[32.82866,39.86757],[32.8285,39.86729],[32.82856,39.86699]]]}},{"type":"Feature","properties":{},"geometry":{"type":"Polygon","coordinates":[[[32.83047,39.86775],[32.83109,39.86735],[32.83123,39.86738],[32.8314,39.86751],[32.83151,39.8677],[32.83097,39.86793],[32.8306,39.86799],[32.83047,39.86775]]]}},{"type":"Feature","properties":{},"geometry":{"type":"Polygon","coordinates":[[[32.83232,39.86988],[32.83256,39.86956],[32.83315,39.86988],[32.83298,39.87008],[32.83294,39.87005],[32.83281,39.87022],[32.83232,39.86988]]]}},{"type":"Feature","properties":{},"geometry":{"type":"Polygon","coordinates":[[[32.83582,39.87237],[32.83611,39.87197],[32.83641,39.8723],[32.83599,39.87252],[32.83582,39.87237]]]}},{"type":"Feature","properties":{},"geometry":{"type":"Polygon","coordinates":[[[32.82855,39.8715],[32.82907,39.87099],[32.82934,39.87113],[32.82924,39.87122],[32.8293,39.8713],[32.82942,39.87138],[32.82921,39.87155],[32.82899,39.87142],[32.82875,39.87164],[32.82855,39.8715]]]}},{"type":"Feature","properties":{},"geometry":{"type":"Polygon","coordinates":[[[32.83167,39.8739],[32.83194,39.87365],[32.83224,39.87389],[32.83229,39.8739],[32.83309,39.87324],[32.83337,39.87342],[32.83346,39.87352],[32.83288,39.87383],[32.83266,39.87395],[32.83261,39.87392],[32.83245,39.87401],[32.83246,39.87407],[32.83228,39.87415],[32.83215,39.87413],[32.83203,39.87419],[32.83167,39.8739]]]}},{"type":"Feature","properties":{},"geometry":{"type":"Polygon","coordinates":[[[32.83759,39.87223],[32.83814,39.87193],[32.83819,39.87193],[32.83828,39.87197],[32.83862,39.87236],[32.83828,39.87248],[32.83806,39.87251],[32.83792,39.87251],[32.83778,39.87243],[32.83759,39.87223]]]}},{"type":"Feature","properties":{},"geometry":{"type":"Polygon","coordinates":[[[32.83889,39.87105],[32.83864,39.87071],[32.83953,39.87038],[32.83958,39.87038],[32.83962,39.87041],[32.83967,39.87051],[32.83942,39.87064],[32.83951,39.87079],[32.83889,39.87105]]]}},{"type":"Feature","properties":{},"geometry":{"type":"Polygon","coordinates":[[[32.83743,39.86666],[32.83739,39.86651],[32.83725,39.86629],[32.83762,39.86616],[32.83791,39.86632],[32.8383,39.86655],[32.83804,39.86666],[32.8379,39.86652],[32.83777,39.86646],[32.83743,39.86666]]]}},{"type":"Feature","properties":{},"geometry":{"type":"Polygon","coordinates":[[[32.83977,39.86419],[32.83942,39.86371],[32.83947,39.8637],[32.83952,39.86369],[32.83961,39.8637],[32.8397,39.86372],[32.83975,39.86374],[32.8398,39.86376],[32.83985,39.86379],[32.83988,39.86381],[32.83992,39.86384],[32.83994,39.86387],[32.84006,39.86406],[32.83983,39.86416],[32.83977,39.86419]]]}},{"type":"Feature","properties":{},"geometry":{"type":"Polygon","coordinates":[[[32.8383,39.86858],[32.83885,39.86862],[32.83889,39.8686],[32.83887,39.86839],[32.83826,39.86839],[32.83825,39.86848],[32.83827,39.86855],[32.8383,39.86858]]]}},{"type":"Feature","properties":{},"geometry":{"type":"Polygon","coordinates":[[[32.83594,39.86127],[32.83585,39.86099],[32.83588,39.86096],[32.8359,39.86094],[32.83637,39.86106],[32.83652,39.86109],[32.8366,39.86117],[32.83594,39.86127]]]}},{"type":"Feature","properties":{},"geometry":{"type":"Polygon","coordinates":[[[32.83374,39.86108],[32.83373,39.86008],[32.83313,39.86007],[32.83314,39.86034],[32.83316,39.86047],[32.83325,39.86058],[32.83374,39.86108]]]}},{"type":"Feature","properties":{},"geometry":{"type":"Polygon","coordinates":[[[32.8541,39.85948],[32.85377,39.85924],[32.85368,39.85918],[32.85361,39.85915],[32.85354,39.85914],[32.85348,39.85914],[32.85341,39.85915],[32.85333,39.85918],[32.85326,39.85923],[32.85323,39.85928],[32.85322,39.85934],[32.85321,39.85945],[32.85334,39.85977],[32.85356,39.85989],[32.85399,39.85957],[32.8541,39.85948]]]}},{"type":"Feature","properties":{},"geometry":{"type":"Polygon","coordinates":[[[32.82746,39.87057],[32.82734,39.87073],[32.82844,39.87144],[32.82868,39.87125],[32.82746,39.87057]]]}},{"type":"Feature","properties":{},"geometry":{"type":"Polygon","coordinates":[[[32.82432,39.85125],[32.82448,39.85138],[32.8254,39.85062],[32.82608,39.8501],[32.82584,39.85001],[32.82572,39.84998],[32.82563,39.84998],[32.82552,39.84998],[32.82537,39.85],[32.82483,39.85017],[32.82479,39.85083],[32.82432,39.85125]]]}},{"type":"Feature","properties":{},"geometry":{"type":"Polygon","coordinates":[[[32.85358,39.86059],[32.85368,39.86065],[32.85393,39.86083],[32.8542,39.86063],[32.85401,39.86048],[32.85425,39.86029],[32.85389,39.86006],[32.85356,39.85989],[32.85334,39.85977],[32.85345,39.86013],[32.85358,39.86059]]]}},{"type":"Feature","properties":{},"geometry":{"type":"Polygon","coordinates":[[[32.81758,39.85135],[32.81874,39.85157],[32.81887,39.85159],[32.81893,39.85147],[32.81892,39.8514],[32.8189,39.85133],[32.81888,39.8513],[32.81882,39.8512],[32.81874,39.85113],[32.81792,39.85112],[32.81783,39.85113],[32.81776,39.85116],[32.8177,39.85119],[32.81758,39.85135]]]}},{"type":"Feature","properties":{},"geometry":{"type":"Polygon","coordinates":[[[32.83973,39.84845],[32.83983,39.84865],[32.83985,39.84871],[32.83989,39.84887],[32.83993,39.84906],[32.83994,39.84914],[32.84001,39.8495],[32.83998,39.8495],[32.8396,39.84944],[32.83921,39.84939],[32.83916,39.84939],[32.83891,39.84938],[32.83895,39.84929],[32.83902,39.84921],[32.83904,39.84918],[32.83942,39.84878],[32.83946,39.84874],[32.83958,39.84862],[32.83973,39.84845]]]}},{"type":"Feature","properties":{},"geometry":{"type":"Polygon","coordinates":[[[32.84564,39.85528],[32.84572,39.8549],[32.84572,39.85489],[32.84574,39.85477],[32.84646,39.8549],[32.84632,39.85541],[32.84581,39.85531],[32.84564,39.85528]]]}},{"type":"Feature","properties":{},"geometry":{"type":"Polygon","coordinates":[[[32.85614,39.84774],[32.85616,39.84772],[32.8562,39.84769],[32.85632,39.84781],[32.85626,39.84785],[32.85624,39.84786],[32.85622,39.84788],[32.85624,39.8479],[32.8562,39.84791],[32.85622,39.84797],[32.85625,39.84797],[32.85629,39.84814],[32.8564,39.84822],[32.85624,39.84833],[32.85605,39.84841],[32.85595,39.84842],[32.85583,39.84842],[32.85571,39.84841],[32.85559,39.84837],[32.8555,39.84834],[32.85537,39.84824],[32.85526,39.84811],[32.85523,39.84795],[32.85528,39.8478],[32.8554,39.84767],[32.85555,39.84758],[32.85568,39.84754],[32.85573,39.84764],[32.85585,39.84766],[32.85601,39.8477],[32.85608,39.84773],[32.85614,39.84774]]]}},{"type":"Feature","properties":{},"geometry":{"type":"Polygon","coordinates":[[[32.85456,39.85304],[32.85462,39.8527],[32.85467,39.85247],[32.8551,39.85251],[32.85507,39.85283],[32.85504,39.85309],[32.85456,39.85304]]]}},{"type":"Feature","properties":{},"geometry":{"type":"Polygon","coordinates":[[[32.82285,39.86427],[32.82263,39.86446],[32.82206,39.86428],[32.82218,39.86407],[32.82285,39.86427]]]}},{"type":"Feature","properties":{},"geometry":{"type":"Polygon","coordinates":[[[32.85345,39.87074],[32.85386,39.87088],[32.85407,39.87045],[32.85413,39.87035],[32.85382,39.87019],[32.85368,39.87038],[32.85353,39.87062],[32.85345,39.87074]]]}},{"type":"Feature","properties":{},"geometry":{"type":"Polygon","coordinates":[[[32.84617,39.85379],[32.84629,39.85356],[32.84636,39.85358],[32.84649,39.85339],[32.84653,39.85341],[32.84666,39.85321],[32.84666,39.85313],[32.84666,39.85308],[32.84646,39.85301],[32.84644,39.85304],[32.84612,39.85292],[32.8461,39.85296],[32.846,39.85293],[32.84598,39.85298],[32.84595,39.85297],[32.84586,39.85315],[32.84558,39.85306],[32.84557,39.8531],[32.84525,39.853],[32.84528,39.85295],[32.84518,39.85292],[32.84515,39.85297],[32.84514,39.85296],[32.84504,39.85322],[32.84508,39.85323],[32.84499,39.85344],[32.84493,39.85343],[32.84492,39.85345],[32.84468,39.8534],[32.84478,39.85359],[32.84476,39.85365],[32.84485,39.85366],[32.84499,39.85368],[32.84519,39.85371],[32.84523,39.85372],[32.84539,39.85375],[32.84559,39.85378],[32.8459,39.85381],[32.84613,39.85379],[32.84617,39.85379]]]}},{"type":"Feature","properties":{},"geometry":{"type":"Polygon","coordinates":[[[32.84105,39.85052],[32.84163,39.85082],[32.842,39.85045],[32.84205,39.85042],[32.84209,39.85038],[32.84138,39.85008],[32.84105,39.85052]]]}},{"type":"Feature","properties":{},"geometry":{"type":"Polygon","coordinates":[[[32.84577,39.85161],[32.84588,39.85197],[32.84494,39.85215],[32.84498,39.85225],[32.84506,39.85245],[32.84554,39.85237],[32.84587,39.85234],[32.84604,39.85232],[32.84595,39.85196],[32.84661,39.85186],[32.84652,39.85182],[32.84645,39.85178],[32.84618,39.85168],[32.84611,39.85166],[32.84586,39.85159],[32.84577,39.85161]]]}},{"type":"Feature","properties":{},"geometry":{"type":"Polygon","coordinates":[[[32.85203,39.85579],[32.85259,39.85566],[32.85288,39.85472],[32.85286,39.85473],[32.85251,39.85481],[32.85266,39.85516],[32.85262,39.85524],[32.85187,39.85542],[32.85199,39.85569],[32.85203,39.85579]]]}},{"type":"Feature","properties":{},"geometry":{"type":"Polygon","coordinates":[[[32.82143,39.84886],[32.82163,39.84915],[32.82192,39.84921],[32.8223,39.84905],[32.82228,39.84901],[32.82213,39.8488],[32.82211,39.84876],[32.82209,39.84871],[32.82198,39.84871],[32.82185,39.84871],[32.82173,39.84873],[32.82163,39.84878],[32.82143,39.84886]]]}},{"type":"Feature","properties":{},"geometry":{"type":"Polygon","coordinates":[[[32.85471,39.85169],[32.85503,39.85103],[32.85438,39.85092],[32.85426,39.85132],[32.85416,39.85135],[32.85425,39.85143],[32.85414,39.85164],[32.85471,39.85169]]]}},{"type":"Feature","properties":{},"geometry":{"type":"Polygon","coordinates":[[[32.85885,39.86684],[32.85881,39.86677],[32.85878,39.86672],[32.85872,39.86659],[32.85934,39.86618],[32.85935,39.86619],[32.85961,39.86651],[32.8593,39.86672],[32.85913,39.86675],[32.85885,39.86684]]]}},{"type":"Feature","properties":{},"geometry":{"type":"Polygon","coordinates":[[[32.83272,39.86736],[32.83313,39.86771],[32.83321,39.86773],[32.83335,39.86765],[32.83348,39.86757],[32.8336,39.86753],[32.83376,39.86749],[32.83391,39.86744],[32.83395,39.8674],[32.83396,39.86736],[32.83389,39.86727],[32.83375,39.8671],[32.83337,39.86668],[32.8333,39.86671],[32.83307,39.86682],[32.83285,39.86689],[32.83244,39.86695],[32.83208,39.86709],[32.83219,39.86745],[32.83268,39.86733],[32.83272,39.86736]]]}},{"type":"Feature","properties":{},"geometry":{"type":"Polygon","coordinates":[[[32.861,39.86569],[32.86099,39.86571],[32.86101,39.86573],[32.86144,39.86594],[32.8615,39.86589],[32.86165,39.86577],[32.86214,39.86534],[32.8626,39.86491],[32.86235,39.86476],[32.86189,39.86508],[32.861,39.86569]]]}},{"type":"Feature","properties":{},"geometry":{"type":"Polygon","coordinates":[[[32.83625,39.84651],[32.83667,39.84632],[32.8366,39.84618],[32.83634,39.8461],[32.83628,39.84609],[32.83623,39.8461],[32.8362,39.84612],[32.83618,39.84616],[32.83618,39.84621],[32.83619,39.84627],[32.83625,39.84651]]]}},{"type":"Feature","properties":{},"geometry":{"type":"Polygon","coordinates":[[[32.84023,39.85136],[32.83948,39.85129],[32.83936,39.85161],[32.84022,39.85148],[32.84022,39.85146],[32.84023,39.85136]]]}},{"type":"Feature","properties":{},"geometry":{"type":"Polygon","coordinates":[[[32.83034,39.84954],[32.82998,39.84928],[32.82997,39.84918],[32.83074,39.84917],[32.83081,39.84918],[32.83086,39.8492],[32.83091,39.84922],[32.83154,39.84967],[32.83132,39.84985],[32.83091,39.84957],[32.83086,39.84954],[32.83079,39.84953],[32.83034,39.84954]]]}},{"type":"Feature","properties":{},"geometry":{"type":"Polygon","coordinates":[[[32.83194,39.85066],[32.83144,39.85033],[32.83145,39.85001],[32.83146,39.84996],[32.83143,39.84992],[32.83132,39.84985],[32.83154,39.84967],[32.83193,39.84995],[32.83197,39.85],[32.832,39.85004],[32.83201,39.85008],[32.83201,39.85013],[32.83204,39.85066],[32.83194,39.85066]]]}},{"type":"Feature","properties":{},"geometry":{"type":"Polygon","coordinates":[[[32.8546,39.8631],[32.8546,39.86283],[32.85481,39.86304],[32.85498,39.86317],[32.85513,39.8633],[32.85528,39.86341],[32.8556,39.86364],[32.85538,39.86362],[32.85515,39.86364],[32.855,39.8637],[32.85486,39.86378],[32.85478,39.86384],[32.85472,39.86388],[32.85452,39.86405],[32.85442,39.86411],[32.85444,39.86403],[32.85454,39.86385],[32.85456,39.86376],[32.85458,39.86363],[32.85459,39.86348],[32.8546,39.8631]]]}},{"type":"Feature","properties":{},"geometry":{"type":"Polygon","coordinates":[[[32.8375,39.85224],[32.83765,39.85233],[32.83785,39.85215],[32.83758,39.85104],[32.83767,39.85103],[32.83746,39.85013],[32.83698,39.85033],[32.83615,39.8503],[32.83614,39.85046],[32.83588,39.85057],[32.83612,39.85087],[32.83634,39.85117],[32.83644,39.8513],[32.83662,39.85147],[32.83682,39.85165],[32.83734,39.85212],[32.8375,39.85224]]]}},{"type":"Feature","properties":{},"geometry":{"type":"Polygon","coordinates":[[[32.82258,39.86482],[32.82333,39.86507],[32.82379,39.86518],[32.82375,39.86549],[32.82367,39.86546],[32.82336,39.8653],[32.82309,39.86521],[32.82291,39.86516],[32.8227,39.86509],[32.82257,39.86501],[32.82252,39.86498],[32.8225,39.86494],[32.8225,39.8649],[32.82252,39.86485],[32.82258,39.86482]]]}},{"type":"Feature","properties":{},"geometry":{"type":"Polygon","coordinates":[[[32.82646,39.84978],[32.82626,39.84995],[32.82626,39.84995],[32.82575,39.84978],[32.82586,39.84958],[32.82608,39.84965],[32.82646,39.84978]]]}},{"type":"Feature","properties":{},"geometry":{"type":"Polygon","coordinates":[[[32.83759,39.84909],[32.83727,39.84925],[32.83737,39.84978],[32.83771,39.84972],[32.83834,39.84964],[32.83876,39.84964],[32.83912,39.84968],[32.83921,39.84939],[32.83916,39.84939],[32.83891,39.84938],[32.83879,39.84939],[32.83825,39.8494],[32.83808,39.8494],[32.83796,39.84937],[32.83783,39.84932],[32.83774,39.84926],[32.83765,39.84918],[32.83759,39.84909]]]}},{"type":"Feature","properties":{},"geometry":{"type":"Polygon","coordinates":[[[32.85172,39.85684],[32.85178,39.85693],[32.8519,39.857],[32.85199,39.85703],[32.85206,39.85705],[32.85217,39.85706],[32.85229,39.85706],[32.85246,39.85705],[32.85234,39.85663],[32.85172,39.85684]]]}},{"type":"Feature","properties":{},"geometry":{"type":"Polygon","coordinates":[[[32.85695,39.86366],[32.85699,39.86365],[32.85704,39.86368],[32.85707,39.86368],[32.85711,39.86363],[32.85714,39.86357],[32.85714,39.86352],[32.85712,39.86347],[32.85709,39.86339],[32.85707,39.86334],[32.85702,39.86332],[32.85697,39.86332],[32.85693,39.86335],[32.85687,39.86336],[32.85681,39.86336],[32.85677,39.86337],[32.85669,39.86349],[32.85673,39.86354],[32.85676,39.86358],[32.85682,39.86363],[32.85692,39.86367],[32.85695,39.86366]]]}},{"type":"Feature","properties":{},"geometry":{"type":"Polygon","coordinates":[[[32.85587,39.86064],[32.85566,39.86056],[32.85545,39.86044],[32.85533,39.86056],[32.85567,39.86071],[32.85566,39.86072],[32.85578,39.86077],[32.85751,39.86166],[32.8575,39.86169],[32.8585,39.86223],[32.85936,39.86269],[32.85953,39.86278],[32.86154,39.86383],[32.86176,39.86369],[32.86162,39.86362],[32.86075,39.86316],[32.86,39.86275],[32.85956,39.86252],[32.85946,39.86247],[32.85942,39.86245],[32.85936,39.86242],[32.85935,39.86242],[32.85925,39.86237],[32.85914,39.86231],[32.85865,39.86206],[32.85697,39.86121],[32.85641,39.86092],[32.85587,39.86064]]]}},{"type":"Feature","properties":{},"geometry":{"type":"Polygon","coordinates":[[[32.85399,39.85957],[32.85484,39.86017],[32.85482,39.86018],[32.85516,39.86042],[32.85527,39.86032],[32.85499,39.86013],[32.85453,39.85979],[32.85441,39.8597],[32.8541,39.85948],[32.85399,39.85957]]]}},{"type":"Feature","properties":{},"geometry":{"type":"Polygon","coordinates":[[[32.85321,39.85945],[32.85322,39.85934],[32.85323,39.85928],[32.85326,39.85923],[32.85333,39.85918],[32.85341,39.85915],[32.85348,39.85914],[32.85354,39.85914],[32.85361,39.85915],[32.85368,39.85918],[32.85377,39.85924],[32.8541,39.85948],[32.85441,39.8597],[32.85447,39.85965],[32.85459,39.85956],[32.85365,39.85888],[32.8531,39.85849],[32.8528,39.85829],[32.85263,39.85815],[32.85245,39.85803],[32.85253,39.8582],[32.85285,39.85873],[32.85308,39.85918],[32.85321,39.85945]]]}},{"type":"Feature","properties":{},"geometry":{"type":"Polygon","coordinates":[[[32.85019,39.87131],[32.85052,39.8719],[32.85071,39.87212],[32.85129,39.87242],[32.8514,39.87244],[32.85152,39.87246],[32.85163,39.87259],[32.85101,39.87262],[32.85081,39.87254],[32.85067,39.87243],[32.85049,39.87214],[32.85008,39.87133],[32.85019,39.87131]]]}},{"type":"Feature","properties":{},"geometry":{"type":"Polygon","coordinates":[[[32.8397,39.85052],[32.83964,39.85072],[32.83957,39.85071],[32.83962,39.85056],[32.83909,39.85045],[32.839,39.8507],[32.83892,39.85093],[32.83946,39.85104],[32.83944,39.85108],[32.83868,39.85094],[32.83878,39.85065],[32.83889,39.85035],[32.8397,39.85052]]]}},{"type":"Feature","properties":{},"geometry":{"type":"Polygon","coordinates":[[[32.85636,39.85398],[32.85648,39.85398],[32.85671,39.85396],[32.85679,39.854],[32.85694,39.85404],[32.8571,39.85408],[32.8572,39.8541],[32.85734,39.85412],[32.85739,39.85416],[32.8574,39.85424],[32.85739,39.85432],[32.85745,39.8544],[32.85755,39.85447],[32.85769,39.85459],[32.85774,39.8546],[32.85785,39.85467],[32.85794,39.85474],[32.85798,39.85485],[32.85801,39.85499],[32.858,39.85514],[32.85797,39.85527],[32.85795,39.85536],[32.85795,39.85553],[32.85798,39.85565],[32.85798,39.85573],[32.858,39.85589],[32.8581,39.85599],[32.85822,39.85603],[32.8584,39.85607],[32.85854,39.85611],[32.85857,39.85618],[32.85847,39.85623],[32.85839,39.85625],[32.8582,39.85629],[32.85795,39.85639],[32.85788,39.85653],[32.85788,39.85664],[32.8579,39.85675],[32.85785,39.85685],[32.85775,39.85691],[32.85767,39.85693],[32.85756,39.85692],[32.85745,39.8569],[32.85735,39.85691],[32.85736,39.85686],[32.85738,39.85679],[32.85739,39.85671],[32.85739,39.85654],[32.85737,39.85632],[32.85734,39.85608],[32.85732,39.85599],[32.8573,39.85586],[32.85729,39.85578],[32.85726,39.85567],[32.85719,39.8555],[32.8571,39.85533],[32.85695,39.85513],[32.85677,39.85493],[32.85661,39.85474],[32.8565,39.85462],[32.85643,39.85452],[32.85639,39.85446],[32.85635,39.85438],[32.85634,39.8543],[32.85634,39.85417],[32.85636,39.85398]]]}},{"type":"Feature","properties":{},"geometry":{"type":"Polygon","coordinates":[[[32.85776,39.85283],[32.85789,39.85284],[32.85803,39.85282],[32.8583,39.85283],[32.85841,39.85285],[32.85858,39.85295],[32.85871,39.85305],[32.85883,39.85322],[32.85893,39.85335],[32.85895,39.85348],[32.85894,39.85356],[32.85898,39.85367],[32.85902,39.85373],[32.85901,39.85383],[32.85898,39.85389],[32.85888,39.8539],[32.85878,39.85389],[32.85872,39.85387],[32.85854,39.85388],[32.85845,39.85391],[32.85832,39.85398],[32.85823,39.85401],[32.85813,39.85401],[32.85803,39.854],[32.85793,39.85399],[32.85782,39.85402],[32.85782,39.85409],[32.85789,39.85414],[32.85802,39.85416],[32.85811,39.85416],[32.85825,39.85414],[32.85833,39.85412],[32.85851,39.85408],[32.85866,39.85406],[32.8588,39.85407],[32.85892,39.85411],[32.85907,39.85418],[32.85929,39.85431],[32.85943,39.85443],[32.85948,39.85452],[32.85955,39.85468],[32.85954,39.85477],[32.85955,39.85484],[32.85964,39.85492],[32.85972,39.85496],[32.85983,39.85503],[32.85996,39.85513],[32.8601,39.85518],[32.86033,39.85523],[32.86035,39.85515],[32.86031,39.85508],[32.86026,39.85497],[32.86014,39.8549],[32.86006,39.8548],[32.86005,39.85469],[32.86008,39.8546],[32.86012,39.85453],[32.86019,39.85446],[32.8602,39.85439],[32.86016,39.85433],[32.86005,39.85425],[32.86,39.85424],[32.85988,39.85421],[32.85969,39.85413],[32.85958,39.85408],[32.85953,39.85402],[32.85949,39.85393],[32.85948,39.85383],[32.85948,39.85376],[32.8595,39.85364],[32.85952,39.85355],[32.85949,39.85346],[32.85945,39.85341],[32.85932,39.8533],[32.85923,39.85321],[32.85917,39.85311],[32.85908,39.85295],[32.85902,39.85285],[32.85895,39.85275],[32.85884,39.85262],[32.85879,39.85254],[32.85875,39.85248],[32.85869,39.85244],[32.8586,39.85239],[32.8585,39.85235],[32.8584,39.85227],[32.85837,39.85221],[32.85836,39.85219],[32.85836,39.85214],[32.85839,39.85207],[32.85847,39.85201],[32.85849,39.85195],[32.85846,39.8519],[32.85837,39.85177],[32.85835,39.85166],[32.85828,39.85158],[32.85825,39.8516],[32.85795,39.85188],[32.85789,39.85195],[32.85787,39.85202],[32.85785,39.85212],[32.85783,39.85223],[32.85782,39.85231],[32.85778,39.85238],[32.85772,39.85245],[32.85764,39.85252],[32.85747,39.85262],[32.8572,39.85276],[32.8573,39.85281],[32.85745,39.85282],[32.8576,39.85283],[32.85776,39.85283]]]}},{"type":"Feature","properties":{},"geometry":{"type":"Polygon","coordinates":[[[32.8644,39.85807],[32.86432,39.85791],[32.8642,39.85779],[32.86403,39.8577],[32.8637,39.85754],[32.86341,39.85744],[32.86317,39.85738],[32.86299,39.85734],[32.86276,39.85727],[32.86264,39.85721],[32.86253,39.85715],[32.86238,39.85711],[32.86223,39.85709],[32.86217,39.85719],[32.86217,39.85732],[32.86215,39.85744],[32.86205,39.85754],[32.86182,39.85764],[32.86161,39.85766],[32.86148,39.85775],[32.8614,39.85787],[32.86132,39.85798],[32.86117,39.85809],[32.86106,39.85817],[32.86089,39.85822],[32.86074,39.85825],[32.86063,39.85832],[32.86053,39.85843],[32.8605,39.85851],[32.86045,39.85858],[32.86036,39.85858],[32.86029,39.85855],[32.86021,39.85852],[32.86013,39.8585],[32.86001,39.8585],[32.85984,39.85855],[32.85975,39.85861],[32.85968,39.85866],[32.8596,39.85872],[32.85945,39.85878],[32.85934,39.85881],[32.85927,39.85888],[32.85923,39.859],[32.85923,39.85908],[32.85927,39.85926],[32.85925,39.85936],[32.85926,39.85945],[32.85935,39.85948],[32.85941,39.85942],[32.8594,39.85933],[32.85938,39.85924],[32.8594,39.85912],[32.85946,39.85903],[32.85956,39.85894],[32.85964,39.85888],[32.85975,39.85884],[32.85998,39.8588],[32.86015,39.8588],[32.86027,39.85883],[32.86037,39.85885],[32.86052,39.85883],[32.86065,39.85879],[32.86076,39.8587],[32.86083,39.85862],[32.86096,39.85854],[32.86126,39.85843],[32.86137,39.85834],[32.86149,39.85817],[32.86163,39.85803],[32.86175,39.85796],[32.86188,39.85791],[32.86198,39.8579],[32.86202,39.85787],[32.8622,39.8578],[32.86274,39.85764],[32.86299,39.85762],[32.86321,39.85768],[32.86357,39.85792],[32.8638,39.8581],[32.86399,39.85823],[32.86426,39.85837],[32.86458,39.85847],[32.86478,39.85852],[32.86474,39.8584],[32.86462,39.85824],[32.86447,39.85814],[32.8644,39.85807]]]}},{"type":"Feature","properties":{},"geometry":{"type":"Polygon","coordinates":[[[32.86343,39.86159],[32.86329,39.86165],[32.86319,39.86167],[32.86303,39.86167],[32.86294,39.86169],[32.86285,39.86174],[32.86293,39.86179],[32.86305,39.86178],[32.8632,39.86175],[32.86336,39.86172],[32.86354,39.8617],[32.86367,39.86164],[32.86374,39.86155],[32.86376,39.86144],[32.86382,39.86138],[32.86388,39.86135],[32.86399,39.86132],[32.86416,39.86125],[32.86428,39.86117],[32.86437,39.86106],[32.86443,39.86097],[32.86448,39.86089],[32.86455,39.86082],[32.86466,39.86078],[32.86478,39.86078],[32.86487,39.86081],[32.86498,39.86084],[32.86505,39.86086],[32.86513,39.86085],[32.86516,39.86081],[32.86517,39.86076],[32.86517,39.86069],[32.86524,39.86058],[32.86539,39.86045],[32.86553,39.86044],[32.8656,39.86048],[32.86563,39.86059],[32.86558,39.86067],[32.86547,39.86077],[32.86517,39.86106],[32.86507,39.86118],[32.86502,39.86131],[32.86501,39.86144],[32.86498,39.86153],[32.86493,39.86162],[32.86487,39.8617],[32.86478,39.86183],[32.86477,39.86192],[32.86481,39.86197],[32.86486,39.86191],[32.86493,39.86184],[32.86538,39.86143],[32.86551,39.86129],[32.86562,39.86113],[32.8657,39.861],[32.86583,39.86084],[32.8659,39.86077],[32.86591,39.86071],[32.86589,39.86068],[32.86588,39.86065],[32.8659,39.8606],[32.86591,39.86057],[32.86591,39.86053],[32.8659,39.86052],[32.86586,39.86046],[32.86585,39.86043],[32.86587,39.86038],[32.86591,39.86036],[32.86595,39.86034],[32.86597,39.8603],[32.86596,39.86027],[32.86595,39.86017],[32.86598,39.86011],[32.86603,39.86005],[32.86612,39.85997],[32.86623,39.85997],[32.86633,39.86004],[32.86639,39.86009],[32.86654,39.86013],[32.86656,39.8601],[32.86656,39.86007],[32.86648,39.86],[32.86643,39.85988],[32.86647,39.85975],[32.86658,39.85965],[32.86671,39.85956],[32.86692,39.85939],[32.86696,39.85932],[32.86697,39.85924],[32.86683,39.8592],[32.86674,39.85935],[32.86646,39.8596],[32.86631,39.8597],[32.86617,39.85973],[32.86606,39.85973],[32.86593,39.85967],[32.86574,39.85957],[32.86557,39.85946],[32.8655,39.85939],[32.86542,39.85935],[32.86534,39.85935],[32.86533,39.8594],[32.86537,39.85947],[32.86543,39.85953],[32.86548,39.85958],[32.86558,39.85967],[32.86562,39.85974],[32.86564,39.85979],[32.86562,39.85987],[32.86559,39.85996],[32.86552,39.86004],[32.86547,39.86009],[32.86545,39.86015],[32.86542,39.86021],[32.86536,39.86027],[32.86531,39.86031],[32.86522,39.86036],[32.86512,39.86037],[32.86502,39.86038],[32.86492,39.86037],[32.86476,39.86035],[32.86464,39.86032],[32.8646,39.86033],[32.86456,39.86038],[32.86457,39.86043],[32.86457,39.86047],[32.86456,39.86055],[32.86453,39.86058],[32.86445,39.86068],[32.86438,39.86072],[32.86435,39.86077],[32.86434,39.86083],[32.86431,39.86088],[32.86426,39.86094],[32.86421,39.86098],[32.86417,39.86104],[32.86413,39.8611],[32.86408,39.86114],[32.86399,39.86118],[32.86387,39.86121],[32.86377,39.86124],[32.86368,39.86127],[32.86361,39.86134],[32.86358,39.86141],[32.86355,39.86148],[32.86351,39.86153],[32.86343,39.86159]]]}},{"type":"Feature","properties":{},"geometry":{"type":"Polygon","coordinates":[[[32.85708,39.84632],[32.85732,39.84629],[32.85763,39.84636],[32.85784,39.84646],[32.85802,39.8465],[32.85818,39.8465],[32.85852,39.84643],[32.8587,39.84636],[32.85896,39.84625],[32.85912,39.84624],[32.85919,39.84626],[32.85919,39.84633],[32.85912,39.84639],[32.85891,39.8465],[32.85879,39.84656],[32.85871,39.84667],[32.85871,39.84679],[32.8588,39.84681],[32.85895,39.84675],[32.85905,39.84666],[32.85916,39.84659],[32.85929,39.84653],[32.8594,39.84653],[32.85943,39.84659],[32.85936,39.84668],[32.85926,39.84669],[32.85915,39.84675],[32.85903,39.84689],[32.85896,39.84698],[32.85884,39.84704],[32.85871,39.84708],[32.85851,39.84714],[32.8584,39.84722],[32.85837,39.84736],[32.85846,39.84747],[32.85861,39.84756],[32.85872,39.84756],[32.85897,39.84768],[32.85906,39.84778],[32.8591,39.84796],[32.85912,39.84804],[32.85933,39.84824],[32.85944,39.84831],[32.85962,39.84838],[32.85977,39.8484],[32.85997,39.84837],[32.86015,39.84832],[32.86041,39.84825],[32.86069,39.8482],[32.86084,39.84819],[32.86104,39.84814],[32.86119,39.84804],[32.86127,39.84792],[32.86134,39.84782],[32.86143,39.84776],[32.86151,39.84773],[32.86154,39.84778],[32.86153,39.84784],[32.86136,39.84802],[32.8613,39.84811],[32.86122,39.84823],[32.86109,39.8483],[32.8609,39.84834],[32.86057,39.84841],[32.8604,39.84846],[32.86021,39.84857],[32.86013,39.84867],[32.8601,39.84886],[32.8601,39.84897],[32.86012,39.84905],[32.8602,39.84914],[32.8602,39.84919],[32.86019,39.84929],[32.86006,39.84917],[32.85977,39.84894],[32.85947,39.84867],[32.85925,39.84842],[32.85916,39.84841],[32.85905,39.84838],[32.85893,39.84832],[32.85884,39.84825],[32.85878,39.84821],[32.85873,39.84812],[32.85869,39.84802],[32.85864,39.84795],[32.85859,39.84787],[32.8585,39.84777],[32.85841,39.84771],[32.85831,39.84766],[32.85819,39.84762],[32.85803,39.84759],[32.85793,39.84759],[32.85785,39.84756],[32.85776,39.84751],[32.85765,39.84741],[32.85758,39.84734],[32.85736,39.84722],[32.85742,39.84717],[32.85744,39.8471],[32.85744,39.84708],[32.8574,39.84706],[32.85732,39.84706],[32.8572,39.84709],[32.85714,39.847],[32.85707,39.84687],[32.85703,39.84673],[32.85704,39.84655],[32.85708,39.84642],[32.85708,39.84632]]]}},{"type":"Feature","properties":{},"geometry":{"type":"Polygon","coordinates":[[[32.839,39.84007],[32.83977,39.84053],[32.83996,39.84053],[32.84012,39.84048],[32.84027,39.84034],[32.84017,39.84028],[32.84059,39.84003],[32.84074,39.84014],[32.84078,39.84002],[32.84087,39.83992],[32.841,39.83981],[32.84117,39.83969],[32.84125,39.83965],[32.84158,39.83947],[32.84196,39.83936],[32.84218,39.83937],[32.84242,39.83944],[32.84268,39.83958],[32.84294,39.83978],[32.84333,39.84003],[32.84368,39.8402],[32.84404,39.84035],[32.84431,39.84047],[32.8445,39.84071],[32.84457,39.8409],[32.84466,39.84134],[32.84466,39.84161],[32.84453,39.84176],[32.8444,39.84191],[32.84444,39.84205],[32.84451,39.8421],[32.84465,39.84213],[32.84513,39.84194],[32.84527,39.8418],[32.84532,39.84171],[32.84532,39.84158],[32.8453,39.84141],[32.84532,39.8413],[32.84546,39.84119],[32.84567,39.84106],[32.84591,39.84082],[32.84609,39.84065],[32.84625,39.84065],[32.84632,39.84082],[32.84619,39.841],[32.84609,39.84112],[32.84598,39.8413],[32.84591,39.84142],[32.84596,39.84154],[32.84603,39.84158],[32.84636,39.84152],[32.84655,39.84151],[32.84665,39.84152],[32.84683,39.84152],[32.84689,39.84161],[32.84672,39.84175],[32.84654,39.8418],[32.84639,39.84187],[32.84621,39.84196],[32.84615,39.84204],[32.84613,39.84215],[32.84622,39.84235],[32.8462,39.84259],[32.84613,39.84278],[32.84601,39.84292],[32.84582,39.84294],[32.84569,39.84298],[32.84555,39.84309],[32.84543,39.84325],[32.84539,39.84337],[32.84541,39.84358],[32.84546,39.84372],[32.84557,39.84381],[32.84571,39.84383],[32.8459,39.8438],[32.84619,39.84377],[32.84635,39.84381],[32.84655,39.84393],[32.84674,39.84421],[32.84693,39.8444],[32.84715,39.84449],[32.84732,39.84453],[32.84772,39.84455],[32.84792,39.8446],[32.84808,39.84469],[32.84813,39.84479],[32.84824,39.84484],[32.84845,39.8449],[32.84859,39.84492],[32.84887,39.84498],[32.84901,39.84507],[32.84911,39.84519],[32.84927,39.84545],[32.84938,39.84562],[32.84944,39.84575],[32.84921,39.84589],[32.84901,39.8459],[32.84878,39.8459],[32.8486,39.84592],[32.84839,39.84596],[32.8483,39.84601],[32.84803,39.84591],[32.84774,39.84608],[32.84671,39.8457],[32.84699,39.84524],[32.84585,39.84481],[32.84552,39.84536],[32.84446,39.84455],[32.84438,39.84447],[32.84434,39.8444],[32.84427,39.84435],[32.84421,39.84433],[32.84413,39.84432],[32.84408,39.84435],[32.844,39.84439],[32.8439,39.84439],[32.84381,39.84436],[32.84368,39.84435],[32.84346,39.84436],[32.84333,39.84436],[32.8433,39.84431],[32.84326,39.84426],[32.84328,39.8442],[32.84332,39.84413],[32.84337,39.84404],[32.84338,39.84389],[32.84337,39.8437],[32.84335,39.84359],[32.84328,39.8435],[32.84314,39.84341],[32.84289,39.84332],[32.84279,39.84331],[32.84261,39.84323],[32.84244,39.84314],[32.84234,39.84307],[32.8422,39.84297],[32.84203,39.84283],[32.84181,39.84262],[32.84169,39.84256],[32.84154,39.84251],[32.84137,39.84248],[32.84113,39.84248],[32.84109,39.84244],[32.84096,39.84242],[32.84079,39.84239],[32.84073,39.84237],[32.84067,39.84232],[32.8406,39.84226],[32.8406,39.84223],[32.84066,39.84181],[32.84067,39.84174],[32.84067,39.84168],[32.84063,39.84161],[32.84058,39.84153],[32.84054,39.84149],[32.84044,39.84143],[32.84036,39.84141],[32.84029,39.8414],[32.83977,39.84136],[32.83977,39.84118],[32.8397,39.84111],[32.83959,39.84105],[32.83935,39.84095],[32.83918,39.84092],[32.83912,39.84091],[32.83899,39.84091],[32.8389,39.84091],[32.8388,39.84087],[32.83875,39.84081],[32.83879,39.84076],[32.83879,39.84071],[32.83878,39.84065],[32.83883,39.84047],[32.839,39.84007]]]}},{"type":"Feature","properties":{},"geometry":{"type":"Polygon","coordinates":[[[32.83242,39.86894],[32.83251,39.86918],[32.83277,39.86944],[32.83306,39.86936],[32.83318,39.86935],[32.83307,39.86919],[32.83329,39.86916],[32.83352,39.86915],[32.83366,39.86907],[32.83383,39.86921],[32.83388,39.86929],[32.83415,39.86926],[32.83439,39.86924],[32.83459,39.86933],[32.83479,39.86932],[32.83504,39.86931],[32.83502,39.8692],[32.83482,39.8691],[32.83429,39.86894],[32.83415,39.86903],[32.83388,39.86899],[32.8338,39.86896],[32.83383,39.86881],[32.83388,39.86878],[32.83376,39.86868],[32.8337,39.86866],[32.83368,39.86876],[32.83343,39.86876],[32.8334,39.86902],[32.83328,39.86902],[32.83333,39.86863],[32.83312,39.86869],[32.83325,39.86858],[32.83331,39.86853],[32.83343,39.86853],[32.83343,39.86847],[32.83364,39.86844],[32.83356,39.86832],[32.83306,39.86834],[32.83299,39.86824],[32.83294,39.86813],[32.83276,39.86818],[32.83252,39.86834],[32.83237,39.86862],[32.83241,39.86885],[32.83242,39.86894]]]}},{"type":"Feature","properties":{},"geometry":{"type":"Polygon","coordinates":[[[32.85335,39.86773],[32.85338,39.86763],[32.85329,39.86758],[32.85316,39.86763],[32.85311,39.86771],[32.85301,39.86775],[32.85296,39.86783],[32.85298,39.86788],[32.85298,39.86798],[32.85289,39.86805],[32.8528,39.86807],[32.8527,39.86823],[32.85266,39.86832],[32.8527,39.86836],[32.85277,39.86838],[32.85283,39.86833],[32.85289,39.86821],[32.85292,39.86814],[32.85297,39.86806],[32.85305,39.86802],[32.85312,39.86801],[32.85318,39.86803],[32.8532,39.86807],[32.85323,39.86806],[32.85325,39.86799],[32.85323,39.86794],[32.85319,39.86787],[32.85323,39.8678],[32.8533,39.86779],[32.85335,39.86773]]]}},{"type":"Feature","properties":{},"geometry":{"type":"Polygon","coordinates":[[[32.85206,39.86957],[32.85238,39.86872],[32.85248,39.86858],[32.85251,39.86855],[32.85262,39.86853],[32.85271,39.86853],[32.85276,39.86857],[32.85278,39.86864],[32.85273,39.8687],[32.8527,39.8688],[32.85271,39.8689],[32.85274,39.86897],[32.85274,39.86906],[32.85272,39.86915],[32.85266,39.86922],[32.85261,39.86931],[32.8526,39.86937],[32.85262,39.86944],[32.85266,39.86951],[32.85265,39.8696],[32.85264,39.86968],[32.85255,39.86982],[32.85247,39.86991],[32.85248,39.87],[32.85257,39.87008],[32.85258,39.87017],[32.8526,39.87022],[32.85266,39.87025],[32.85265,39.87029],[32.85257,39.87033],[32.85252,39.87032],[32.85247,39.87025],[32.85246,39.8702],[32.85239,39.87016],[32.85229,39.87018],[32.85225,39.87013],[32.85219,39.87006],[32.85217,39.86998],[32.85218,39.86989],[32.85219,39.8698],[32.85216,39.86972],[32.85211,39.86966],[32.85206,39.86957]]]}},{"type":"Feature","properties":{},"geometry":{"type":"Polygon","coordinates":[[[32.85321,39.86971],[32.85326,39.86978],[32.85344,39.86994],[32.85315,39.87023],[32.85309,39.87018],[32.85301,39.87012],[32.85298,39.87005],[32.85296,39.86998],[32.85296,39.86994],[32.85297,39.86989],[32.853,39.86989],[32.85304,39.86991],[32.85307,39.86996],[32.85314,39.86997],[32.8532,39.86993],[32.85324,39.86987],[32.85321,39.86983],[32.8532,39.86977],[32.85321,39.86971]]]}},{"type":"Feature","properties":{},"geometry":{"type":"Polygon","coordinates":[[[32.85285,39.87054],[32.85291,39.87047],[32.85291,39.8704],[32.85292,39.87033],[32.85289,39.87031],[32.85281,39.87035],[32.85279,39.87043],[32.85272,39.87048],[32.85257,39.87052],[32.85252,39.87049],[32.85251,39.87046],[32.85247,39.87046],[32.85245,39.87048],[32.85244,39.87055],[32.85244,39.8706],[32.85242,39.87063],[32.85244,39.87065],[32.8525,39.87066],[32.85257,39.87066],[32.85262,39.87066],[32.85266,39.87068],[32.85273,39.87066],[32.85278,39.87065],[32.85285,39.87054]]]}},{"type":"Feature","properties":{},"geometry":{"type":"Polygon","coordinates":[[[32.85305,39.86933],[32.85312,39.86878],[32.85315,39.86862],[32.85313,39.86858],[32.85308,39.86853],[32.853,39.86853],[32.85295,39.86857],[32.85296,39.86864],[32.85301,39.8687],[32.85299,39.86879],[32.85295,39.86887],[32.85299,39.86894],[32.85296,39.86904],[32.85294,39.8691],[32.85296,39.86919],[32.85299,39.86924],[32.85305,39.86933]]]}},{"type":"Feature","properties":{},"geometry":{"type":"Polygon","coordinates":[[[32.85236,39.87244],[32.85235,39.8723],[32.85234,39.87211],[32.85226,39.8721],[32.85215,39.87214],[32.85214,39.87223],[32.85211,39.87229],[32.85209,39.87234],[32.85211,39.87237],[32.85214,39.87237],[32.8522,39.87234],[32.85224,39.87229],[32.85229,39.87233],[32.85236,39.87244]]]}},{"type":"Feature","properties":{},"geometry":{"type":"Polygon","coordinates":[[[32.85231,39.87167],[32.85221,39.87174],[32.85211,39.87175],[32.85203,39.87173],[32.852,39.87169],[32.85196,39.87167],[32.85195,39.87171],[32.85198,39.87176],[32.85202,39.87184],[32.85202,39.87191],[32.85206,39.87197],[32.85211,39.87198],[32.85215,39.87197],[32.85217,39.87188],[32.85222,39.87184],[32.85232,39.87183],[32.85231,39.87167]]]}},{"type":"Feature","properties":{},"geometry":{"type":"Polygon","coordinates":[[[32.85122,39.87151],[32.85115,39.87154],[32.8511,39.87153],[32.85109,39.87148],[32.8511,39.87143],[32.85113,39.87141],[32.85119,39.87142],[32.85121,39.87146],[32.85122,39.87151]]]}},{"type":"Feature","properties":{},"geometry":{"type":"Polygon","coordinates":[[[32.84771,39.8533],[32.84779,39.85326],[32.84798,39.85322],[32.84803,39.8532],[32.84809,39.85312],[32.8481,39.85309],[32.84808,39.85306],[32.84809,39.85302],[32.84814,39.85298],[32.84821,39.85295],[32.84829,39.85294],[32.84836,39.85295],[32.84841,39.85297],[32.84842,39.853],[32.84845,39.85303],[32.84852,39.85307],[32.84857,39.85307],[32.84861,39.85316],[32.84876,39.85311],[32.84878,39.85311],[32.84877,39.85309],[32.84885,39.85307],[32.84886,39.85309],[32.84895,39.85306],[32.84893,39.85299],[32.84886,39.85297],[32.84876,39.85298],[32.84866,39.85299],[32.84855,39.853],[32.84848,39.85297],[32.84848,39.85294],[32.8485,39.85289],[32.84858,39.85285],[32.8487,39.85281],[32.84881,39.85279],[32.84889,39.85281],[32.84893,39.85284],[32.849,39.85286],[32.8491,39.85303],[32.84925,39.85328],[32.84834,39.8536],[32.84771,39.85365],[32.84766,39.85336],[32.84771,39.8533]]]}},{"type":"Feature","properties":{},"geometry":{"type":"Polygon","coordinates":[[[32.84753,39.85509],[32.8474,39.85568],[32.84795,39.85589],[32.84817,39.85521],[32.84753,39.85509]]]}},{"type":"Feature","properties":{},"geometry":{"type":"Polygon","coordinates":[[[32.8446,39.85317],[32.84467,39.85293],[32.8447,39.85289],[32.8448,39.85283],[32.84488,39.85281],[32.84523,39.85271],[32.84532,39.85269],[32.84539,39.85267],[32.84548,39.85266],[32.84576,39.85262],[32.84596,39.85261],[32.84615,39.85262],[32.84627,39.85263],[32.84637,39.85265],[32.84668,39.85273],[32.84676,39.85277],[32.8468,39.85281],[32.84682,39.85287],[32.84686,39.85311],[32.84691,39.8531],[32.84698,39.8531],[32.84695,39.85291],[32.8469,39.85263],[32.84684,39.85224],[32.84604,39.85232],[32.84587,39.85234],[32.84554,39.85237],[32.84506,39.85245],[32.84428,39.85258],[32.84438,39.85279],[32.84438,39.85291],[32.84447,39.85298],[32.84454,39.85305],[32.8446,39.85317]]]}},{"type":"Feature","properties":{},"geometry":{"type":"Polygon","coordinates":[[[32.83982,39.8396],[32.83977,39.83957],[32.83972,39.83955],[32.83969,39.83949],[32.83969,39.83944],[32.83975,39.8394],[32.83983,39.83936],[32.83986,39.83928],[32.83986,39.83921],[32.83992,39.83916],[32.83994,39.83912],[32.83994,39.83906],[32.83993,39.83903],[32.83992,39.83894],[32.84,39.83887],[32.84009,39.8388],[32.84016,39.83871],[32.84018,39.83864],[32.84016,39.83856],[32.84006,39.83848],[32.83991,39.83836],[32.83987,39.83828],[32.83985,39.8381],[32.83986,39.83799],[32.83981,39.83791],[32.83979,39.83778],[32.8398,39.83772],[32.83977,39.83765],[32.83971,39.83757],[32.83973,39.83747],[32.83976,39.83739],[32.83976,39.83731],[32.83972,39.83725],[32.83968,39.83709],[32.8397,39.83697],[32.83977,39.8369],[32.83992,39.83687],[32.83998,39.83683],[32.84002,39.83675],[32.84006,39.83671],[32.84009,39.83669],[32.84012,39.83662],[32.84016,39.83654],[32.84026,39.8364],[32.84034,39.83627],[32.84038,39.83621],[32.84047,39.83616],[32.84051,39.83615],[32.84064,39.83617],[32.84074,39.8362],[32.84087,39.8362],[32.84091,39.83615],[32.84092,39.83606],[32.84099,39.83597],[32.84111,39.83592],[32.84125,39.83587],[32.84139,39.83587],[32.84152,39.8359],[32.84164,39.83588],[32.84174,39.83585],[32.84178,39.83587],[32.84172,39.83591],[32.84154,39.83594],[32.84144,39.83593],[32.84135,39.83592],[32.84126,39.83593],[32.84115,39.83596],[32.8411,39.83601],[32.84106,39.83608],[32.84105,39.83613],[32.841,39.83622],[32.84094,39.83625],[32.84081,39.83627],[32.8407,39.83627],[32.84055,39.83626],[32.8405,39.83624],[32.84045,39.83627],[32.84038,39.83634],[32.84029,39.83648],[32.84018,39.83664],[32.84013,39.83674],[32.84009,39.83679],[32.84006,39.83684],[32.84,39.83687],[32.83993,39.83691],[32.83985,39.83693],[32.83978,39.83698],[32.83976,39.83701],[32.83976,39.83708],[32.83981,39.83716],[32.83986,39.8373],[32.83986,39.83745],[32.83985,39.83757],[32.83985,39.83765],[32.83987,39.83773],[32.83988,39.8378],[32.83991,39.83789],[32.83995,39.83794],[32.83996,39.83806],[32.83995,39.83818],[32.83996,39.83829],[32.84001,39.83837],[32.8401,39.83845],[32.84018,39.8385],[32.84023,39.83856],[32.84025,39.83865],[32.84022,39.83874],[32.84016,39.83883],[32.84015,39.83888],[32.84016,39.83894],[32.84013,39.839],[32.84007,39.83909],[32.84001,39.83919],[32.84001,39.83927],[32.84003,39.83936],[32.84,39.83944],[32.83995,39.83948],[32.83991,39.83954],[32.83988,39.83959],[32.83982,39.8396]]]}},{"type":"Feature","properties":{},"geometry":{"type":"Polygon","coordinates":[[[32.83368,39.84995],[32.83446,39.85064],[32.83444,39.85066],[32.83439,39.85069],[32.83433,39.85069],[32.83421,39.85068],[32.83407,39.85067],[32.83397,39.85068],[32.83391,39.8507],[32.83389,39.85072],[32.83388,39.85082],[32.83315,39.85081],[32.83294,39.8508],[32.83281,39.85077],[32.8327,39.85073],[32.83262,39.85068],[32.83254,39.8506],[32.83249,39.85052],[32.83248,39.85043],[32.83243,39.85013],[32.83242,39.85002],[32.83234,39.8499],[32.83224,39.84978],[32.83199,39.84961],[32.83214,39.84949],[32.83244,39.84976],[32.83264,39.8498],[32.83264,39.84986],[32.83271,39.84992],[32.83279,39.84995],[32.83294,39.84997],[32.83305,39.84995],[32.83315,39.84994],[32.83324,39.84998],[32.83334,39.85001],[32.83345,39.85001],[32.83357,39.84999],[32.83368,39.84995]]]}},{"type":"Feature","properties":{},"geometry":{"type":"Polygon","coordinates":[[[32.83404,39.84953],[32.83411,39.84969],[32.83424,39.85],[32.83442,39.85025],[32.83491,39.85089],[32.83488,39.85091],[32.8348,39.85091],[32.83467,39.85089],[32.83457,39.85087],[32.83447,39.85088],[32.83443,39.8509],[32.83443,39.85083],[32.83393,39.85082],[32.83394,39.85074],[32.83395,39.85072],[32.83398,39.85071],[32.83407,39.8507],[32.8342,39.8507],[32.83431,39.85072],[32.8344,39.85072],[32.83447,39.85069],[32.83454,39.85064],[32.83363,39.84982],[32.83365,39.84981],[32.83369,39.8498],[32.83375,39.84978],[32.83378,39.84974],[32.83385,39.84966],[32.8339,39.8496],[32.83397,39.84957],[32.83401,39.84955],[32.83404,39.84953]]]}},{"type":"Feature","properties":{},"geometry":{"type":"Polygon","coordinates":[[[32.82651,39.84619],[32.82685,39.84586],[32.82704,39.84598],[32.82858,39.8468],[32.82835,39.84693],[32.82787,39.84668],[32.82769,39.84688],[32.82753,39.84678],[32.82651,39.84619]]]}},{"type":"Feature","properties":{},"geometry":{"type":"Polygon","coordinates":[[[32.8257,39.8464],[32.8268,39.84697],[32.82677,39.847],[32.82688,39.84706],[32.82708,39.84699],[32.82707,39.84696],[32.82748,39.8468],[32.82753,39.84678],[32.82651,39.84619],[32.82606,39.84594],[32.826,39.8459],[32.82597,39.84589],[32.82595,39.8459],[32.82592,39.84592],[32.82589,39.84597],[32.82583,39.84606],[32.8257,39.8464]]]}},{"type":"Feature","properties":{},"geometry":{"type":"Polygon","coordinates":[[[32.82283,39.84854],[32.82318,39.84846],[32.82363,39.84835],[32.82442,39.84806],[32.82463,39.848],[32.82462,39.84818],[32.82464,39.84831],[32.82466,39.84846],[32.82468,39.84856],[32.82469,39.84865],[32.82538,39.84826],[32.82563,39.84812],[32.82585,39.84802],[32.82639,39.8484],[32.82592,39.84874],[32.82566,39.84866],[32.82529,39.8494],[32.82518,39.8496],[32.82575,39.84978],[32.82626,39.84995],[32.82608,39.8501],[32.82584,39.85001],[32.82572,39.84998],[32.82563,39.84998],[32.82552,39.84998],[32.82537,39.85],[32.82483,39.85017],[32.82315,39.85079],[32.82261,39.8499],[32.82291,39.84971],[32.82314,39.84956],[32.82357,39.84932],[32.82331,39.84893],[32.82326,39.84895],[32.82319,39.84885],[32.82306,39.8489],[32.82283,39.84854]]]}},{"type":"Feature","properties":{},"geometry":{"type":"Polygon","coordinates":[[[32.82582,39.84704],[32.82556,39.84805],[32.82563,39.84812],[32.82585,39.84802],[32.82593,39.84799],[32.82615,39.8479],[32.82629,39.84783],[32.82648,39.84773],[32.82667,39.84763],[32.82657,39.84752],[32.82638,39.84733],[32.82644,39.84736],[32.8265,39.8473],[32.82677,39.847],[32.8268,39.84697],[32.8257,39.8464],[32.82583,39.84606],[32.82589,39.84597],[32.82592,39.84592],[32.82595,39.8459],[32.82597,39.84589],[32.826,39.8459],[32.82606,39.84594],[32.82651,39.84619],[32.82685,39.84586],[32.82579,39.84516],[32.82571,39.84519],[32.82561,39.84527],[32.82485,39.8467],[32.82492,39.84684],[32.82501,39.84683],[32.8251,39.84682],[32.82524,39.84682],[32.82538,39.84685],[32.82551,39.84689],[32.82582,39.84704]]]}},{"type":"Feature","properties":{},"geometry":{"type":"Polygon","coordinates":[[[32.8469,39.85263],[32.84751,39.85258],[32.84756,39.85284],[32.84766,39.85336],[32.84771,39.85365],[32.84759,39.85366],[32.84755,39.85367],[32.84707,39.85371],[32.84698,39.8531],[32.84695,39.85291],[32.8469,39.85263]]]}},{"type":"Feature","properties":{},"geometry":{"type":"Polygon","coordinates":[[[32.84646,39.8549],[32.84632,39.85541],[32.84698,39.85553],[32.84702,39.85554],[32.8474,39.85568],[32.84753,39.85509],[32.84748,39.85508],[32.84702,39.85499],[32.84646,39.8549]]]}},{"type":"Feature","properties":{},"geometry":{"type":"Polygon","coordinates":[[[32.85241,39.85363],[32.85209,39.85369],[32.85157,39.85382],[32.85126,39.85345],[32.85221,39.85318],[32.85241,39.85363]]]}},{"type":"Feature","properties":{},"geometry":{"type":"Polygon","coordinates":[[[32.85155,39.85302],[32.85207,39.85284],[32.85185,39.85219],[32.85118,39.8524],[32.85155,39.85302]]]}},{"type":"Feature","properties":{},"geometry":{"type":"Polygon","coordinates":[[[32.82481,39.85835],[32.82486,39.85815],[32.82496,39.85803],[32.82509,39.85799],[32.82523,39.85796],[32.82531,39.85796],[32.82547,39.858],[32.82561,39.85818],[32.82574,39.85837],[32.82586,39.8585],[32.82593,39.8587],[32.82605,39.8588],[32.82615,39.8589],[32.82617,39.85884],[32.82622,39.8587],[32.8262,39.8586],[32.82601,39.85836],[32.82556,39.85792],[32.82538,39.85782],[32.82513,39.85774],[32.82499,39.85771],[32.82485,39.85772],[32.82475,39.85775],[32.82464,39.85779],[32.8245,39.85782],[32.82441,39.8579],[32.82439,39.85797],[32.82453,39.85809],[32.82481,39.85835]]]}}]}