{"type": "FeatureCollection", "features": [{"type": "Feature", "properties": {"source": "gecekondu-demolition", "year_demolished": 2011}, "geometry": {"type": "Polygon", "coordinates": [[[32.84617501551793, 39.86574011464125], [32.84623528494274, 39.86567275500577], [32.84631508047379, 39.86570565509147], [32.8462948475878, 39.86577876995639], [32.84617501551793, 39.86574011464125]]]}}, {"type": "Feature", "properties": {"source": "gecekondu-demolition", "year_demolished": 2011}, "geometry": {"type": "Polygon", "coordinates": [[[32.84342027840855, 39.86794470610841], [32.84348369276476, 39.8678565058455], [32.84358073077365, 39.86788278544549], [32.84353150871941, 39.86796934411729], [32.84342027840855, 39.86794470610841]]]}}, {"type": "Feature", "properties": {"source": "gecekondu-demolition", "year_demolished": 2011}, "geometry": {"type": "Polygon", "coordinates": [[[32.84349927163297, 39.86774741936515], [32.84352484544646, 39.86765969978051], [32.84367323402238, 39.86768390254774], [32.84364156386465, 39.86776576539695], [32.84349927163297, 39.86774741936515]]]}}, {"type": "Feature", "properties": {"source": "gecekondu-demolition", "year_demolished": 2011}, "geometry": {"type": "Polygon", "coordinates": [[[32.84148816708854, 39.86723264555066], [32.84166401589027, 39.86725537350669], [32.841633300947, 39.86730918782708], [32.84161796232643, 39.86730528260899], [32.84160503903697, 39.86733706627555], [32.841465104419, 39.86731783792136], [32.84148816708854, 39.86723264555066]]]}}, {"type": "Feature", "properties": {"source": "gecekondu-demolition", "year_demolished": 2011}, "geometry": {"type": "Polygon", "coordinates": [[[32.84462968950042, 39.86830034825567], [32.84459784263456, 39.86821658077243], [32.84472595144148, 39.86818786661316], [32.84474867372144, 39.86827005845456], [32.84462968950042, 39.86830034825567]]]}}, {"type": "Feature", "properties": {"source": "gecekondu-demolition", "year_demolished": 2011}, "geometry": {"type": "Polygon", "coordinates": [[[32.84478442618813, 39.86827200670571], [32.84477403949694, 39.86818977985105], [32.84487921662785, 39.86817780619284], [32.84488364561992, 39.8682603637228], [32.84478442618813, 39.86827200670571]]]}}, {"type": "Feature", "properties": {"source": "gecekondu-demolition", "year_demolished": 2011}, "geometry": {"type": "Polygon", "coordinates": [[[32.84422083560442, 39.86852452810078], [32.84432412599408, 39.86853471091997], [32.84429445673877, 39.86862862581168], [32.84419905129169, 39.86861830228631], [32.84422083560442, 39.86852452810078]]]}}, {"type": "Feature", "properties": {"source": "gecekondu-demolition", "year_demolished": 2011}, "geometry": {"type": "Polygon", "coordinates": [[[32.84458831534396, 39.86831303230998], [32.84444180098671, 39.86835639385277], [32.84441415478159, 39.86824596975999], [32.84456589321483, 39.86822503996072], [32.84458831534396, 39.86831303230998]]]}}, {"type": "Feature", "properties": {"source": "gecekondu-demolition", "year_demolished": 2011}, "geometry": {"type": "Polygon", "coordinates": [[[32.8510041645936, 39.87178321937002], [32.8510380639682, 39.87170862410883], [32.85113414646656, 39.87172255863419], [32.85110525158835, 39.87178664378305], [32.8510041645936, 39.87178321937002]]]}}, {"type": "Feature", "properties": {"source": "gecekondu-demolition", "year_demolished": 2011}, "geometry": {"type": "Polygon", "coordinates": [[[32.85079330073526, 39.87210898483601], [32.85084481545961, 39.87201061492595], [32.85098421857302, 39.87204497886164], [32.85094863383662, 39.87214106994721], [32.85079330073526, 39.87210898483601]]]}}, {"type": "Feature", "properties": {"source": "gecekondu-demolition", "year_demolished": 2012}, "geometry": {"type": "Polygon", "coordinates": [[[32.83691704324765, 39.85758285060118], [32.83696622346223, 39.85755178332749], [32.83692338503756, 39.8575047768578], [32.83698382786992, 39.85748538055034], [32.83709255477942, 39.85760606945228], [32.83700957471683, 39.85766592834101], [32.83691704324765, 39.85758285060118]]]}}, {"type": "Feature", "properties": {"source": "gecekondu-demolition", "year_demolished": 2012}, "geometry": {"type": "Polygon", "coordinates": [[[32.84870669504792, 39.86718321630433], [32.84865682582827, 39.86708275305678], [32.84878151061064, 39.86703723532865], [32.84880514172979, 39.8671379979204], [32.84870669504792, 39.86718321630433]]]}}, {"type": "Feature", "properties": {"source": "gecekondu-demolition", "year_demolished": 2012}, "geometry": {"type": "Polygon", "coordinates": [[[32.84885009495857, 39.86711388968104], [32.84881295994137, 39.86704072161981], [32.84884401551856, 39.86702677069678], [32.84889420530789, 39.86708580029187], [32.84885009495857, 39.86711388968104]]]}}, {"type": "Feature", "properties": {"source": "gecekondu-demolition", "year_demolished": 2012}, "geometry": {"type": "Polygon", "coordinates": [[[32.84487679726475, 39.86544873943848], [32.84488292543183, 39.86544873953416], [32.84483892240353, 39.86533367448391], [32.84495978053683, 39.86532397249891], [32.84500125194909, 39.86542256228607], [32.84487679726475, 39.86544873943848]]]}}, {"type": "Feature", "properties": {"source": "gecekondu-demolition", "year_demolished": 2012}, "geometry": {"type": "Polygon", "coordinates": [[[32.84481191060075, 39.8653246228635], [32.84478249110035, 39.86525132644203], [32.84486069147313, 39.86523466048949], [32.84489071154145, 39.86531000414279], [32.84481191060075, 39.8653246228635]]]}}, {"type": "Feature", "properties": {"source": "gecekondu-demolition", "year_demolished": 2012}, "geometry": {"type": "Polygon", "coordinates": [[[32.84333147001195, 39.86732096851688], [32.84337726552066, 39.86724813988548], [32.84341657392149, 39.86727334280721], [32.84336084434114, 39.86735656846659], [32.84333147001195, 39.86732096851688]]]}}, {"type": "Feature", "properties": {"source": "gecekondu-demolition", "year_demolished": 2012}, "geometry": {"type": "Polygon", "coordinates": [[[32.84313833602857, 39.86727768726889], [32.84320896777642, 39.86720823394875], [32.84327013374281, 39.86723806653859], [32.84322136362956, 39.86729541167747], [32.84313833602857, 39.86727768726889]]]}}, {"type": "Feature", "properties": {"source": "gecekondu-demolition", "year_demolished": 2012}, "geometry": {"type": "Polygon", "coordinates": [[[32.84344290412195, 39.86728602003931], [32.84345252145029, 39.86723059478059], [32.84355126230062, 39.86722051686147], [32.84355197734834, 39.86728879226445], [32.84344290412195, 39.86728602003931]]]}}, {"type": "Feature", "properties": {"source": "gecekondu-demolition", "year_demolished": 2012}, "geometry": {"type": "Polygon", "coordinates": [[[32.84360346093242, 39.86711484946235], [32.8436028117553, 39.86701984692544], [32.84370645395283, 39.86701077015763], [32.84370721823493, 39.86710396205327], [32.84360346093242, 39.86711484946235]]]}}, {"type": "Feature", "properties": {"source": "gecekondu-demolition", "year_demolished": 2012}, "geometry": {"type": "Polygon", "coordinates": [[[32.8433837868884, 39.86718305723317], [32.84337401806851, 39.86712324892891], [32.84348157091712, 39.86711051113988], [32.84347854983597, 39.86717542127547], [32.8433837868884, 39.86718305723317]]]}}, {"type": "Feature", "properties": {"source": "gecekondu-demolition", "year_demolished": 2012}, "geometry": {"type": "Polygon", "coordinates": [[[32.84320691411791, 39.86761790139558], [32.84331116759712, 39.86761424358908], [32.84327228650078, 39.86769633577999], [32.84317425156243, 39.86768686708874], [32.84320691411791, 39.86761790139558]]]}}, {"type": "Feature", "properties": {"source": "gecekondu-demolition", "year_demolished": 2012}, "geometry": {"type": "Polygon", "coordinates": [[[32.84553167069647, 39.87005073444508], [32.84548507629148, 39.86995569735338], [32.84557647404327, 39.86994423160336], [32.84560326610366, 39.87002728785668], [32.84553167069647, 39.87005073444508]]]}}, {"type": "Feature", "properties": {"source": "gecekondu-demolition", "year_demolished": 2012}, "geometry": {"type": "Polygon", "coordinates": [[[32.8456208313198, 39.86999906732267], [32.84562582112108, 39.86991565840543], [32.84571212231214, 39.86991513367181], [32.84571596817364, 39.86999277447071], [32.8456208313198, 39.86999906732267]]]}}, {"type": "Feature", "properties": {"source": "gecekondu-demolition", "year_demolished": 2012}, "geometry": {"type": "Polygon", "coordinates": [[[32.84608369073781, 39.87154327890381], [32.84609076683514, 39.87150869758634], [32.84621756106092, 39.87145273719054], [32.84621914088853, 39.87152191003244], [32.84608369073781, 39.87154327890381]]]}}, {"type": "Feature", "properties": {"source": "gecekondu-demolition", "year_demolished": 2012}, "geometry": {"type": "Polygon", "coordinates": [[[32.84616372154663, 39.87169261602937], [32.84613990366616, 39.8716258686654], [32.8462609047946, 39.87159176305666], [32.84627234850712, 39.87166485488014], [32.84616372154663, 39.87169261602937]]]}}, {"type": "Feature", "properties": {"source": "gecekondu-demolition", "year_demolished": 2012}, "geometry": {"type": "Polygon", "coordinates": [[[32.84608103012502, 39.87143987473362], [32.8460422320142, 39.87137163960305], [32.84617553421292, 39.87133488212268], [32.84619994553742, 39.87141536322897], [32.84608103012502, 39.87143987473362]]]}}, {"type": "Feature", "properties": {"source": "gecekondu-demolition", "year_demolished": 2012}, "geometry": {"type": "Polygon", "coordinates": [[[32.84595619678418, 39.87127734159228], [32.84598734124691, 39.87117629574235], [32.84612310878664, 39.87121014106868], [32.84610434907899, 39.87128385352892], [32.84595619678418, 39.87127734159228]]]}}, {"type": "Feature", "properties": {"source": "gecekondu-demolition", "year_demolished": 2012}, "geometry": {"type": "Polygon", "coordinates": [[[32.84516401941644, 39.87113769363232], [32.84514846327526, 39.87103662273813], [32.84524386458207, 39.87101995306142], [32.84527457882956, 39.87109854780016], [32.84516401941644, 39.87113769363232]]]}}, {"type": "Feature", "properties": {"source": "gecekondu-demolition", "year_demolished": 2012}, "geometry": {"type": "Polygon", "coordinates": [[[32.84460764561676, 39.87119720977019], [32.84460472669528, 39.87109067881458], [32.84466246827242, 39.87109059137978], [32.8446820714468, 39.8711860604746], [32.84460764561676, 39.87119720977019]]]}}, {"type": "Feature", "properties": {"source": "gecekondu-demolition", "year_demolished": 2012}, "geometry": {"type": "Polygon", "coordinates": [[[32.84619988562147, 39.87130885176568], [32.84623066182311, 39.87124951799842], [32.84629906828927, 39.87130909999991], [32.8462529209913, 39.87134461597235], [32.84619988562147, 39.87130885176568]]]}}, {"type": "Feature", "properties": {"source": "gecekondu-demolition", "year_demolished": 2012}, "geometry": {"type": "Polygon", "coordinates": [[[32.84734798811456, 39.87303740147747], [32.84747109410105, 39.8729513061763], [32.84761788102758, 39.8730527002683], [32.84747755517421, 39.87314823542878], [32.84734798811456, 39.87303740147747]]]}}, {"type": "Feature", "properties": {"source": "gecekondu-demolition", "year_demolished": 2012}, "geometry": {"type": "Polygon", "coordinates": [[[32.84762745959476, 39.87326723098211], [32.84772652134367, 39.87321448412951], [32.8478634751738, 39.87331220207119], [32.8477443552683, 39.87334716894305], [32.84762745959476, 39.87326723098211]]]}}, {"type": "Feature", "properties": {"source": "gecekondu-demolition", "year_demolished": 2012}, "geometry": {"type": "Polygon", "coordinates": [[[32.85154443304459, 39.87285821216634], [32.85143649950625, 39.87279995212202], [32.85148026991404, 39.87272719694023], [32.85158850165035, 39.8727732450458], [32.85154443304459, 39.87285821216634]]]}}, {"type": "Feature", "properties": {"source": "gecekondu-demolition", "year_demolished": 2012}, "geometry": {"type": "Polygon", "coordinates": [[[32.84769759764949, 39.87163167531155], [32.84764778759229, 39.87152137749352], [32.84774911232181, 39.87149089533732], [32.84777845112804, 39.8716007440744], [32.84769759764949, 39.87163167531155]]]}}, {"type": "Feature", "properties": {"source": "gecekondu-demolition", "year_demolished": 2012}, "geometry": {"type": "Polygon", "coordinates": [[[32.8515175277991, 39.87225113651832], [32.85153525154695, 39.87218579098194], [32.85169912364501, 39.87220003027318], [32.85165622995454, 39.87228208474908], [32.8515175277991, 39.87225113651832]]]}}, {"type": "Feature", "properties": {"source": "gecekondu-demolition", "year_demolished": 2012}, "geometry": {"type": "Polygon", "coordinates": [[[32.84978746404956, 39.87103036088123], [32.84987075870601, 39.87104543024519], [32.84984249158685, 39.87110592056569], [32.84974488479212, 39.87109027546155], [32.84978746404956, 39.87103036088123]]]}}, {"type": "Feature", "properties": {"source": "gecekondu-demolition", "year_demolished": 2012}, "geometry": {"type": "Polygon", "coordinates": [[[32.85152930699036, 39.87268545356383], [32.85155784855288, 39.87262001755943], [32.85165244300185, 39.87263576351954], [32.85164008457417, 39.87272001410775], [32.85152930699036, 39.87268545356383]]]}}, {"type": "Feature", "properties": {"source": "gecekondu-demolition", "year_demolished": 2012}, "geometry": {"type": "Polygon", "coordinates": [[[32.85160717541873, 39.8725652361513], [32.85162045767719, 39.87248270125873], [32.85175624885395, 39.87250196011323], [32.85173933434122, 39.87257966812383], [32.85160717541873, 39.8725652361513]]]}}, {"type": "Feature", "properties": {"source": "gecekondu-demolition", "year_demolished": 2012}, "geometry": {"type": "Polygon", "coordinates": [[[32.85168142614592, 39.87299767218462], [32.8517553808435, 39.87291764299873], [32.85181473777703, 39.87295538893225], [32.85177232023927, 39.87303604815634], [32.85168142614592, 39.87299767218462]]]}}, {"type": "Feature", "properties": {"source": "gecekondu-demolition", "year_demolished": 2012}, "geometry": {"type": "Polygon", "coordinates": [[[32.85184444932919, 39.87276137883203], [32.85190278398483, 39.87267059799526], [32.85201872014945, 39.8726926236421], [32.85196672367192, 39.87279144950223], [32.85184444932919, 39.87276137883203]]]}}]}