{"type": "FeatureCollection", "features": [{"type": "Feature", "properties": {"source": "gecekondu-demolition"}, "geometry": {"type": "Polygon", "coordinates": [[[32.84617501551793, 39.86574011464125], [32.84623528494274, 39.86567275500577], [32.84631508047379, 39.86570565509147], [32.8462948475878, 39.86577876995639], [32.84617501551793, 39.86574011464125]]]}}, {"type": "Feature", "properties": {"source": "gecekondu-demolition"}, "geometry": {"type": "Polygon", "coordinates": [[[32.84342027840855, 39.86794470610841], [32.84348369276476, 39.8678565058455], [32.84358073077365, 39.86788278544549], [32.84353150871941, 39.86796934411729], [32.84342027840855, 39.86794470610841]]]}}, {"type": "Feature", "properties": {"source": "gecekondu-demolition"}, "geometry": {"type": "Polygon", "coordinates": [[[32.84349927163297, 39.86774741936515], [32.84352484544646, 39.86765969978051], [32.84367323402238, 39.86768390254774], [32.84364156386465, 39.86776576539695], [32.84349927163297, 39.86774741936515]]]}}, {"type": "Feature", "properties": {"source": "gecekondu-demolition"}, "geometry": {"type": "Polygon", "coordinates": [[[32.84148816708854, 39.86723264555066], [32.84166401589027, 39.86725537350669], [32.841633300947, 39.86730918782708], [32.84161796232643, 39.86730528260899], [32.84160503903697, 39.86733706627555], [32.841465104419, 39.86731783792136], [32.84148816708854, 39.86723264555066]]]}}, {"type": "Feature", "properties": {"source": "gecekondu-demolition"}, "geometry": {"type": "Polygon", "coordinates": [[[32.84462968950042, 39.86830034825567], [32.84459784263456, 39.86821658077243], [32.84472595144148, 39.86818786661316], [32.84474867372144, 39.86827005845456], [32.84462968950042, 39.86830034825567]]]}}, {"type": "Feature", "properties": {"source": "gecekondu-demolition"}, "geometry": {"type": "Polygon", "coordinates": [[[32.84478442618813, 39.86827200670571], [32.84477403949694, 39.86818977985105], [32.84487921662785, 39.86817780619284], [32.84488364561992, 39.8682603637228], [32.84478442618813, 39.86827200670571]]]}}, {"type": "Feature", "properties": {"source": "gecekondu-demolition"}, "geometry": {"type": "Polygon", "coordinates": [[[32.84422083560442, 39.86852452810078], [32.84432412599408, 39.86853471091997], [32.84429445673877, 39.86862862581168], [32.84419905129169, 39.86861830228631], [32.84422083560442, 39.86852452810078]]]}}, {"type": "Feature", "properties": {"source": "gecekondu-demolition"}, "geometry": {"type": "Polygon", "coordinates": [[[32.84458831534396, 39.86831303230998], [32.84444180098671, 39.86835639385277], [32.84441415478159, 39.86824596975999], [32.84456589321483, 39.86822503996072], [32.84458831534396, 39.86831303230998]]]}}, {"type": "Feature", "properties": {"source": "gecekondu-demolition"}, "geometry": {"type": "Polygon", "coordinates": [[[32.8510041645936, 39.87178321937002], [32.8510380639682, 39.87170862410883], [32.85113414646656, 39.87172255863419], [32.85110525158835, 39.87178664378305], [32.8510041645936, 39.87178321937002]]]}}, {"type": "Feature", "properties": {"source": "gecekondu-demolition"}, "geometry": {"type": "Polygon", "coordinates": [[[32.85079330073526, 39.87210898483601], [32.85084481545961, 39.87201061492595], [32.85098421857302, 39.87204497886164], [32.85094863383662, 39.87214106994721], [32.85079330073526, 39.87210898483601]]]}}, {"type": "Feature", "properties": {"source": "gecekondu-demolition"}, "geometry": {"type": "Polygon", "coordinates": [[[32.83691704324765, 39.85758285060118], [32.83696622346223, 39.85755178332749], [32.83692338503756, 39.8575047768578], [32.83698382786992, 39.85748538055034], [32.83709255477942, 39.85760606945228], [32.83700957471683, 39.85766592834101], [32.83691704324765, 39.85758285060118]]]}}, {"type": "Feature", "properties": {"source": "gecekondu-demolition"}, "geometry": {"type": "Polygon", "coordinates": [[[32.84870669504792, 39.86718321630433], [32.84865682582827, 39.86708275305678], [32.84878151061064, 39.86703723532865], [32.84880514172979, 39.8671379979204], [32.84870669504792, 39.86718321630433]]]}}, {"type": "Feature", "properties": {"source": "gecekondu-demolition"}, "geometry": {"type": "Polygon", "coordinates": [[[32.84885009495857, 39.86711388968104], [32.84881295994137, 39.86704072161981], [32.84884401551856, 39.86702677069678], [32.84889420530789, 39.86708580029187], [32.84885009495857, 39.86711388968104]]]}}, {"type": "Feature", "properties": {"source": "gecekondu-demolition"}, "geometry": {"type": "Polygon", "coordinates": [[[32.84487679726475, 39.86544873943848], [32.84488292543183, 39.86544873953416], [32.84483892240353, 39.86533367448391], [32.84495978053683, 39.86532397249891], [32.84500125194909, 39.86542256228607], [32.84487679726475, 39.86544873943848]]]}}, {"type": "Feature", "properties": {"source": "gecekondu-demolition"}, "geometry": {"type": "Polygon", "coordinates": [[[32.84481191060075, 39.8653246228635], [32.84478249110035, 39.86525132644203], [32.84486069147313, 39.86523466048949], [32.84489071154145, 39.86531000414279], [32.84481191060075, 39.8653246228635]]]}}, {"type": "Feature", "properties": {"source": "gecekondu-demolition"}, "geometry": {"type": "Polygon", "coordinates": [[[32.84333147001195, 39.86732096851688], [32.84337726552066, 39.86724813988548], [32.84341657392149, 39.86727334280721], [32.84336084434114, 39.86735656846659], [32.84333147001195, 39.86732096851688]]]}}, {"type": "Feature", "properties": {"source": "gecekondu-demolition"}, "geometry": {"type": "Polygon", "coordinates": [[[32.84313833602857, 39.86727768726889], [32.84320896777642, 39.86720823394875], [32.84327013374281, 39.86723806653859], [32.84322136362956, 39.86729541167747], [32.84313833602857, 39.86727768726889]]]}}, {"type": "Feature", "properties": {"source": "gecekondu-demolition"}, "geometry": {"type": "Polygon", "coordinates": [[[32.84344290412195, 39.86728602003931], [32.84345252145029, 39.86723059478059], [32.84355126230062, 39.86722051686147], [32.84355197734834, 39.86728879226445], [32.84344290412195, 39.86728602003931]]]}}, {"type": "Feature", "properties": {"source": "gecekondu-demolition"}, "geometry": {"type": "Polygon", "coordinates": [[[32.84360346093242, 39.86711484946235], [32.8436028117553, 39.86701984692544], [32.84370645395283, 39.86701077015763], [32.84370721823493, 39.86710396205327], [32.84360346093242, 39.86711484946235]]]}}, {"type": "Feature", "properties": {"source": "gecekondu-demolition"}, "geometry": {"type": "Polygon", "coordinates": [[[32.8433837868884, 39.86718305723317], [32.84337401806851, 39.86712324892891], [32.84348157091712, 39.86711051113988], [32.84347854983597, 39.86717542127547], [32.8433837868884, 39.86718305723317]]]}}, {"type": "Feature", "properties": {"source": "gecekondu-demolition"}, "geometry": {"type": "Polygon", "coordinates": [[[32.84320691411791, 39.86761790139558], [32.84331116759712, 39.86761424358908], [32.84327228650078, 39.86769633577999], [32.84317425156243, 39.86768686708874], [32.84320691411791, 39.86761790139558]]]}}, {"type": "Feature", "properties": {"source": "gecekondu-demolition"}, "geometry": {"type": "Polygon", "coordinates": [[[32.84553167069647, 39.87005073444508], [32.84548507629148, 39.86995569735338], [32.84557647404327, 39.86994423160336], [32.84560326610366, 39.87002728785668], [32.84553167069647, 39.87005073444508]]]}}, {"type": "Feature", "properties": {"source": "gecekondu-demolition"}, "geometry": {"type": "Polygon", "coordinates": [[[32.8456208313198, 39.86999906732267], [32.84562582112108, 39.86991565840543], [32.84571212231214, 39.86991513367181], [32.84571596817364, 39.86999277447071], [32.8456208313198, 39.86999906732267]]]}}, {"type": "Feature", "properties": {"source": "gecekondu-demolition"}, "geometry": {"type": "Polygon", "coordinates": [[[32.84608369073781, 39.87154327890381], [32.84609076683514, 39.87150869758634], [32.84621756106092, 39.87145273719054], [32.84621914088853, 39.87152191003244], [32.84608369073781, 39.87154327890381]]]}}, {"type": "Feature", "properties": {"source": "gecekondu-demolition"}, "geometry": {"type": "Polygon", "coordinates": [[[32.84616372154663, 39.87169261602937], [32.84613990366616, 39.8716258686654], [32.8462609047946, 39.87159176305666], [32.84627234850712, 39.87166485488014], [32.84616372154663, 39.87169261602937]]]}}, {"type": "Feature", "properties": {"source": "gecekondu-demolition"}, "geometry": {"type": "Polygon", "coordinates": [[[32.84608103012502, 39.87143987473362], [32.8460422320142, 39.87137163960305], [32.84617553421292, 39.87133488212268], [32.84619994553742, 39.87141536322897], [32.84608103012502, 39.87143987473362]]]}}, {"type": "Feature", "properties": {"source": "gecekondu-demolition"}, "geometry": {"type": "Polygon", "coordinates": [[[32.84595619678418, 39.87127734159228], [32.84598734124691, 39.87117629574235], [32.84612310878664, 39.87121014106868], [32.84610434907899, 39.87128385352892], [32.84595619678418, 39.87127734159228]]]}}, {"type": "Feature", "properties": {"source": "gecekondu-demolition"}, "geometry": {"type": "Polygon", "coordinates": [[[32.84516401941644, 39.87113769363232], [32.84514846327526, 39.87103662273813], [32.84524386458207, 39.87101995306142], [32.84527457882956, 39.87109854780016], [32.84516401941644, 39.87113769363232]]]}}, {"type": "Feature", "properties": {"source": "gecekondu-demolition"}, "geometry": {"type": "Polygon", "coordinates": [[[32.84460764561676, 39.87119720977019], [32.84460472669528, 39.87109067881458], [32.84466246827242, 39.87109059137978], [32.8446820714468, 39.8711860604746], [32.84460764561676, 39.87119720977019]]]}}, {"type": "Feature", "properties": {"source": "gecekondu-demolition"}, "geometry": {"type": "Polygon", "coordinates": [[[32.84619988562147, 39.87130885176568], [32.84623066182311, 39.87124951799842], [32.84629906828927, 39.87130909999991], [32.8462529209913, 39.87134461597235], [32.84619988562147, 39.87130885176568]]]}}, {"type": "Feature", "properties": {"source": "gecekondu-demolition"}, "geometry": {"type": "Polygon", "coordinates": [[[32.84734798811456, 39.87303740147747], [32.84747109410105, 39.8729513061763], [32.84761788102758, 39.8730527002683], [32.84747755517421, 39.87314823542878], [32.84734798811456, 39.87303740147747]]]}}, {"type": "Feature", "properties": {"source": "gecekondu-demolition"}, "geometry": {"type": "Polygon", "coordinates": [[[32.84762745959476, 39.87326723098211], [32.84772652134367, 39.87321448412951], [32.8478634751738, 39.87331220207119], [32.8477443552683, 39.87334716894305], [32.84762745959476, 39.87326723098211]]]}}, {"type": "Feature", "properties": {"source": "gecekondu-demolition"}, "geometry": {"type": "Polygon", "coordinates": [[[32.85154443304459, 39.87285821216634], [32.85143649950625, 39.87279995212202], [32.85148026991404, 39.87272719694023], [32.85158850165035, 39.8727732450458], [32.85154443304459, 39.87285821216634]]]}}, {"type": "Feature", "properties": {"source": "gecekondu-demolition"}, "geometry": {"type": "Polygon", "coordinates": [[[32.84769759764949, 39.87163167531155], [32.84764778759229, 39.87152137749352], [32.84774911232181, 39.87149089533732], [32.84777845112804, 39.8716007440744], [32.84769759764949, 39.87163167531155]]]}}, {"type": "Feature", "properties": {"source": "gecekondu-demolition"}, "geometry": {"type": "Polygon", "coordinates": [[[32.8515175277991, 39.87225113651832], [32.85153525154695, 39.87218579098194], [32.85169912364501, 39.87220003027318], [32.85165622995454, 39.87228208474908], [32.8515175277991, 39.87225113651832]]]}}, {"type": "Feature", "properties": {"source": "gecekondu-demolition"}, "geometry": {"type": "Polygon", "coordinates": [[[32.84978746404956, 39.87103036088123], [32.84987075870601, 39.87104543024519], [32.84984249158685, 39.87110592056569], [32.84974488479212, 39.87109027546155], [32.84978746404956, 39.87103036088123]]]}}, {"type": "Feature", "properties": {"source": "gecekondu-demolition"}, "geometry": {"type": "Polygon", "coordinates": [[[32.85152930699036, 39.87268545356383], [32.85155784855288, 39.87262001755943], [32.85165244300185, 39.87263576351954], [32.85164008457417, 39.87272001410775], [32.85152930699036, 39.87268545356383]]]}}, {"type": "Feature", "properties": {"source": "gecekondu-demolition"}, "geometry": {"type": "Polygon", "coordinates": [[[32.85160717541873, 39.8725652361513], [32.85162045767719, 39.87248270125873], [32.85175624885395, 39.87250196011323], [32.85173933434122, 39.87257966812383], [32.85160717541873, 39.8725652361513]]]}}, {"type": "Feature", "properties": {"source": "gecekondu-demolition"}, "geometry": {"type": "Polygon", "coordinates": [[[32.85168142614592, 39.87299767218462], [32.8517553808435, 39.87291764299873], [32.85181473777703, 39.87295538893225], [32.85177232023927, 39.87303604815634], [32.85168142614592, 39.87299767218462]]]}}, {"type": "Feature", "properties": {"source": "gecekondu-demolition"}, "geometry": {"type": "Polygon", "coordinates": [[[32.85184444932919, 39.87276137883203], [32.85190278398483, 39.87267059799526], [32.85201872014945, 39.8726926236421], [32.85196672367192, 39.87279144950223], [32.85184444932919, 39.87276137883203]]]}}, {"type": "Feature", "properties": {"source": "gecekondu-demolition"}, "geometry": {"type": "Polygon", "coordinates": [[[32.8373969785831, 39.85761353659142], [32.83735752337644, 39.85749515339857], [32.83745466583299, 39.85746555209594], [32.83748385531776, 39.85751950924839], [32.83758521629827, 39.85748779012031], [32.83761939384848, 39.85754332063576], [32.8373969785831, 39.85761353659142]]]}}, {"type": "Feature", "properties": {"source": "gecekondu-demolition"}, "geometry": {"type": "Polygon", "coordinates": [[[32.8384409331961, 39.85581676368152], [32.83843420927068, 39.85570460522531], [32.83851232224621, 39.85569342641791], [32.83853138293913, 39.85580643926434], [32.8384409331961, 39.85581676368152]]]}}, {"type": "Feature", "properties": {"source": "gecekondu-demolition"}, "geometry": {"type": "Polygon", "coordinates": [[[32.8384197608772, 39.85565430449167], [32.83840933214344, 39.85554774862576], [32.83845203650561, 39.85554723738336], [32.83845220696152, 39.85552306497155], [32.83851791752445, 39.85551206283442], [32.83853763679994, 39.85566186108754], [32.83847554576525, 39.8556724557976], [32.83847339411628, 39.855649882517], [32.8384197608772, 39.85565430449167]]]}}, {"type": "Feature", "properties": {"source": "gecekondu-demolition"}, "geometry": {"type": "Polygon", "coordinates": [[[32.8384204458148, 39.8554913904137], [32.83841174434788, 39.85541620907099], [32.83850037390062, 39.85540984502506], [32.83850250897324, 39.85548935244701], [32.8384204458148, 39.8554913904137]]]}}, {"type": "Feature", "properties": {"source": "gecekondu-demolition"}, "geometry": {"type": "Polygon", "coordinates": [[[32.83335980100637, 39.85580438319661], [32.83334176290854, 39.85572607309037], [32.8334451242573, 39.85572450583832], [32.83345170088592, 39.85579668220077], [32.83335980100637, 39.85580438319661]]]}}, {"type": "Feature", "properties": {"source": "gecekondu-demolition"}, "geometry": {"type": "Polygon", "coordinates": [[[32.83354222760047, 39.85593731544731], [32.83354221010025, 39.8559333620501], [32.83351479979888, 39.85585974008817], [32.83362587075158, 39.85584594516104], [32.83363867151223, 39.85593546093947], [32.83354222760047, 39.85593731544731]]]}}, {"type": "Feature", "properties": {"source": "gecekondu-demolition"}, "geometry": {"type": "Polygon", "coordinates": [[[32.83439915041124, 39.85572923317762], [32.83438853674715, 39.85566806593927], [32.83443270194521, 39.85566380257956], [32.83442130662926, 39.85559358128528], [32.83449477826577, 39.85558286190756], [32.83453284570815, 39.85569573346888], [32.83439915041124, 39.85572923317762]]]}}, {"type": "Feature", "properties": {"source": "gecekondu-demolition"}, "geometry": {"type": "Polygon", "coordinates": [[[32.83348146378854, 39.85555298352784], [32.83357914540386, 39.85555304936065], [32.83358200263565, 39.85562823372721], [32.83350983343583, 39.85563464076955], [32.83348146378854, 39.85555298352784]]]}}, {"type": "Feature", "properties": {"source": "gecekondu-demolition"}, "geometry": {"type": "Polygon", "coordinates": [[[32.83336493209395, 39.85569418789372], [32.83335416356309, 39.85560260590276], [32.83345678311544, 39.85560250118479], [32.83345826631009, 39.85571321787715], [32.83336493209395, 39.85569418789372]]]}}, {"type": "Feature", "properties": {"source": "gecekondu-demolition"}, "geometry": {"type": "Polygon", "coordinates": [[[32.83355485504848, 39.85578026595558], [32.8335407760058, 39.85571960475414], [32.83364559186541, 39.85570907612122], [32.83364251207647, 39.85577412851316], [32.83355485504848, 39.85578026595558]]]}}, {"type": "Feature", "properties": {"source": "gecekondu-demolition"}, "geometry": {"type": "Polygon", "coordinates": [[[32.8388382952925, 39.85349357264332], [32.83883372569439, 39.853425648893], [32.83892251812391, 39.85342319668758], [32.83892952225634, 39.85350270832424], [32.8388382952925, 39.85349357264332]]]}}, {"type": "Feature", "properties": {"source": "gecekondu-demolition"}, "geometry": {"type": "Polygon", "coordinates": [[[32.84098575245436, 39.85397273188946], [32.84096923710545, 39.85387215196008], [32.84116047069611, 39.85388512850075], [32.84116768574607, 39.85398736180114], [32.84098575245436, 39.85397273188946]]]}}, {"type": "Feature", "properties": {"source": "gecekondu-demolition"}, "geometry": {"type": "Polygon", "coordinates": [[[32.84076667941792, 39.8535121838676], [32.841038057412, 39.85349907517259], [32.8410407574661, 39.85359100100583], [32.84077496110996, 39.85358764581201], [32.84076667941792, 39.8535121838676]]]}}, {"type": "Feature", "properties": {"source": "gecekondu-demolition"}, "geometry": {"type": "Polygon", "coordinates": [[[32.8430165216801, 39.85543637413765], [32.84301688418009, 39.85534237570484], [32.84313902860077, 39.85534934789351], [32.84313932423918, 39.8554312703869], [32.8430165216801, 39.85543637413765]]]}}, {"type": "Feature", "properties": {"source": "gecekondu-demolition"}, "geometry": {"type": "Polygon", "coordinates": [[[32.84348229002843, 39.85538820250341], [32.84352730689828, 39.85530654139452], [32.84362232292193, 39.85533406014347], [32.84357616627101, 39.85541604598979], [32.84348229002843, 39.85538820250341]]]}}, {"type": "Feature", "properties": {"source": "gecekondu-demolition"}, "geometry": {"type": "Polygon", "coordinates": [[[32.84335676720511, 39.85550216871835], [32.84342471827272, 39.85543340431833], [32.84350820825509, 39.85550721933431], [32.84340722341121, 39.85555648620545], [32.84335676720511, 39.85550216871835]]]}}, {"type": "Feature", "properties": {"source": "gecekondu-demolition"}, "geometry": {"type": "Polygon", "coordinates": [[[32.8426120579345, 39.85635994085081], [32.842541667795, 39.85625386935146], [32.84263610883631, 39.8562061918826], [32.84270345319366, 39.85632023190883], [32.8426120579345, 39.85635994085081]]]}}, {"type": "Feature", "properties": {"source": "gecekondu-demolition"}, "geometry": {"type": "Polygon", "coordinates": [[[32.84058996067571, 39.85777209918411], [32.84054374056497, 39.85767464002745], [32.8406616579264, 39.85766025651454], [32.84070485624589, 39.85775362078139], [32.84058996067571, 39.85777209918411]]]}}, {"type": "Feature", "properties": {"source": "gecekondu-demolition"}, "geometry": {"type": "Polygon", "coordinates": [[[32.84073668169948, 39.85787538161064], [32.84067172932487, 39.85781367161923], [32.84075073981719, 39.85777297235813], [32.84080990305038, 39.85783163277042], [32.84073668169948, 39.85787538161064]]]}}, {"type": "Feature", "properties": {"source": "gecekondu-demolition"}, "geometry": {"type": "Polygon", "coordinates": [[[32.84377703402338, 39.856716340632], [32.84379493035635, 39.85672219389501], [32.84380516440726, 39.85672415345467], [32.84381796935768, 39.85673007505687], [32.843853839021, 39.85678327531338], [32.84374356854671, 39.8568477005708], [32.84365642216704, 39.8567886517318], [32.84377703402338, 39.856716340632]]]}}, {"type": "Feature", "properties": {"source": "gecekondu-demolition"}, "geometry": {"type": "Polygon", "coordinates": [[[32.84492139412096, 39.85865891575451], [32.84494250929305, 39.85858102692948], [32.8450334159444, 39.85859184870539], [32.84502727704511, 39.85867195284125], [32.84492139412096, 39.85865891575451]]]}}, {"type": "Feature", "properties": {"source": "gecekondu-demolition"}, "geometry": {"type": "Polygon", "coordinates": [[[32.84489575479738, 39.85888903917219], [32.84489087141773, 39.85881278130221], [32.84497736496804, 39.85881719410625], [32.84498235518923, 39.85888659744349], [32.84489575479738, 39.85888903917219]]]}}, {"type": "Feature", "properties": {"source": "gecekondu-demolition"}, "geometry": {"type": "Polygon", "coordinates": [[[32.83820595581098, 39.85872004850933], [32.83826856019301, 39.85864133725885], [32.83834409535961, 39.85866350276196], [32.8382709329771, 39.85873871111331], [32.83820595581098, 39.85872004850933]]]}}, {"type": "Feature", "properties": {"source": "gecekondu-demolition"}, "geometry": {"type": "Polygon", "coordinates": [[[32.83813561544661, 39.85891679626949], [32.8381851411191, 39.85884825464248], [32.83832025015565, 39.85889817518002], [32.83824552953472, 39.8589812612711], [32.83813561544661, 39.85891679626949]]]}}, {"type": "Feature", "properties": {"source": "gecekondu-demolition"}, "geometry": {"type": "Polygon", "coordinates": [[[32.84396769437295, 39.85788456464114], [32.84387543354293, 39.8578201186272], [32.84396996135889, 39.85775960538214], [32.84403845043873, 39.85783199131352], [32.84396769437295, 39.85788456464114]]]}}, {"type": "Feature", "properties": {"source": "gecekondu-demolition"}, "geometry": {"type": "Polygon", "coordinates": [[[32.84539786730091, 39.86194915248924], [32.84536267935925, 39.86187670136934], [32.84548493352123, 39.86183684688492], [32.8455183361335, 39.86193617525641], [32.84539786730091, 39.86194915248924]]]}}, {"type": "Feature", "properties": {"source": "gecekondu-demolition"}, "geometry": {"type": "Polygon", "coordinates": [[[32.84396991035607, 39.86168542238408], [32.8441251185975, 39.86165881478699], [32.84414477350848, 39.8616969620054], [32.84400753165884, 39.86174766806214], [32.84396991035607, 39.86168542238408]]]}}, {"type": "Feature", "properties": {"source": "gecekondu-demolition"}, "geometry": {"type": "Polygon", "coordinates": [[[32.84540847432185, 39.86200963372593], [32.84554342811066, 39.86202212705072], [32.8455980478937, 39.86210716966603], [32.84544422240516, 39.86211261389416], [32.84540847432185, 39.86200963372593]]]}}, {"type": "Feature", "properties": {"source": "gecekondu-demolition"}, "geometry": {"type": "Polygon", "coordinates": [[[32.84689752574855, 39.86048501950906], [32.84699918554472, 39.86039515830576], [32.84705361689601, 39.86044366495338], [32.84700853557754, 39.86047118664118], [32.84705123442006, 39.86050826920743], [32.84696371756648, 39.86055479429927], [32.84689752574855, 39.86048501950906]]]}}, {"type": "Feature", "properties": {"source": "gecekondu-demolition"}, "geometry": {"type": "Polygon", "coordinates": [[[32.84550263425474, 39.85988242338856], [32.84548976125754, 39.85978340789803], [32.84558287136324, 39.8597782999022], [32.8455956257157, 39.85987644891755], [32.84550263425474, 39.85988242338856]]]}}, {"type": "Feature", "properties": {"source": "gecekondu-demolition"}, "geometry": {"type": "Polygon", "coordinates": [[[32.84564800619373, 39.85941691753519], [32.84560159973801, 39.85933912800638], [32.84576712490329, 39.85930894414456], [32.84579768447544, 39.85937043023083], [32.84564800619373, 39.85941691753519]]]}}, {"type": "Feature", "properties": {"source": "gecekondu-demolition"}, "geometry": {"type": "Polygon", "coordinates": [[[32.85052002906263, 39.86327823202718], [32.85047580422526, 39.86320282633066], [32.85058393099088, 39.8631616106852], [32.85063463120915, 39.86324434956649], [32.85052002906263, 39.86327823202718]]]}}, {"type": "Feature", "properties": {"source": "gecekondu-demolition"}, "geometry": {"type": "Polygon", "coordinates": [[[32.85105315577093, 39.86302638065009], [32.85108166958374, 39.86294125235115], [32.85118918968193, 39.86295362813168], [32.85117329029464, 39.86304851109895], [32.85105315577093, 39.86302638065009]]]}}, {"type": "Feature", "properties": {"source": "gecekondu-demolition"}, "geometry": {"type": "Polygon", "coordinates": [[[32.85143741643382, 39.86271311075121], [32.85137191361553, 39.86253217600455], [32.85153563968963, 39.86253067961867], [32.85155873781882, 39.86271341915891], [32.85143741643382, 39.86271311075121]]]}}, {"type": "Feature", "properties": {"source": "gecekondu-demolition"}, "geometry": {"type": "Polygon", "coordinates": [[[32.8506355223532, 39.86498544107692], [32.85051658837605, 39.86487354522035], [32.85066134741869, 39.86480793276719], [32.85076117389499, 39.86491001774989], [32.8506355223532, 39.86498544107692]]]}}, {"type": "Feature", "properties": {"source": "gecekondu-demolition"}, "geometry": {"type": "Polygon", "coordinates": [[[32.85019429828462, 39.86522157339204], [32.85026610274482, 39.8651576669094], [32.85038067116805, 39.86520686124202], [32.85031281427391, 39.86528596952467], [32.85019429828462, 39.86522157339204]]]}}, {"type": "Feature", "properties": {"source": "gecekondu-demolition"}, "geometry": {"type": "Polygon", "coordinates": [[[32.85042361216303, 39.86526503702279], [32.85035760668776, 39.86517372216657], [32.85042437635973, 39.86513760453982], [32.8505236394508, 39.86521709753135], [32.85042361216303, 39.86526503702279]]]}}, {"type": "Feature", "properties": {"source": "gecekondu-demolition"}, "geometry": {"type": "Polygon", "coordinates": [[[32.85013595665805, 39.86548451116931], [32.85024065749855, 39.86542908603357], [32.8503118161527, 39.86552708706951], [32.85024702816726, 39.86555529451633], [32.85022757777254, 39.86553818265085], [32.85019242278834, 39.86555666610006], [32.85013595665805, 39.86548451116931]]]}}, {"type": "Feature", "properties": {"source": "gecekondu-demolition"}, "geometry": {"type": "Polygon", "coordinates": [[[32.85026395617951, 39.86542141185101], [32.85035538663062, 39.86538016127761], [32.850422911256, 39.86547901428676], [32.85033239164667, 39.86551225717813], [32.85026395617951, 39.86542141185101]]]}}, {"type": "Feature", "properties": {"source": "gecekondu-demolition"}, "geometry": {"type": "Polygon", "coordinates": [[[32.85041728027393, 39.86533975750952], [32.85049344783064, 39.86530403119941], [32.85057096470689, 39.8654070387531], [32.85049192241908, 39.86543495020616], [32.85041728027393, 39.86533975750952]]]}}, {"type": "Feature", "properties": {"source": "gecekondu-demolition"}, "geometry": {"type": "Polygon", "coordinates": [[[32.85058711722689, 39.86536669545889], [32.85055514890701, 39.86529957149909], [32.85068216488768, 39.86525941521408], [32.85071934261224, 39.86532253252555], [32.85058711722689, 39.86536669545889]]]}}, {"type": "Feature", "properties": {"source": "gecekondu-demolition"}, "geometry": {"type": "Polygon", "coordinates": [[[32.85084063253392, 39.86528854315851], [32.85079833476046, 39.86522185353467], [32.85092061229641, 39.86518734197028], [32.85096432904887, 39.86525884515243], [32.85084063253392, 39.86528854315851]]]}}, {"type": "Feature", "properties": {"source": "gecekondu-demolition"}, "geometry": {"type": "Polygon", "coordinates": [[[32.85094847149286, 39.86541489947496], [32.85091584168099, 39.86535061691931], [32.85105438828588, 39.8653148621927], [32.8510788520635, 39.86539273957785], [32.85094847149286, 39.86541489947496]]]}}, {"type": "Feature", "properties": {"source": "gecekondu-demolition"}, "geometry": {"type": "Polygon", "coordinates": [[[32.84988541880509, 39.86513662240787], [32.84982043547467, 39.86505578246376], [32.84994160069323, 39.86501538514878], [32.85001830869608, 39.86507650598923], [32.84988541880509, 39.86513662240787]]]}}, {"type": "Feature", "properties": {"source": "gecekondu-demolition"}, "geometry": {"type": "Polygon", "coordinates": [[[32.85005139308287, 39.86537241182689], [32.84995089519843, 39.86529785622592], [32.8500288408864, 39.86524647589668], [32.85010704128484, 39.86531015636366], [32.85005139308287, 39.86537241182689]]]}}, {"type": "Feature", "properties": {"source": "gecekondu-demolition"}, "geometry": {"type": "Polygon", "coordinates": [[[32.85042381495795, 39.86579636617646], [32.85038077950959, 39.86572516141783], [32.85047853813975, 39.86569151544145], [32.8505164036249, 39.86575553813111], [32.85042381495795, 39.86579636617646]]]}}, {"type": "Feature", "properties": {"source": "gecekondu-demolition"}, "geometry": {"type": "Polygon", "coordinates": [[[32.85029766800836, 39.86580222936947], [32.85027450970438, 39.86574957743069], [32.85036505086945, 39.86572215184666], [32.85037858888133, 39.86577766520089], [32.85029766800836, 39.86580222936947]]]}}, {"type": "Feature", "properties": {"source": "gecekondu-demolition"}, "geometry": {"type": "Polygon", "coordinates": [[[32.85030308233049, 39.86596098864146], [32.85023581699561, 39.86588131071482], [32.85032331883574, 39.86585984382869], [32.85035480244312, 39.86593286502447], [32.85030308233049, 39.86596098864146]]]}}, {"type": "Feature", "properties": {"source": "gecekondu-demolition"}, "geometry": {"type": "Polygon", "coordinates": [[[32.85009341254526, 39.86593551590019], [32.85001531059005, 39.86586875313988], [32.85010540423788, 39.86581378637632], [32.85017792817817, 39.86587025744076], [32.85009341254526, 39.86593551590019]]]}}, {"type": "Feature", "properties": {"source": "gecekondu-demolition"}, "geometry": {"type": "Polygon", "coordinates": [[[32.85013390863006, 39.86608607262158], [32.85007339878904, 39.86603274917068], [32.85017474075202, 39.86596967504027], [32.85024389570589, 39.86601555034626], [32.85013390863006, 39.86608607262158]]]}}, {"type": "Feature", "properties": {"source": "gecekondu-demolition"}, "geometry": {"type": "Polygon", "coordinates": [[[32.85019983543884, 39.8632226079963], [32.85026057628575, 39.86318718642926], [32.85024040006489, 39.86316293590257], [32.8502980778297, 39.86313202592487], [32.85035305959048, 39.86318491589967], [32.8502518565955, 39.86325366120577], [32.85019983543884, 39.8632226079963]]]}}, {"type": "Feature", "properties": {"source": "gecekondu-demolition"}, "geometry": {"type": "Polygon", "coordinates": [[[32.84638280540293, 39.86543839676115], [32.84644846229111, 39.86533492403257], [32.84656254389076, 39.86537001391951], [32.84651535786895, 39.86546134806999], [32.84638280540293, 39.86543839676115]]]}}, {"type": "Feature", "properties": {"source": "gecekondu-demolition"}, "geometry": {"type": "Polygon", "coordinates": [[[32.84435030191192, 39.86861970714118], [32.84435951834016, 39.86853407664319], [32.84447814669076, 39.86853593989063], [32.84446206272455, 39.86863359843689], [32.84435030191192, 39.86861970714118]]]}}, {"type": "Feature", "properties": {"source": "gecekondu-demolition"}, "geometry": {"type": "Polygon", "coordinates": [[[32.84503701791804, 39.86888722656423], [32.84495997026602, 39.86880193784928], [32.84505510470495, 39.86875809425709], [32.84511943961454, 39.86883042010988], [32.84503701791804, 39.86888722656423]]]}}, {"type": "Feature", "properties": {"source": "gecekondu-demolition"}, "geometry": {"type": "Polygon", "coordinates": [[[32.84453430786385, 39.86839146342042], [32.84464701195378, 39.86838210839867], [32.84464721523968, 39.86848464080781], [32.84454535596431, 39.86848832173056], [32.84453430786385, 39.86839146342042]]]}}, {"type": "Feature", "properties": {"source": "gecekondu-demolition"}, "geometry": {"type": "Polygon", "coordinates": [[[32.84494541085255, 39.86905174392994], [32.8448724172337, 39.86894442839547], [32.84495738884922, 39.86889927672641], [32.84503658063053, 39.86900972238662], [32.84494541085255, 39.86905174392994]]]}}, {"type": "Feature", "properties": {"source": "gecekondu-demolition"}, "geometry": {"type": "Polygon", "coordinates": [[[32.8450894270451, 39.86876393664876], [32.84505185466921, 39.86867001030515], [32.84520276129992, 39.8686385688961], [32.84522365534727, 39.86871467058667], [32.84525491346836, 39.86877673918607], [32.84515667488551, 39.86881748567444], [32.84514244868817, 39.86876744375053], [32.8450894270451, 39.86876393664876]]]}}, {"type": "Feature", "properties": {"source": "gecekondu-demolition"}, "geometry": {"type": "Polygon", "coordinates": [[[32.84500255179738, 39.86918570812278], [32.84494877440991, 39.86908861178562], [32.84503134544772, 39.86906726261073], [32.84508016347818, 39.86915891783138], [32.84500255179738, 39.86918570812278]]]}}, {"type": "Feature", "properties": {"source": "gecekondu-demolition"}, "geometry": {"type": "Polygon", "coordinates": [[[32.84547920279253, 39.86978860929914], [32.84541996724516, 39.86970220076315], [32.845486658081, 39.86966475013116], [32.84555916107595, 39.86975299695912], [32.84547920279253, 39.86978860929914]]]}}, {"type": "Feature", "properties": {"source": "gecekondu-demolition"}, "geometry": {"type": "Polygon", "coordinates": [[[32.84563877684661, 39.86989515793832], [32.84564047667202, 39.86978001612037], [32.84569110907074, 39.86978842081618], [32.84571025493905, 39.86987930085382], [32.84563877684661, 39.86989515793832]]]}}, {"type": "Feature", "properties": {"source": "gecekondu-demolition"}, "geometry": {"type": "Polygon", "coordinates": [[[32.84587522443547, 39.86954561760649], [32.84582348269203, 39.86950252220818], [32.84588538979653, 39.86944162493712], [32.84595360277837, 39.86950367088873], [32.84587522443547, 39.86954561760649]]]}}, {"type": "Feature", "properties": {"source": "gecekondu-demolition"}, "geometry": {"type": "Polygon", "coordinates": [[[32.84581617864006, 39.86949510431013], [32.84575044017555, 39.86944569554156], [32.84577900319324, 39.86940450208884], [32.84585680502322, 39.86943269196593], [32.84581617864006, 39.86949510431013]]]}}, {"type": "Feature", "properties": {"source": "gecekondu-demolition"}, "geometry": {"type": "Polygon", "coordinates": [[[32.83966621906734, 39.8585129545297], [32.8396700300112, 39.85845173017562], [32.83974303043577, 39.85846492720609], [32.83974514829258, 39.85853744188272], [32.83966621906734, 39.8585129545297]]]}}, {"type": "Feature", "properties": {"source": "gecekondu-demolition"}, "geometry": {"type": "Polygon", "coordinates": [[[32.83901574293568, 39.85847024754676], [32.83912536819142, 39.85837858032951], [32.8391770431551, 39.85840635476695], [32.83907341730097, 39.85850888191206], [32.83901574293568, 39.85847024754676]]]}}, {"type": "Feature", "properties": {"source": "gecekondu-demolition"}, "geometry": {"type": "Polygon", "coordinates": [[[32.84021869626143, 39.86084091768392], [32.8401818718656, 39.8607110325722], [32.84030505004645, 39.86069837645377], [32.84033244608649, 39.86085213431585], [32.84021869626143, 39.86084091768392]]]}}, {"type": "Feature", "properties": {"source": "gecekondu-demolition"}, "geometry": {"type": "Polygon", "coordinates": [[[32.84205783772757, 39.86143286398728], [32.84198095294018, 39.86133525892005], [32.84205269041282, 39.86129321592211], [32.8421378429727, 39.86137978674191], [32.84205783772757, 39.86143286398728]]]}}, {"type": "Feature", "properties": {"source": "gecekondu-demolition"}, "geometry": {"type": "Polygon", "coordinates": [[[32.84575038915874, 39.86975545970625], [32.84582776226106, 39.8697570217157], [32.84582740898549, 39.86986125224228], [32.84573739545031, 39.86985131775139], [32.84575038915874, 39.86975545970625]]]}}, {"type": "Feature", "properties": {"source": "gecekondu-demolition"}, "geometry": {"type": "Polygon", "coordinates": [[[32.85088601910215, 39.8727995199636], [32.85088674333572, 39.87267692799512], [32.85101699877429, 39.87266585488327], [32.85102377310659, 39.87278280182648], [32.85088601910215, 39.8727995199636]]]}}, {"type": "Feature", "properties": {"source": "gecekondu-demolition"}, "geometry": {"type": "Polygon", "coordinates": [[[32.85147306039043, 39.87271046540831], [32.85129934100397, 39.87263255488995], [32.85135754954889, 39.87255461552559], [32.85151661795148, 39.87259919118875], [32.85147306039043, 39.87271046540831]]]}}, {"type": "Feature", "properties": {"source": "gecekondu-demolition"}, "geometry": {"type": "Polygon", "coordinates": [[[32.85140412071462, 39.8724741871491], [32.85144684194533, 39.87241125873722], [32.85158137973097, 39.87245081518299], [32.85158137937515, 39.87245355042481], [32.85155651942235, 39.8725431909719], [32.85140412071462, 39.8724741871491]]]}}, {"type": "Feature", "properties": {"source": "gecekondu-demolition"}, "geometry": {"type": "Polygon", "coordinates": [[[32.85107437455169, 39.87247138845616], [32.85112358867258, 39.87236888459301], [32.85126754932132, 39.87239097883116], [32.85123042467173, 39.87248769694659], [32.85107437455169, 39.87247138845616]]]}}]}