{"type": "FeatureCollection", "features": [{"type": "Feature", "properties": {"source": "gecekondu-demolition", "year_demolished": 2011}, "geometry": {"type": "Polygon", "coordinates": [[[32.84617501551793, 39.86574011464125], [32.84623528494274, 39.86567275500577], [32.84631508047379, 39.86570565509147], [32.8462948475878, 39.86577876995639], [32.84617501551793, 39.86574011464125]]]}}, {"type": "Feature", "properties": {"source": "gecekondu-demolition", "year_demolished": 2011}, "geometry": {"type": "Polygon", "coordinates": [[[32.84342027840855, 39.86794470610841], [32.84348369276476, 39.8678565058455], [32.84358073077365, 39.86788278544549], [32.84353150871941, 39.86796934411729], [32.84342027840855, 39.86794470610841]]]}}, {"type": "Feature", "properties": {"source": "gecekondu-demolition", "year_demolished": 2011}, "geometry": {"type": "Polygon", "coordinates": [[[32.84349927163297, 39.86774741936515], [32.84352484544646, 39.86765969978051], [32.84367323402238, 39.86768390254774], [32.84364156386465, 39.86776576539695], [32.84349927163297, 39.86774741936515]]]}}, {"type": "Feature", "properties": {"source": "gecekondu-demolition", "year_demolished": 2011}, "geometry": {"type": "Polygon", "coordinates": [[[32.84148816708854, 39.86723264555066], [32.84166401589027, 39.86725537350669], [32.841633300947, 39.86730918782708], [32.84161796232643, 39.86730528260899], [32.84160503903697, 39.86733706627555], [32.841465104419, 39.86731783792136], [32.84148816708854, 39.86723264555066]]]}}, {"type": "Feature", "properties": {"source": "gecekondu-demolition", "year_demolished": 2011}, "geometry": {"type": "Polygon", "coordinates": [[[32.84462968950042, 39.86830034825567], [32.84459784263456, 39.86821658077243], [32.84472595144148, 39.86818786661316], [32.84474867372144, 39.86827005845456], [32.84462968950042, 39.86830034825567]]]}}, {"type": "Feature", "properties": {"source": "gecekondu-demolition", "year_demolished": 2011}, "geometry": {"type": "Polygon", "coordinates": [[[32.84478442618813, 39.86827200670571], [32.84477403949694, 39.86818977985105], [32.84487921662785, 39.86817780619284], [32.84488364561992, 39.8682603637228], [32.84478442618813, 39.86827200670571]]]}}, {"type": "Feature", "properties": {"source": "gecekondu-demolition", "year_demolished": 2011}, "geometry": {"type": "Polygon", "coordinates": [[[32.84422083560442, 39.86852452810078], [32.84432412599408, 39.86853471091997], [32.84429445673877, 39.86862862581168], [32.84419905129169, 39.86861830228631], [32.84422083560442, 39.86852452810078]]]}}, {"type": "Feature", "properties": {"source": "gecekondu-demolition", "year_demolished": 2011}, "geometry": {"type": "Polygon", "coordinates": [[[32.84458831534396, 39.86831303230998], [32.84444180098671, 39.86835639385277], [32.84441415478159, 39.86824596975999], [32.84456589321483, 39.86822503996072], [32.84458831534396, 39.86831303230998]]]}}, {"type": "Feature", "properties": {"source": "gecekondu-demolition", "year_demolished": 2011}, "geometry": {"type": "Polygon", "coordinates": [[[32.8510041645936, 39.87178321937002], [32.8510380639682, 39.87170862410883], [32.85113414646656, 39.87172255863419], [32.85110525158835, 39.87178664378305], [32.8510041645936, 39.87178321937002]]]}}, {"type": "Feature", "properties": {"source": "gecekondu-demolition", "year_demolished": 2011}, "geometry": {"type": "Polygon", "coordinates": [[[32.85079330073526, 39.87210898483601], [32.85084481545961, 39.87201061492595], [32.85098421857302, 39.87204497886164], [32.85094863383662, 39.87214106994721], [32.85079330073526, 39.87210898483601]]]}}]}