{
  "type": "FeatureCollection",
  "features": [
    {
      "type": "Feature",
      "geometry": {
        "type": "Polygon",
        "coordinates": [
          [
            [
              32.8347259905664,
              39.85711971632613
            ],
            [
              32.83472503512767,
              39.85704537403431
            ],
            [
              32.8348141224355,
              39.85704083894805
            ],
            [
              32.83480811996836,
              39.85710950343371
            ],
            [
              32.8347259905664,
              39.85711971632613
            ]
          ]
        ]
      },
      "properties": {
        "name": "Adsız Çokgen [45:Polygon]"
      }
    },
    {
      "type": "Feature",
      "geometry": {
        "type": "Polygon",
        "coordinates": [
          [
            [
              32.83467696441348,
              39.85696383637031
            ],
            [
              32.83458214107322,
              39.8569577114654
            ],
            [
              32.83458068479684,
              39.85693097415861
            ],
            [
              32.83455196487704,
              39.85692948935679
            ],
            [
              32.8345502229996,
              39.856883535471
            ],
            [
              32.83458837175371,
              39.85687903675451
            ],
            [
              32.83459024831416,
              39.85685973557617
            ],
            [
              32.83457309656671,
              39.85686273927344
            ],
            [
              32.83456545063301,
              39.85684495329418
            ],
            [
              32.83459019458965,
              39.85684043137181
            ],
            [
              32.83460525078716,
              39.85678537629399
            ],
            [
              32.83469409878722,
              39.85678450105706
            ],
            [
              32.83467696441348,
              39.85696383637031
            ]
          ]
        ]
      },
      "properties": {
        "name": "Adsız Çokgen [46:Polygon]"
      }
    },
    {
      "type": "Feature",
      "geometry": {
        "type": "Polygon",
        "coordinates": [
          [
            [
              32.83462379193604,
              39.85666898413488
            ],
            [
              32.83471391665243,
              39.85666512543209
            ],
            [
              32.83469779354818,
              39.85676946089765
            ],
            [
              32.83462227678788,
              39.85677037154845
            ],
            [
              32.83462379193604,
              39.85666898413488
            ]
          ]
        ]
      },
      "properties": {
        "name": "Adsız Çokgen [47:Polygon]"
      }
    },
    {
      "type": "Feature",
      "geometry": {
        "type": "Polygon",
        "coordinates": [
          [
            [
              32.83477695952244,
              39.85692043173901
            ],
            [
              32.83478265180502,
              39.85692193658407
            ],
            [
              32.83485868711309,
              39.85693256838516
            ],
            [
              32.83484470378669,
              39.85703845205814
            ],
            [
              32.83479519726515,
              39.85702826136147
            ],
            [
              32.83479528629307,
              39.85701303778415
            ],
            [
              32.83475171275965,
              39.85701097883808
            ],
            [
              32.83477695952244,
              39.85692043173901
            ]
          ]
        ]
      },
      "properties": {
        "name": "Adsız Çokgen [48:Polygon]"
      }
    },
    {
      "type": "Feature",
      "geometry": {
        "type": "Polygon",
        "coordinates": [
          [
            [
              32.84252439829198,
              39.85380010551848
            ],
            [
              32.84265337842533,
              39.85377137751205
            ],
            [
              32.84267677046104,
              39.85383492007011
            ],
            [
              32.84273291889678,
              39.85383502374228
            ],
            [
              32.84273418100422,
              39.85387623539856
            ],
            [
              32.84257629191526,
              39.8538956556052
            ],
            [
              32.84252439829198,
              39.85380010551848
            ]
          ]
        ]
      },
      "properties": {
        "name": "Adsız Çokgen [320:Polygon]"
      }
    },
    {
      "type": "Feature",
      "geometry": {
        "type": "Polygon",
        "coordinates": [
          [
            [
              32.84204311223139,
              39.85388410077777
            ],
            [
              32.84204982915509,
              39.85378143387901
            ],
            [
              32.84216394040585,
              39.85378887408814
            ],
            [
              32.84214919294824,
              39.85388965202025
            ],
            [
              32.84204311223139,
              39.85388410077777
            ]
          ]
        ]
      },
      "properties": {
        "name": "Adsız Çokgen [339:Polygon]"
      }
    },
    {
      "type": "Feature",
      "geometry": {
        "type": "Polygon",
        "coordinates": [
          [
            [
              32.8413470819057,
              39.85348524330782
            ],
            [
              32.84155899150706,
              39.85348914669121
            ],
            [
              32.84157713929953,
              39.85360554449717
            ],
            [
              32.84135867644864,
              39.85360554207791
            ],
            [
              32.8413470819057,
              39.85348524330782
            ]
          ]
        ]
      },
      "properties": {
        "name": "Adsız Çokgen [341:Polygon]"
      }
    },
    {
      "type": "Feature",
      "geometry": {
        "type": "Polygon",
        "coordinates": [
          [
            [
              32.84162354637861,
              39.85359612000283
            ],
            [
              32.84162888753889,
              39.85350452972716
            ],
            [
              32.8417704575203,
              39.85350811288757
            ],
            [
              32.8417735049918,
              39.85360936398743
            ],
            [
              32.84162354637861,
              39.85359612000283
            ]
          ]
        ]
      },
      "properties": {
        "name": "Adsız Çokgen [342:Polygon]"
      }
    },
    {
      "type": "Feature",
      "geometry": {
        "type": "Polygon",
        "coordinates": [
          [
            [
              32.85078796174443,
              39.86424162180714
            ],
            [
              32.85079466845998,
              39.86413059234825
            ],
            [
              32.85092565078904,
              39.86413796004796
            ],
            [
              32.85092299149252,
              39.86419224661329
            ],
            [
              32.85094331658401,
              39.86419791599567
            ],
            [
              32.85095290609417,
              39.86425255422704
            ],
            [
              32.85078796174443,
              39.86424162180714
            ]
          ]
        ]
      },
      "properties": {
        "name": "Adsız Çokgen [675:Polygon]"
      }
    },
    {
      "type": "Feature",
      "geometry": {
        "type": "Polygon",
        "coordinates": [
          [
            [
              32.85020163023579,
              39.86431475670992
            ],
            [
              32.85015100071404,
              39.86424659738768
            ],
            [
              32.8502858350102,
              39.86419642201746
            ],
            [
              32.85032478574344,
              39.86426321681252
            ],
            [
              32.85020163023579,
              39.86431475670992
            ]
          ]
        ]
      },
      "properties": {
        "name": "Adsız Çokgen [676:Polygon]"
      }
    },
    {
      "type": "Feature",
      "geometry": {
        "type": "Polygon",
        "coordinates": [
          [
            [
              32.8501477198377,
              39.86423997489045
            ],
            [
              32.85010972276531,
              39.86417826254591
            ],
            [
              32.85023191765442,
              39.8641370598346
            ],
            [
              32.85026528021206,
              39.86419124116811
            ],
            [
              32.8501477198377,
              39.86423997489045
            ]
          ]
        ]
      },
      "properties": {
        "name": "Adsız Çokgen [677:Polygon]"
      }
    },
    {
      "type": "Feature",
      "geometry": {
        "type": "Polygon",
        "coordinates": [
          [
            [
              32.85011202767793,
              39.86416395538897
            ],
            [
              32.85007257130513,
              39.86410972444401
            ],
            [
              32.85010266878789,
              39.86409325580048
            ],
            [
              32.850051167323,
              39.86404352902785
            ],
            [
              32.85015498773532,
              39.86400294125279
            ],
            [
              32.85017111975037,
              39.86403424497884
            ],
            [
              32.8501574376041,
              39.86403920096097
            ],
            [
              32.85021148460295,
              39.86413189849685
            ],
            [
              32.85011202767793,
              39.86416395538897
            ]
          ]
        ]
      },
      "properties": {
        "name": "Adsız Çokgen [678:Polygon]"
      }
    },
    {
      "type": "Feature",
      "geometry": {
        "type": "Polygon",
        "coordinates": [
          [
            [
              32.84007294238233,
              39.86807558697122
            ],
            [
              32.84003528044192,
              39.86798254159531
            ],
            [
              32.84011543159206,
              39.86795767229547
            ],
            [
              32.8401723451296,
              39.86806969943022
            ],
            [
              32.84007294238233,
              39.86807558697122
            ]
          ]
        ]
      },
      "properties": {
        "name": "Adsız Çokgen [758:Polygon]"
      }
    }
  ]
}