{
  "type": "FeatureCollection",
  "features": [
    {
      "type": "Feature",
      "geometry": {
        "type": "Polygon",
        "coordinates": [
          [
            [
              32.8347259905664,
              39.85711971632613
            ],
            [
              32.83472503512767,
              39.85704537403431
            ],
            [
              32.8348141224355,
              39.85704083894805
            ],
            [
              32.83480811996836,
              39.85710950343371
            ],
            [
              32.8347259905664,
              39.85711971632613
            ]
          ]
        ]
      },
      "properties": {
        "name": "Adsız Çokgen [45:Polygon]"
      }
    },
    {
      "type": "Feature",
      "geometry": {
        "type": "Polygon",
        "coordinates": [
          [
            [
              32.83467696441348,
              39.85696383637031
            ],
            [
              32.83458214107322,
              39.8569577114654
            ],
            [
              32.83458068479684,
              39.85693097415861
            ],
            [
              32.83455196487704,
              39.85692948935679
            ],
            [
              32.8345502229996,
              39.856883535471
            ],
            [
              32.83458837175371,
              39.85687903675451
            ],
            [
              32.83459024831416,
              39.85685973557617
            ],
            [
              32.83457309656671,
              39.85686273927344
            ],
            [
              32.83456545063301,
              39.85684495329418
            ],
            [
              32.83459019458965,
              39.85684043137181
            ],
            [
              32.83460525078716,
              39.85678537629399
            ],
            [
              32.83469409878722,
              39.85678450105706
            ],
            [
              32.83467696441348,
              39.85696383637031
            ]
          ]
        ]
      },
      "properties": {
        "name": "Adsız Çokgen [46:Polygon]"
      }
    },
    {
      "type": "Feature",
      "geometry": {
        "type": "Polygon",
        "coordinates": [
          [
            [
              32.83462379193604,
              39.85666898413488
            ],
            [
              32.83471391665243,
              39.85666512543209
            ],
            [
              32.83469779354818,
              39.85676946089765
            ],
            [
              32.83462227678788,
              39.85677037154845
            ],
            [
              32.83462379193604,
              39.85666898413488
            ]
          ]
        ]
      },
      "properties": {
        "name": "Adsız Çokgen [47:Polygon]"
      }
    },
    {
      "type": "Feature",
      "geometry": {
        "type": "Polygon",
        "coordinates": [
          [
            [
              32.83477695952244,
              39.85692043173901
            ],
            [
              32.83478265180502,
              39.85692193658407
            ],
            [
              32.83485868711309,
              39.85693256838516
            ],
            [
              32.83484470378669,
              39.85703845205814
            ],
            [
              32.83479519726515,
              39.85702826136147
            ],
            [
              32.83479528629307,
              39.85701303778415
            ],
            [
              32.83475171275965,
              39.85701097883808
            ],
            [
              32.83477695952244,
              39.85692043173901
            ]
          ]
        ]
      },
      "properties": {
        "name": "Adsız Çokgen [48:Polygon]"
      }
    },
    {
      "type": "Feature",
      "geometry": {
        "type": "Polygon",
        "coordinates": [
          [
            [
              32.84365911230991,
              39.8535899953305
            ],
            [
              32.84381800176506,
              39.85352712393384
            ],
            [
              32.84385042792701,
              39.85358338499115
            ],
            [
              32.84379281207634,
              39.85359634881381
            ],
            [
              32.84382541471989,
              39.85362823770822
            ],
            [
              32.84371377129359,
              39.85367548379401
            ],
            [
              32.84365911230991,
              39.8535899953305
            ]
          ]
        ]
      },
      "properties": {
        "name": "Adsız Çokgen [313:Polygon]"
      }
    },
    {
      "type": "Feature",
      "geometry": {
        "type": "Polygon",
        "coordinates": [
          [
            [
              32.84309602296204,
              39.8537508050476
            ],
            [
              32.84302185715336,
              39.85365834108556
            ],
            [
              32.84313601504792,
              39.85360428040473
            ],
            [
              32.84320858940122,
              39.8537009456582
            ],
            [
              32.84316205789617,
              39.85372922009232
            ],
            [
              32.84314516850257,
              39.85370304819493
            ],
            [
              32.84309602296204,
              39.8537508050476
            ]
          ]
        ]
      },
      "properties": {
        "name": "Adsız Çokgen [314:Polygon]"
      }
    },
    {
      "type": "Feature",
      "geometry": {
        "type": "Polygon",
        "coordinates": [
          [
            [
              32.84252439829198,
              39.85380010551848
            ],
            [
              32.84265337842533,
              39.85377137751205
            ],
            [
              32.84267677046104,
              39.85383492007011
            ],
            [
              32.84273291889678,
              39.85383502374228
            ],
            [
              32.84273418100422,
              39.85387623539856
            ],
            [
              32.84257629191526,
              39.8538956556052
            ],
            [
              32.84252439829198,
              39.85380010551848
            ]
          ]
        ]
      },
      "properties": {
        "name": "Adsız Çokgen [320:Polygon]"
      }
    },
    {
      "type": "Feature",
      "geometry": {
        "type": "Polygon",
        "coordinates": [
          [
            [
              32.84140035580457,
              39.85408894230895
            ],
            [
              32.84149566972984,
              39.85405688557987
            ],
            [
              32.84151523834174,
              39.8540659652508
            ],
            [
              32.84156628190293,
              39.85406196882077
            ],
            [
              32.841585875247,
              39.8540930571184
            ],
            [
              32.84155680614165,
              39.85410429146103
            ],
            [
              32.84158367065157,
              39.85414079154565
            ],
            [
              32.84145457410304,
              39.85417711598136
            ],
            [
              32.84140035580457,
              39.85408894230895
            ]
          ]
        ]
      },
      "properties": {
        "name": "Adsız Çokgen [333:Polygon]"
      }
    },
    {
      "type": "Feature",
      "geometry": {
        "type": "Polygon",
        "coordinates": [
          [
            [
              32.84149388733303,
              39.85427803326259
            ],
            [
              32.84145704220482,
              39.8541900132494
            ],
            [
              32.84159829093288,
              39.85416083337882
            ],
            [
              32.84164198371575,
              39.85425942620908
            ],
            [
              32.84149388733303,
              39.85427803326259
            ]
          ]
        ]
      },
      "properties": {
        "name": "Adsız Çokgen [334:Polygon]"
      }
    },
    {
      "type": "Feature",
      "geometry": {
        "type": "Polygon",
        "coordinates": [
          [
            [
              32.84204311223139,
              39.85388410077777
            ],
            [
              32.84204982915509,
              39.85378143387901
            ],
            [
              32.84216394040585,
              39.85378887408814
            ],
            [
              32.84214919294824,
              39.85388965202025
            ],
            [
              32.84204311223139,
              39.85388410077777
            ]
          ]
        ]
      },
      "properties": {
        "name": "Adsız Çokgen [339:Polygon]"
      }
    },
    {
      "type": "Feature",
      "geometry": {
        "type": "Polygon",
        "coordinates": [
          [
            [
              32.8413470819057,
              39.85348524330782
            ],
            [
              32.84155899150706,
              39.85348914669121
            ],
            [
              32.84157713929953,
              39.85360554449717
            ],
            [
              32.84135867644864,
              39.85360554207791
            ],
            [
              32.8413470819057,
              39.85348524330782
            ]
          ]
        ]
      },
      "properties": {
        "name": "Adsız Çokgen [341:Polygon]"
      }
    },
    {
      "type": "Feature",
      "geometry": {
        "type": "Polygon",
        "coordinates": [
          [
            [
              32.84162354637861,
              39.85359612000283
            ],
            [
              32.84162888753889,
              39.85350452972716
            ],
            [
              32.8417704575203,
              39.85350811288757
            ],
            [
              32.8417735049918,
              39.85360936398743
            ],
            [
              32.84162354637861,
              39.85359612000283
            ]
          ]
        ]
      },
      "properties": {
        "name": "Adsız Çokgen [342:Polygon]"
      }
    },
    {
      "type": "Feature",
      "geometry": {
        "type": "Polygon",
        "coordinates": [
          [
            [
              32.84092835836887,
              39.85498541300346
            ],
            [
              32.84086964886849,
              39.8548979447254
            ],
            [
              32.84097731596969,
              39.85485339827856
            ],
            [
              32.84101641009123,
              39.85497236652862
            ],
            [
              32.84092835836887,
              39.85498541300346
            ]
          ]
        ]
      },
      "properties": {
        "name": "Adsız Çokgen [373:Polygon]"
      }
    },
    {
      "type": "Feature",
      "geometry": {
        "type": "Polygon",
        "coordinates": [
          [
            [
              32.84085267902224,
              39.8548326088175
            ],
            [
              32.84080162657775,
              39.85472053676307
            ],
            [
              32.84093407894852,
              39.85470482222636
            ],
            [
              32.84096346512721,
              39.85480510847259
            ],
            [
              32.84085267902224,
              39.8548326088175
            ]
          ]
        ]
      },
      "properties": {
        "name": "Adsız Çokgen [374:Polygon]"
      }
    },
    {
      "type": "Feature",
      "geometry": {
        "type": "Polygon",
        "coordinates": [
          [
            [
              32.84708300454929,
              39.8610678340984
            ],
            [
              32.8469972684411,
              39.86095251397035
            ],
            [
              32.84709749398345,
              39.86091825140745
            ],
            [
              32.84714732997097,
              39.86101617234827
            ],
            [
              32.84708300454929,
              39.8610678340984
            ]
          ]
        ]
      },
      "properties": {
        "name": "Adsız Çokgen [593:Polygon]"
      }
    },
    {
      "type": "Feature",
      "geometry": {
        "type": "Polygon",
        "coordinates": [
          [
            [
              32.85078796174443,
              39.86424162180714
            ],
            [
              32.85079466845998,
              39.86413059234825
            ],
            [
              32.85092565078904,
              39.86413796004796
            ],
            [
              32.85092299149252,
              39.86419224661329
            ],
            [
              32.85094331658401,
              39.86419791599567
            ],
            [
              32.85095290609417,
              39.86425255422704
            ],
            [
              32.85078796174443,
              39.86424162180714
            ]
          ]
        ]
      },
      "properties": {
        "name": "Adsız Çokgen [675:Polygon]"
      }
    },
    {
      "type": "Feature",
      "geometry": {
        "type": "Polygon",
        "coordinates": [
          [
            [
              32.85020163023579,
              39.86431475670992
            ],
            [
              32.85015100071404,
              39.86424659738768
            ],
            [
              32.8502858350102,
              39.86419642201746
            ],
            [
              32.85032478574344,
              39.86426321681252
            ],
            [
              32.85020163023579,
              39.86431475670992
            ]
          ]
        ]
      },
      "properties": {
        "name": "Adsız Çokgen [676:Polygon]"
      }
    },
    {
      "type": "Feature",
      "geometry": {
        "type": "Polygon",
        "coordinates": [
          [
            [
              32.8501477198377,
              39.86423997489045
            ],
            [
              32.85010972276531,
              39.86417826254591
            ],
            [
              32.85023191765442,
              39.8641370598346
            ],
            [
              32.85026528021206,
              39.86419124116811
            ],
            [
              32.8501477198377,
              39.86423997489045
            ]
          ]
        ]
      },
      "properties": {
        "name": "Adsız Çokgen [677:Polygon]"
      }
    },
    {
      "type": "Feature",
      "geometry": {
        "type": "Polygon",
        "coordinates": [
          [
            [
              32.85011202767793,
              39.86416395538897
            ],
            [
              32.85007257130513,
              39.86410972444401
            ],
            [
              32.85010266878789,
              39.86409325580048
            ],
            [
              32.850051167323,
              39.86404352902785
            ],
            [
              32.85015498773532,
              39.86400294125279
            ],
            [
              32.85017111975037,
              39.86403424497884
            ],
            [
              32.8501574376041,
              39.86403920096097
            ],
            [
              32.85021148460295,
              39.86413189849685
            ],
            [
              32.85011202767793,
              39.86416395538897
            ]
          ]
        ]
      },
      "properties": {
        "name": "Adsız Çokgen [678:Polygon]"
      }
    },
    {
      "type": "Feature",
      "geometry": {
        "type": "Polygon",
        "coordinates": [
          [
            [
              32.84998645146359,
              39.86441797921228
            ],
            [
              32.84993256989154,
              39.86433589015729
            ],
            [
              32.85006025692874,
              39.86429365040144
            ],
            [
              32.85010931266328,
              39.86437821398568
            ],
            [
              32.84998645146359,
              39.86441797921228
            ]
          ]
        ]
      },
      "properties": {
        "name": "Adsız Çokgen [681:Polygon]"
      }
    },
    {
      "type": "Feature",
      "geometry": {
        "type": "Polygon",
        "coordinates": [
          [
            [
              32.84893582177981,
              39.86510943687153
            ],
            [
              32.84894696411031,
              39.86496377517082
            ],
            [
              32.84909181622935,
              39.86497227749985
            ],
            [
              32.84905571614825,
              39.86512358277965
            ],
            [
              32.84893582177981,
              39.86510943687153
            ]
          ]
        ]
      },
      "properties": {
        "name": "Adsız Çokgen [717:Polygon]"
      }
    },
    {
      "type": "Feature",
      "geometry": {
        "type": "Polygon",
        "coordinates": [
          [
            [
              32.84007294238233,
              39.86807558697122
            ],
            [
              32.84003528044192,
              39.86798254159531
            ],
            [
              32.84011543159206,
              39.86795767229547
            ],
            [
              32.8401723451296,
              39.86806969943022
            ],
            [
              32.84007294238233,
              39.86807558697122
            ]
          ]
        ]
      },
      "properties": {
        "name": "Adsız Çokgen [758:Polygon]"
      }
    },
    {
      "type": "Feature",
      "geometry": {
        "type": "Polygon",
        "coordinates": [
          [
            [
              32.85240072191708,
              39.87393635976362
            ],
            [
              32.85234726564197,
              39.87379784021175
            ],
            [
              32.85247928082468,
              39.87373930607155
            ],
            [
              32.8525481473748,
              39.87387729697111
            ],
            [
              32.85240072191708,
              39.87393635976362
            ]
          ]
        ]
      },
      "properties": {
        "name": "Adsız Çokgen [866:Polygon]"
      }
    }
  ]
}