{
  "type": "FeatureCollection",
  "features": [
    {
      "type": "Feature",
      "geometry": {
        "type": "Polygon",
        "coordinates": [
          [
            [
              32.8347259905664,
              39.85711971632613
            ],
            [
              32.83472503512767,
              39.85704537403431
            ],
            [
              32.8348141224355,
              39.85704083894805
            ],
            [
              32.83480811996836,
              39.85710950343371
            ],
            [
              32.8347259905664,
              39.85711971632613
            ]
          ]
        ]
      },
      "properties": {
        "name": "Adsız Çokgen [45:Polygon]"
      }
    },
    {
      "type": "Feature",
      "geometry": {
        "type": "Polygon",
        "coordinates": [
          [
            [
              32.83467696441348,
              39.85696383637031
            ],
            [
              32.83458214107322,
              39.8569577114654
            ],
            [
              32.83458068479684,
              39.85693097415861
            ],
            [
              32.83455196487704,
              39.85692948935679
            ],
            [
              32.8345502229996,
              39.856883535471
            ],
            [
              32.83458837175371,
              39.85687903675451
            ],
            [
              32.83459024831416,
              39.85685973557617
            ],
            [
              32.83457309656671,
              39.85686273927344
            ],
            [
              32.83456545063301,
              39.85684495329418
            ],
            [
              32.83459019458965,
              39.85684043137181
            ],
            [
              32.83460525078716,
              39.85678537629399
            ],
            [
              32.83469409878722,
              39.85678450105706
            ],
            [
              32.83467696441348,
              39.85696383637031
            ]
          ]
        ]
      },
      "properties": {
        "name": "Adsız Çokgen [46:Polygon]"
      }
    },
    {
      "type": "Feature",
      "geometry": {
        "type": "Polygon",
        "coordinates": [
          [
            [
              32.83462379193604,
              39.85666898413488
            ],
            [
              32.83471391665243,
              39.85666512543209
            ],
            [
              32.83469779354818,
              39.85676946089765
            ],
            [
              32.83462227678788,
              39.85677037154845
            ],
            [
              32.83462379193604,
              39.85666898413488
            ]
          ]
        ]
      },
      "properties": {
        "name": "Adsız Çokgen [47:Polygon]"
      }
    },
    {
      "type": "Feature",
      "geometry": {
        "type": "Polygon",
        "coordinates": [
          [
            [
              32.83477695952244,
              39.85692043173901
            ],
            [
              32.83478265180502,
              39.85692193658407
            ],
            [
              32.83485868711309,
              39.85693256838516
            ],
            [
              32.83484470378669,
              39.85703845205814
            ],
            [
              32.83479519726515,
              39.85702826136147
            ],
            [
              32.83479528629307,
              39.85701303778415
            ],
            [
              32.83475171275965,
              39.85701097883808
            ],
            [
              32.83477695952244,
              39.85692043173901
            ]
          ]
        ]
      },
      "properties": {
        "name": "Adsız Çokgen [48:Polygon]"
      }
    },
    {
      "type": "Feature",
      "geometry": {
        "type": "Polygon",
        "coordinates": [
          [
            [
              32.84365911230991,
              39.8535899953305
            ],
            [
              32.84381800176506,
              39.85352712393384
            ],
            [
              32.84385042792701,
              39.85358338499115
            ],
            [
              32.84379281207634,
              39.85359634881381
            ],
            [
              32.84382541471989,
              39.85362823770822
            ],
            [
              32.84371377129359,
              39.85367548379401
            ],
            [
              32.84365911230991,
              39.8535899953305
            ]
          ]
        ]
      },
      "properties": {
        "name": "Adsız Çokgen [313:Polygon]"
      }
    },
    {
      "type": "Feature",
      "geometry": {
        "type": "Polygon",
        "coordinates": [
          [
            [
              32.84309602296204,
              39.8537508050476
            ],
            [
              32.84302185715336,
              39.85365834108556
            ],
            [
              32.84313601504792,
              39.85360428040473
            ],
            [
              32.84320858940122,
              39.8537009456582
            ],
            [
              32.84316205789617,
              39.85372922009232
            ],
            [
              32.84314516850257,
              39.85370304819493
            ],
            [
              32.84309602296204,
              39.8537508050476
            ]
          ]
        ]
      },
      "properties": {
        "name": "Adsız Çokgen [314:Polygon]"
      }
    },
    {
      "type": "Feature",
      "geometry": {
        "type": "Polygon",
        "coordinates": [
          [
            [
              32.84252439829198,
              39.85380010551848
            ],
            [
              32.84265337842533,
              39.85377137751205
            ],
            [
              32.84267677046104,
              39.85383492007011
            ],
            [
              32.84273291889678,
              39.85383502374228
            ],
            [
              32.84273418100422,
              39.85387623539856
            ],
            [
              32.84257629191526,
              39.8538956556052
            ],
            [
              32.84252439829198,
              39.85380010551848
            ]
          ]
        ]
      },
      "properties": {
        "name": "Adsız Çokgen [320:Polygon]"
      }
    },
    {
      "type": "Feature",
      "geometry": {
        "type": "Polygon",
        "coordinates": [
          [
            [
              32.84140035580457,
              39.85408894230895
            ],
            [
              32.84149566972984,
              39.85405688557987
            ],
            [
              32.84151523834174,
              39.8540659652508
            ],
            [
              32.84156628190293,
              39.85406196882077
            ],
            [
              32.841585875247,
              39.8540930571184
            ],
            [
              32.84155680614165,
              39.85410429146103
            ],
            [
              32.84158367065157,
              39.85414079154565
            ],
            [
              32.84145457410304,
              39.85417711598136
            ],
            [
              32.84140035580457,
              39.85408894230895
            ]
          ]
        ]
      },
      "properties": {
        "name": "Adsız Çokgen [333:Polygon]"
      }
    },
    {
      "type": "Feature",
      "geometry": {
        "type": "Polygon",
        "coordinates": [
          [
            [
              32.84149388733303,
              39.85427803326259
            ],
            [
              32.84145704220482,
              39.8541900132494
            ],
            [
              32.84159829093288,
              39.85416083337882
            ],
            [
              32.84164198371575,
              39.85425942620908
            ],
            [
              32.84149388733303,
              39.85427803326259
            ]
          ]
        ]
      },
      "properties": {
        "name": "Adsız Çokgen [334:Polygon]"
      }
    },
    {
      "type": "Feature",
      "geometry": {
        "type": "Polygon",
        "coordinates": [
          [
            [
              32.84204311223139,
              39.85388410077777
            ],
            [
              32.84204982915509,
              39.85378143387901
            ],
            [
              32.84216394040585,
              39.85378887408814
            ],
            [
              32.84214919294824,
              39.85388965202025
            ],
            [
              32.84204311223139,
              39.85388410077777
            ]
          ]
        ]
      },
      "properties": {
        "name": "Adsız Çokgen [339:Polygon]"
      }
    },
    {
      "type": "Feature",
      "geometry": {
        "type": "Polygon",
        "coordinates": [
          [
            [
              32.8413470819057,
              39.85348524330782
            ],
            [
              32.84155899150706,
              39.85348914669121
            ],
            [
              32.84157713929953,
              39.85360554449717
            ],
            [
              32.84135867644864,
              39.85360554207791
            ],
            [
              32.8413470819057,
              39.85348524330782
            ]
          ]
        ]
      },
      "properties": {
        "name": "Adsız Çokgen [341:Polygon]"
      }
    },
    {
      "type": "Feature",
      "geometry": {
        "type": "Polygon",
        "coordinates": [
          [
            [
              32.84162354637861,
              39.85359612000283
            ],
            [
              32.84162888753889,
              39.85350452972716
            ],
            [
              32.8417704575203,
              39.85350811288757
            ],
            [
              32.8417735049918,
              39.85360936398743
            ],
            [
              32.84162354637861,
              39.85359612000283
            ]
          ]
        ]
      },
      "properties": {
        "name": "Adsız Çokgen [342:Polygon]"
      }
    },
    {
      "type": "Feature",
      "geometry": {
        "type": "Polygon",
        "coordinates": [
          [
            [
              32.84092835836887,
              39.85498541300346
            ],
            [
              32.84086964886849,
              39.8548979447254
            ],
            [
              32.84097731596969,
              39.85485339827856
            ],
            [
              32.84101641009123,
              39.85497236652862
            ],
            [
              32.84092835836887,
              39.85498541300346
            ]
          ]
        ]
      },
      "properties": {
        "name": "Adsız Çokgen [373:Polygon]"
      }
    },
    {
      "type": "Feature",
      "geometry": {
        "type": "Polygon",
        "coordinates": [
          [
            [
              32.84085267902224,
              39.8548326088175
            ],
            [
              32.84080162657775,
              39.85472053676307
            ],
            [
              32.84093407894852,
              39.85470482222636
            ],
            [
              32.84096346512721,
              39.85480510847259
            ],
            [
              32.84085267902224,
              39.8548326088175
            ]
          ]
        ]
      },
      "properties": {
        "name": "Adsız Çokgen [374:Polygon]"
      }
    },
    {
      "type": "Feature",
      "geometry": {
        "type": "Polygon",
        "coordinates": [
          [
            [
              32.84708300454929,
              39.8610678340984
            ],
            [
              32.8469972684411,
              39.86095251397035
            ],
            [
              32.84709749398345,
              39.86091825140745
            ],
            [
              32.84714732997097,
              39.86101617234827
            ],
            [
              32.84708300454929,
              39.8610678340984
            ]
          ]
        ]
      },
      "properties": {
        "name": "Adsız Çokgen [593:Polygon]"
      }
    },
    {
      "type": "Feature",
      "geometry": {
        "type": "Polygon",
        "coordinates": [
          [
            [
              32.84959387543362,
              39.86405253127335
            ],
            [
              32.84968023116137,
              39.86400301162279
            ],
            [
              32.84976109056502,
              39.86408048763187
            ],
            [
              32.84968786465607,
              39.86411385883053
            ],
            [
              32.84959387543362,
              39.86405253127335
            ]
          ]
        ]
      },
      "properties": {
        "name": "Adsız Çokgen [643:Polygon]"
      }
    },
    {
      "type": "Feature",
      "geometry": {
        "type": "Polygon",
        "coordinates": [
          [
            [
              32.84941850647662,
              39.86417167314497
            ],
            [
              32.84952099021808,
              39.86410273863734
            ],
            [
              32.84962897372394,
              39.86417833810223
            ],
            [
              32.84958359707826,
              39.86424731300379
            ],
            [
              32.84941850647662,
              39.86417167314497
            ]
          ]
        ]
      },
      "properties": {
        "name": "Adsız Çokgen [648:Polygon]"
      }
    },
    {
      "type": "Feature",
      "geometry": {
        "type": "Polygon",
        "coordinates": [
          [
            [
              32.84911558463924,
              39.86416022955868
            ],
            [
              32.84919811367306,
              39.86406216207705
            ],
            [
              32.84931329289966,
              39.86412089505379
            ],
            [
              32.84927438253057,
              39.86420808164247
            ],
            [
              32.84911558463924,
              39.86416022955868
            ]
          ]
        ]
      },
      "properties": {
        "name": "Adsız Çokgen [649:Polygon]"
      }
    },
    {
      "type": "Feature",
      "geometry": {
        "type": "Polygon",
        "coordinates": [
          [
            [
              32.84883141108097,
              39.86440613652223
            ],
            [
              32.84886618121372,
              39.86431288970049
            ],
            [
              32.84902637843329,
              39.86435212189481
            ],
            [
              32.8489849220327,
              39.86445769308239
            ],
            [
              32.84883141108097,
              39.86440613652223
            ]
          ]
        ]
      },
      "properties": {
        "name": "Adsız Çokgen [650:Polygon]"
      }
    },
    {
      "type": "Feature",
      "geometry": {
        "type": "Polygon",
        "coordinates": [
          [
            [
              32.84798453338951,
              39.86473329630542
            ],
            [
              32.84803161601148,
              39.86465842671037
            ],
            [
              32.84813999468845,
              39.86466992892375
            ],
            [
              32.84813375766932,
              39.86477393533105
            ],
            [
              32.84798453338951,
              39.86473329630542
            ]
          ]
        ]
      },
      "properties": {
        "name": "Adsız Çokgen [652:Polygon]"
      }
    },
    {
      "type": "Feature",
      "geometry": {
        "type": "Polygon",
        "coordinates": [
          [
            [
              32.84798235318991,
              39.86520676477517
            ],
            [
              32.84808888160208,
              39.8651151162752
            ],
            [
              32.84816904415572,
              39.86519490563285
            ],
            [
              32.84807390423344,
              39.86527474100705
            ],
            [
              32.84798235318991,
              39.86520676477517
            ]
          ]
        ]
      },
      "properties": {
        "name": "Adsız Çokgen [653:Polygon]"
      }
    },
    {
      "type": "Feature",
      "geometry": {
        "type": "Polygon",
        "coordinates": [
          [
            [
              32.84879317366571,
              39.86455985225414
            ],
            [
              32.84882600361213,
              39.86446741560603
            ],
            [
              32.84895018468668,
              39.86448975299699
            ],
            [
              32.84895306193102,
              39.86449199585742
            ],
            [
              32.84893000497679,
              39.86458648205726
            ],
            [
              32.84879317366571,
              39.86455985225414
            ]
          ]
        ]
      },
      "properties": {
        "name": "Adsız Çokgen [659:Polygon]"
      }
    },
    {
      "type": "Feature",
      "geometry": {
        "type": "Polygon",
        "coordinates": [
          [
            [
              32.85113448053937,
              39.86389913145249
            ],
            [
              32.85106962692082,
              39.86382192767255
            ],
            [
              32.85120277906826,
              39.86374698902701
            ],
            [
              32.85128723582533,
              39.86384419836119
            ],
            [
              32.85113448053937,
              39.86389913145249
            ]
          ]
        ]
      },
      "properties": {
        "name": "Adsız Çokgen [670:Polygon]"
      }
    },
    {
      "type": "Feature",
      "geometry": {
        "type": "Polygon",
        "coordinates": [
          [
            [
              32.85129843741731,
              39.86381839870704
            ],
            [
              32.85122073844545,
              39.86372298930333
            ],
            [
              32.85133470015138,
              39.86367119101449
            ],
            [
              32.85140729311402,
              39.8637749344232
            ],
            [
              32.85129843741731,
              39.86381839870704
            ]
          ]
        ]
      },
      "properties": {
        "name": "Adsız Çokgen [671:Polygon]"
      }
    },
    {
      "type": "Feature",
      "geometry": {
        "type": "Polygon",
        "coordinates": [
          [
            [
              32.85168208459729,
              39.86386589710231
            ],
            [
              32.85158048621084,
              39.86375986685687
            ],
            [
              32.85167811209436,
              39.863705417064
            ],
            [
              32.85176929804046,
              39.86380324528685
            ],
            [
              32.85168208459729,
              39.86386589710231
            ]
          ]
        ]
      },
      "properties": {
        "name": "Adsız Çokgen [673:Polygon]"
      }
    },
    {
      "type": "Feature",
      "geometry": {
        "type": "Polygon",
        "coordinates": [
          [
            [
              32.85104309452951,
              39.86406867067026
            ],
            [
              32.85100365696096,
              39.8639956333491
            ],
            [
              32.8511395894008,
              39.86392926290691
            ],
            [
              32.8511707917031,
              39.86402792342402
            ],
            [
              32.85104309452951,
              39.86406867067026
            ]
          ]
        ]
      },
      "properties": {
        "name": "Adsız Çokgen [674:Polygon]"
      }
    },
    {
      "type": "Feature",
      "geometry": {
        "type": "Polygon",
        "coordinates": [
          [
            [
              32.85078796174443,
              39.86424162180714
            ],
            [
              32.85079466845998,
              39.86413059234825
            ],
            [
              32.85092565078904,
              39.86413796004796
            ],
            [
              32.85092299149252,
              39.86419224661329
            ],
            [
              32.85094331658401,
              39.86419791599567
            ],
            [
              32.85095290609417,
              39.86425255422704
            ],
            [
              32.85078796174443,
              39.86424162180714
            ]
          ]
        ]
      },
      "properties": {
        "name": "Adsız Çokgen [675:Polygon]"
      }
    },
    {
      "type": "Feature",
      "geometry": {
        "type": "Polygon",
        "coordinates": [
          [
            [
              32.85020163023579,
              39.86431475670992
            ],
            [
              32.85015100071404,
              39.86424659738768
            ],
            [
              32.8502858350102,
              39.86419642201746
            ],
            [
              32.85032478574344,
              39.86426321681252
            ],
            [
              32.85020163023579,
              39.86431475670992
            ]
          ]
        ]
      },
      "properties": {
        "name": "Adsız Çokgen [676:Polygon]"
      }
    },
    {
      "type": "Feature",
      "geometry": {
        "type": "Polygon",
        "coordinates": [
          [
            [
              32.8501477198377,
              39.86423997489045
            ],
            [
              32.85010972276531,
              39.86417826254591
            ],
            [
              32.85023191765442,
              39.8641370598346
            ],
            [
              32.85026528021206,
              39.86419124116811
            ],
            [
              32.8501477198377,
              39.86423997489045
            ]
          ]
        ]
      },
      "properties": {
        "name": "Adsız Çokgen [677:Polygon]"
      }
    },
    {
      "type": "Feature",
      "geometry": {
        "type": "Polygon",
        "coordinates": [
          [
            [
              32.85011202767793,
              39.86416395538897
            ],
            [
              32.85007257130513,
              39.86410972444401
            ],
            [
              32.85010266878789,
              39.86409325580048
            ],
            [
              32.850051167323,
              39.86404352902785
            ],
            [
              32.85015498773532,
              39.86400294125279
            ],
            [
              32.85017111975037,
              39.86403424497884
            ],
            [
              32.8501574376041,
              39.86403920096097
            ],
            [
              32.85021148460295,
              39.86413189849685
            ],
            [
              32.85011202767793,
              39.86416395538897
            ]
          ]
        ]
      },
      "properties": {
        "name": "Adsız Çokgen [678:Polygon]"
      }
    },
    {
      "type": "Feature",
      "geometry": {
        "type": "Polygon",
        "coordinates": [
          [
            [
              32.84998645146359,
              39.86441797921228
            ],
            [
              32.84993256989154,
              39.86433589015729
            ],
            [
              32.85006025692874,
              39.86429365040144
            ],
            [
              32.85010931266328,
              39.86437821398568
            ],
            [
              32.84998645146359,
              39.86441797921228
            ]
          ]
        ]
      },
      "properties": {
        "name": "Adsız Çokgen [681:Polygon]"
      }
    },
    {
      "type": "Feature",
      "geometry": {
        "type": "Polygon",
        "coordinates": [
          [
            [
              32.84984784689776,
              39.8642717701865
            ],
            [
              32.84982037467486,
              39.86418975263958
            ],
            [
              32.84991584136796,
              39.86416086955039
            ],
            [
              32.84996127536068,
              39.86424963062871
            ],
            [
              32.84984784689776,
              39.8642717701865
            ]
          ]
        ]
      },
      "properties": {
        "name": "Adsız Çokgen [682:Polygon]"
      }
    },
    {
      "type": "Feature",
      "geometry": {
        "type": "Polygon",
        "coordinates": [
          [
            [
              32.849709307105,
              39.86441152189806
            ],
            [
              32.84965245943204,
              39.86431314310328
            ],
            [
              32.84978009477329,
              39.86427496031661
            ],
            [
              32.84983819496399,
              39.86440333467975
            ],
            [
              32.849709307105,
              39.86441152189806
            ]
          ]
        ]
      },
      "properties": {
        "name": "Adsız Çokgen [683:Polygon]"
      }
    },
    {
      "type": "Feature",
      "geometry": {
        "type": "Polygon",
        "coordinates": [
          [
            [
              32.84989592413663,
              39.86454694952995
            ],
            [
              32.84980259294576,
              39.8644331241933
            ],
            [
              32.84989188427149,
              39.86439528911208
            ],
            [
              32.8499756627049,
              39.86450891836226
            ],
            [
              32.84989592413663,
              39.86454694952995
            ]
          ]
        ]
      },
      "properties": {
        "name": "Adsız Çokgen [684:Polygon]"
      }
    },
    {
      "type": "Feature",
      "geometry": {
        "type": "Polygon",
        "coordinates": [
          [
            [
              32.84970736554683,
              39.86464637538455
            ],
            [
              32.84954888952898,
              39.86446678931773
            ],
            [
              32.8496470661232,
              39.86441702876251
            ],
            [
              32.84978366307195,
              39.86459047441968
            ],
            [
              32.84970736554683,
              39.86464637538455
            ]
          ]
        ]
      },
      "properties": {
        "name": "Adsız Çokgen [685:Polygon]"
      }
    },
    {
      "type": "Feature",
      "geometry": {
        "type": "Polygon",
        "coordinates": [
          [
            [
              32.85018798725618,
              39.86451734722389
            ],
            [
              32.85012070551409,
              39.86445123449142
            ],
            [
              32.8502065168982,
              39.86441513215833
            ],
            [
              32.85026334110105,
              39.86447102440545
            ],
            [
              32.85018798725618,
              39.86451734722389
            ]
          ]
        ]
      },
      "properties": {
        "name": "Adsız Çokgen [687:Polygon]"
      }
    },
    {
      "type": "Feature",
      "geometry": {
        "type": "Polygon",
        "coordinates": [
          [
            [
              32.84983317518282,
              39.86465868959962
            ],
            [
              32.84992994861283,
              39.86462277262877
            ],
            [
              32.84997079093233,
              39.86465794313052
            ],
            [
              32.84985485627912,
              39.86471167261585
            ],
            [
              32.84983317518282,
              39.86465868959962
            ]
          ]
        ]
      },
      "properties": {
        "name": "Adsız Çokgen [691:Polygon]"
      }
    },
    {
      "type": "Feature",
      "geometry": {
        "type": "Polygon",
        "coordinates": [
          [
            [
              32.84986556246245,
              39.86463082523779
            ],
            [
              32.84981895352631,
              39.8645758481719
            ],
            [
              32.84992011027131,
              39.86454534242553
            ],
            [
              32.84994843205462,
              39.86459419702184
            ],
            [
              32.84986556246245,
              39.86463082523779
            ]
          ]
        ]
      },
      "properties": {
        "name": "Adsız Çokgen [692:Polygon]"
      }
    },
    {
      "type": "Feature",
      "geometry": {
        "type": "Polygon",
        "coordinates": [
          [
            [
              32.84893582177981,
              39.86510943687153
            ],
            [
              32.84894696411031,
              39.86496377517082
            ],
            [
              32.84909181622935,
              39.86497227749985
            ],
            [
              32.84905571614825,
              39.86512358277965
            ],
            [
              32.84893582177981,
              39.86510943687153
            ]
          ]
        ]
      },
      "properties": {
        "name": "Adsız Çokgen [717:Polygon]"
      }
    },
    {
      "type": "Feature",
      "geometry": {
        "type": "Polygon",
        "coordinates": [
          [
            [
              32.84751045916438,
              39.86537206772166
            ],
            [
              32.84751367020779,
              39.86523491631757
            ],
            [
              32.84762179578606,
              39.86524882433827
            ],
            [
              32.8475933767927,
              39.8653674314153
            ],
            [
              32.84751045916438,
              39.86537206772166
            ]
          ]
        ]
      },
      "properties": {
        "name": "Adsız Çokgen [723:Polygon]"
      }
    },
    {
      "type": "Feature",
      "geometry": {
        "type": "Polygon",
        "coordinates": [
          [
            [
              32.84007294238233,
              39.86807558697122
            ],
            [
              32.84003528044192,
              39.86798254159531
            ],
            [
              32.84011543159206,
              39.86795767229547
            ],
            [
              32.8401723451296,
              39.86806969943022
            ],
            [
              32.84007294238233,
              39.86807558697122
            ]
          ]
        ]
      },
      "properties": {
        "name": "Adsız Çokgen [758:Polygon]"
      }
    },
    {
      "type": "Feature",
      "geometry": {
        "type": "Polygon",
        "coordinates": [
          [
            [
              32.84938797857754,
              39.86853991166959
            ],
            [
              32.84935538455348,
              39.86844310571917
            ],
            [
              32.84945227601787,
              39.86843721168477
            ],
            [
              32.84948908873125,
              39.86852359796107
            ],
            [
              32.84938797857754,
              39.86853991166959
            ]
          ]
        ]
      },
      "properties": {
        "name": "Adsız Çokgen [807:Polygon]"
      }
    },
    {
      "type": "Feature",
      "geometry": {
        "type": "Polygon",
        "coordinates": [
          [
            [
              32.84994341923655,
              39.86861707615035
            ],
            [
              32.84988007107387,
              39.8685304297462
            ],
            [
              32.84998861340805,
              39.86848471309457
            ],
            [
              32.85006080789758,
              39.86857095924399
            ],
            [
              32.84994341923655,
              39.86861707615035
            ]
          ]
        ]
      },
      "properties": {
        "name": "Adsız Çokgen [808:Polygon]"
      }
    },
    {
      "type": "Feature",
      "geometry": {
        "type": "Polygon",
        "coordinates": [
          [
            [
              32.85000432749266,
              39.86804977055298
            ],
            [
              32.84997369777295,
              39.86794281881043
            ],
            [
              32.85011555870922,
              39.86792175132977
            ],
            [
              32.85015811073733,
              39.86801729919532
            ],
            [
              32.85000432749266,
              39.86804977055298
            ]
          ]
        ]
      },
      "properties": {
        "name": "Adsız Çokgen [809:Polygon]"
      }
    },
    {
      "type": "Feature",
      "geometry": {
        "type": "Polygon",
        "coordinates": [
          [
            [
              32.85028474102641,
              39.86804472825028
            ],
            [
              32.8502409803114,
              39.86795165538098
            ],
            [
              32.8503920573081,
              39.86792755416882
            ],
            [
              32.85043078312365,
              39.86802422283894
            ],
            [
              32.85028474102641,
              39.86804472825028
            ]
          ]
        ]
      },
      "properties": {
        "name": "Adsız Çokgen [810:Polygon]"
      }
    },
    {
      "type": "Feature",
      "geometry": {
        "type": "Polygon",
        "coordinates": [
          [
            [
              32.85008450699426,
              39.86789084878227
            ],
            [
              32.84996508334747,
              39.86790827216269
            ],
            [
              32.84992608671752,
              39.86776554946216
            ],
            [
              32.85004576344765,
              39.86776174149139
            ],
            [
              32.85008450699426,
              39.86789084878227
            ]
          ]
        ]
      },
      "properties": {
        "name": "Adsız Çokgen [811:Polygon]"
      }
    },
    {
      "type": "Feature",
      "geometry": {
        "type": "Polygon",
        "coordinates": [
          [
            [
              32.8528268073981,
              39.87348701715444
            ],
            [
              32.85285584209377,
              39.87338127264999
            ],
            [
              32.85302020904471,
              39.87339299744028
            ],
            [
              32.85303067722216,
              39.87346097428809
            ],
            [
              32.8528268073981,
              39.87348701715444
            ]
          ]
        ]
      },
      "properties": {
        "name": "Adsız Çokgen [864:Polygon]"
      }
    },
    {
      "type": "Feature",
      "geometry": {
        "type": "Polygon",
        "coordinates": [
          [
            [
              32.85240072191708,
              39.87393635976362
            ],
            [
              32.85234726564197,
              39.87379784021175
            ],
            [
              32.85247928082468,
              39.87373930607155
            ],
            [
              32.8525481473748,
              39.87387729697111
            ],
            [
              32.85240072191708,
              39.87393635976362
            ]
          ]
        ]
      },
      "properties": {
        "name": "Adsız Çokgen [866:Polygon]"
      }
    }
  ]
}