{"type":"FeatureCollection","features":[{"type":"Feature","properties":{},"geometry":{"type":"LineString","coordinates":[[32.8442817,39.8559317],[32.8459268,39.8551518],[32.8519315,39.8574718],[32.8550371,39.8598437],[32.8728482,39.8695414]]}},{"type":"Feature","properties":{},"geometry":{"type":"LineString","coordinates":[[32.8434723,39.8601503],[32.8410892,39.8568386],[32.8380542,39.8528957],[32.840097,39.8519548],[32.8407974,39.8479667],[32.8475679,39.8513274],[32.8512449,39.8561218],[32.8532294,39.8588548],[32.8640855,39.8654854]]}},{"type":"Feature","properties":{},"geometry":{"type":"LineString","coordinates":[[32.8350824,39.8550892],[32.8380778,39.85283],[32.8405822,39.8479371],[32.8482546,39.8520926],[32.8528266,39.8585472],[32.8679248,39.8677898]]}},{"type":"Feature","properties":{},"geometry":{"type":"LineString","coordinates":[[32.838205,39.8588911],[32.8356385,39.8568729],[32.8376416,39.8556235],[32.837892,39.8531247],[32.8398325,39.8518272],[32.8405837,39.8481748],[32.8479076,39.8519233],[32.8537918,39.8593236],[32.8716456,39.8696203]]}},{"type":"Feature","properties":{},"geometry":{"type":"LineString","coordinates":[[32.8470343,39.8651495],[32.8494727,39.8639329],[32.8484974,39.8616557],[32.8444334,39.8585985],[32.8455306,39.855666],[32.8528865,39.857725],[32.8729725,39.8690172]]}}]}
