{"type":"FeatureCollection","features":[{"type":"Feature","properties":{},"geometry":{"type":"LineString","coordinates":[[32.844282,39.855932],[32.845927,39.855152],[32.851932,39.857472],[32.855037,39.859844],[32.872848,39.869541]]}},{"type":"Feature","properties":{},"geometry":{"type":"LineString","coordinates":[[32.843472,39.86015],[32.841089,39.856839],[32.838054,39.852896],[32.840097,39.851955],[32.840797,39.847967],[32.847568,39.851327],[32.851245,39.856122],[32.853229,39.858855],[32.864086,39.865485]]}},{"type":"Feature","properties":{},"geometry":{"type":"LineString","coordinates":[[32.835082,39.855089],[32.838078,39.85283],[32.840582,39.847937],[32.848255,39.852093],[32.852827,39.858547],[32.867925,39.86779]]}},{"type":"Feature","properties":{},"geometry":{"type":"LineString","coordinates":[[32.838205,39.858891],[32.835639,39.856873],[32.837642,39.855624],[32.837892,39.853125],[32.839833,39.851827],[32.840584,39.848175],[32.847908,39.851923],[32.853792,39.859324],[32.871646,39.86962]]}},{"type":"Feature","properties":{},"geometry":{"type":"LineString","coordinates":[[32.847034,39.86515],[32.849473,39.863933],[32.848497,39.861656],[32.844433,39.858599],[32.845531,39.855666],[32.852886,39.857725],[32.872973,39.869017]]}}]}