{
  "type": "FeatureCollection",
  "features": [
    {
      "type": "Feature",
      "geometry": {
        "type": "Polygon",
        "coordinates": [
          [
            [
              32.8408122,
              39.8592284
            ],
            [
              32.8408122,
              39.8631637
            ],
            [
              32.8352297,
              39.8631637
            ],
            [
              32.8352297,
              39.8592284
            ],
            [
              32.8408122,
              39.8592284
            ]
          ]
        ]
      },
      "properties": {}
    }
  ]
}
