{"type":"FeatureCollection","features":[{"type":"Feature","properties":{"stroke":"#312E81"},"geometry":{"type":"Polygon","coordinates":[[[32.866274,39.948704],[32.870153,39.947246],[32.872104,39.94618],[32.873007,39.945862],[32.872324,39.944104],[32.872348,39.942889],[32.871543,39.941804],[32.87008,39.942403],[32.868982,39.942309],[32.868177,39.942403],[32.867567,39.942926],[32.866811,39.943506],[32.865299,39.943525],[32.86264,39.943207],[32.861811,39.94345],[32.861787,39.943693],[32.861957,39.944011],[32.861933,39.944647],[32.862128,39.945077],[32.862665,39.94547],[32.864274,39.947022],[32.865372,39.948069],[32.866274,39.948704]]]}}]}