{"type":"FeatureCollection","features":[{"type":"Feature","geometry":{"type":"Polygon","coordinates":[[[31.685188,40.073791,0],[31.685183,40.073799,0],[31.68514,40.073823,0],[31.685093,40.073835,0],[31.685035,40.073824,0],[31.685004,40.073813,0],[31.684951,40.073794,0],[31.684915,40.073771,0],[31.684884,40.073741,0],[31.684853,40.07371,0],[31.684838,40.073675,0],[31.684797,40.07364,0],[31.684772,40.073602,0],[31.684756,40.073586,0],[31.684714,40.073571,0],[31.684668,40.073544,0],[31.684637,40.073514,0],[31.6846,40.073491,0],[31.684564,40.073468,0],[31.684533,40.073437,0],[31.684501,40.073406,0],[31.684486,40.073371,0],[31.684471,40.073337,0],[31.684446,40.073298,0],[31.684405,40.073244,0],[31.684385,40.073217,0],[31.684371,40.073182,0],[31.684362,40.073139,0],[31.684343,40.073093,0],[31.684319,40.073035,0],[31.684288,40.073004,0],[31.684268,40.072977,0],[31.684253,40.072943,0],[31.684217,40.07292,0],[31.684186,40.072889,0],[31.684134,40.072851,0],[31.684097,40.072828,0],[31.684052,40.072762,0],[31.684022,40.072712,0],[31.684008,40.072678,0],[31.683989,40.072631,0],[31.683979,40.072589,0],[31.683953,40.07255,0],[31.683944,40.072508,0],[31.683944,40.072469,0],[31.683945,40.07243,0],[31.683957,40.072395,0],[31.683942,40.072361,0],[31.683964,40.07233,0],[31.683981,40.072287,0],[31.684004,40.072256,0],[31.684037,40.072209,0],[31.68407,40.072182,0],[31.684103,40.072155,0],[31.684178,40.072143,0],[31.684221,40.072139,0],[31.684264,40.072154,0],[31.684311,40.07218,0],[31.684348,40.072203,0],[31.684455,40.072222,0],[31.684573,40.072206,0],[31.684682,40.072197,0],[31.684792,40.072169,0],[31.68483,40.072153,0],[31.684872,40.07213,0],[31.684904,40.072102,0],[31.684958,40.072064,0],[31.685,40.07204,0],[31.685037,40.072025,0],[31.68508,40.072001,0],[31.685122,40.071997,0],[31.68519,40.071993,0],[31.685221,40.072004,0],[31.685273,40.072003,0],[31.685362,40.071987,0],[31.685416,40.071968,0],[31.685465,40.071937,0],[31.685484,40.071915,0],[31.68549,40.071877,0],[31.685518,40.071828,0],[31.685555,40.071783,0],[31.685574,40.071761,0],[31.685616,40.071727,0],[31.685651,40.071701,0],[31.685673,40.07169,0],[31.685709,40.071664,0],[31.685773,40.071638,0],[31.685837,40.071612,0],[31.685867,40.071594,0],[31.685913,40.071572,0],[31.685929,40.071539,0],[31.685949,40.071517,0],[31.685983,40.071481,0],[31.686023,40.071437,0],[31.686097,40.071416,0],[31.68616,40.07142,0],[31.686236,40.071409,0],[31.686312,40.071398,0],[31.686361,40.071388,0],[31.68639,40.071369,0],[31.686379,40.071337,0],[31.686338,40.071293,0],[31.686311,40.071264,0],[31.686318,40.071228,0],[31.686362,40.071197,0],[31.686389,40.071169,0],[31.686453,40.071144,0],[31.686499,40.071123,0],[31.686559,40.071116,0],[31.686624,40.071131,0],[31.686637,40.071145,0],[31.686696,40.071167,0],[31.686728,40.071188,0],[31.686785,40.071171,0],[31.686812,40.071143,0],[31.686803,40.071111,0],[31.686764,40.071097,0],[31.686725,40.071083,0],[31.686723,40.071044,0],[31.686751,40.070988,0],[31.686748,40.070978,0],[31.686807,40.070971,0],[31.686888,40.070983,0],[31.686915,40.070983,0],[31.686944,40.070993,0],[31.687022,40.070994,0],[31.687081,40.070987,0],[31.687149,40.070984,0],[31.687197,40.070974,0],[31.687265,40.070971,0],[31.687298,40.070964,0],[31.68733,40.070985,0],[31.687336,40.071034,0],[31.687329,40.071069,0],[31.687341,40.071111,0],[31.687405,40.071125,0],[31.687465,40.071128,0],[31.687481,40.071125,0],[31.687522,40.071121,0],[31.687567,40.0711,0],[31.687656,40.071114,0],[31.687732,40.071142,0],[31.687833,40.07117,0],[31.68791,40.071197,0],[31.687993,40.071218,0],[31.688036,40.071225,0],[31.688063,40.071235,0],[31.688097,40.071238,0],[31.688155,40.071241,0],[31.688219,40.071236,0],[31.688277,40.071239,0],[31.688326,40.071238,0],[31.688381,40.071231,0],[31.688405,40.07123,0],[31.688454,40.071229,0],[31.688509,40.071222,0],[31.68857,40.071207,0],[31.688603,40.07121,0],[31.688659,40.071202,0],[31.688732,40.071201,0],[31.688756,40.071201,0],[31.688798,40.071207,0],[31.688843,40.071196,0],[31.688882,40.071191,0],[31.688939,40.071193,0],[31.688996,40.071196,0],[31.689059,40.071191,0],[31.689083,40.07119,0],[31.689158,40.071172,0],[31.689176,40.071151,0],[31.689199,40.071123,0],[31.689214,40.071091,0],[31.689217,40.071047,0],[31.689226,40.071023,0],[31.689232,40.070989,0],[31.689244,40.070948,0],[31.689259,40.070918,0],[31.689289,40.070883,0],[31.689331,40.070862,0],[31.689403,40.070834,0],[31.689456,40.070826,0],[31.689492,40.070812,0],[31.689554,40.070807,0],[31.689598,40.070796,0],[31.689642,40.070785,0],[31.689695,40.070777,0],[31.689766,40.070775,0],[31.689851,40.070769,0],[31.689895,40.070758,0],[31.68991,40.070754,0],[31.689956,40.070726,0],[31.689984,40.070692,0],[31.690016,40.070668,0],[31.690065,40.07065,0],[31.690115,40.07065,0],[31.690164,40.07065,0],[31.69025,40.070663,0],[31.690312,40.070676,0],[31.690374,40.070689,0],[31.690432,40.070692,0],[31.690441,40.070696,0],[31.690496,40.070688,0],[31.69055,40.070681,0],[31.690595,40.070671,0],[31.690636,40.070651,0],[31.690696,40.070637,0],[31.690741,40.070627,0],[31.690811,40.070635,0],[31.69087,40.070657,0],[31.690905,40.070661,0],[31.690955,40.070662,0],[31.691019,40.070677,0],[31.691058,40.070691,0],[31.691107,40.070709,0],[31.691165,40.070731,0],[31.691225,40.070735,0],[31.691254,40.070746,0],[31.691293,40.07076,0],[31.691332,40.070775,0],[31.6914,40.0708,0],[31.691429,40.07081,0],[31.691469,40.070826,0],[31.69152,40.070845,0],[31.691558,40.070894,0],[31.69156,40.070939,0],[31.691572,40.070987,0],[31.691585,40.071036,0],[31.691572,40.071066,0],[31.69158,40.071104,0],[31.691552,40.071138,0],[31.69155,40.071172,0],[31.691532,40.07121,0],[31.691536,40.071238,0],[31.691528,40.071279,0],[31.69151,40.071317,0],[31.691508,40.071353,0],[31.69149,40.071409,0],[31.691499,40.07143,0],[31.691497,40.071484,0],[31.691506,40.071523,0],[31.691494,40.071555,0],[31.691497,40.071601,0],[31.691495,40.071637,0],[31.691534,40.071688,0],[31.691579,40.071732,0],[31.691608,40.071779,0],[31.691623,40.071794,0],[31.691632,40.071834,0],[31.69163,40.07187,0],[31.691634,40.071899,0],[31.691675,40.071914,0],[31.691716,40.071929,0],[31.691762,40.071937,0],[31.691819,40.071949,0],[31.691859,40.071963,0],[31.691899,40.071978,0],[31.69195,40.071997,0],[31.69199,40.072012,0],[31.692031,40.072027,0],[31.692091,40.072049,0],[31.69218,40.072082,0],[31.692259,40.072111,0],[31.692348,40.072143,0],[31.692404,40.072155,0],[31.692424,40.072162,0],[31.692469,40.072169,0],[31.692549,40.072199,0],[31.692583,40.07222,0],[31.692617,40.072242,0],[31.692662,40.072267,0],[31.6927,40.0723,0],[31.69274,40.072314,0],[31.692794,40.072343,0],[31.692823,40.072372,0],[31.692867,40.072397,0],[31.692921,40.072426,0],[31.692954,40.072465,0],[31.692963,40.072486,0],[31.693022,40.072508,0],[31.69311,40.07254,0],[31.693189,40.072569,0],[31.693234,40.072576,0],[31.693303,40.072583,0],[31.693338,40.072587,0],[31.693377,40.072583,0],[31.693422,40.07259,0],[31.693466,40.072598,0],[31.69354,40.072615,0],[31.693589,40.072633,0],[31.693623,40.072637,0],[31.693658,40.07264,0],[31.693707,40.072658,0],[31.693741,40.07268,0],[31.693775,40.072701,0],[31.693849,40.072737,0],[31.693893,40.072763,0],[31.693947,40.072791,0],[31.69402,40.072827,0],[31.694054,40.072849,0],[31.694098,40.072874,0],[31.694148,40.072892,0],[31.694206,40.072913,0],[31.69427,40.072927,0],[31.694313,40.072934,0],[31.694362,40.072952,0],[31.694421,40.072973,0],[31.69445,40.073002,0],[31.69449,40.073034,0],[31.694519,40.073045,0],[31.694554,40.073067,0],[31.694603,40.073085,0],[31.694656,40.073095,0],[31.694705,40.073113,0],[31.694745,40.073127,0],[31.694775,40.073156,0],[31.694814,40.073189,0],[31.694844,40.0732,0],[31.694864,40.073225,0],[31.694914,40.073261,0],[31.694934,40.073287,0],[31.694993,40.073309,0],[31.695013,40.073316,0],[31.695072,40.073337,0],[31.695131,40.07334,0],[31.695155,40.07334,0],[31.695199,40.073347,0],[31.695257,40.073331,0],[31.695291,40.073334,0],[31.695353,40.073311,0],[31.695396,40.0733,0],[31.695429,40.073285,0],[31.695467,40.073262,0],[31.695528,40.073239,0],[31.695556,40.073232,0],[31.695599,40.07322,0],[31.695637,40.073216,0],[31.695686,40.073234,0],[31.69573,40.073259,0],[31.695751,40.073284,0],[31.695782,40.073313,0],[31.695821,40.073328,0],[31.695828,40.073376,0],[31.695855,40.073431,0],[31.69585,40.073438,0],[31.695858,40.073487,0],[31.695874,40.07352,0],[31.695895,40.073564,0],[31.69593,40.073586,0],[31.696004,40.073622,0],[31.696024,40.073648,0],[31.696059,40.07367,0],[31.696108,40.073688,0],[31.69617,40.073683,0],[31.696212,40.073671,0],[31.696264,40.073663,0],[31.696326,40.073658,0],[31.696364,40.073654,0],[31.696411,40.073634,0],[31.696462,40.073607,0],[31.69649,40.0736,0],[31.696536,40.07358,0],[31.696595,40.073557,0],[31.69663,40.073579,0],[31.696605,40.073624,0],[31.696612,40.073653,0],[31.696661,40.073671,0],[31.696719,40.073692,0],[31.696786,40.073717,0],[31.696796,40.073721,0],[31.696844,40.073739,0],[31.696887,40.073745,0],[31.69693,40.073752,0],[31.696961,40.073781,0],[31.696983,40.073826,0],[31.696991,40.073855,0],[31.69698,40.073897,0],[31.69696,40.073935,0],[31.696977,40.073968,0],[31.697036,40.07399,0],[31.697062,40.074027,0],[31.697087,40.074045,0],[31.697113,40.074082,0],[31.697129,40.074116,0],[31.69715,40.074142,0],[31.697162,40.074183,0],[31.697182,40.074209,0],[31.697213,40.074238,0],[31.697288,40.074229,0],[31.697321,40.074232,0],[31.697358,40.074227,0],[31.697429,40.074225,0],[31.697442,40.074221,0],[31.697489,40.07422,0],[31.69753,40.074208,0],[31.697573,40.074214,0],[31.697614,40.074202,0],[31.697657,40.074208,0],[31.697701,40.074234,0],[31.697726,40.074252,0],[31.697766,40.074285,0],[31.697786,40.07431,0],[31.697803,40.074344,0],[31.69782,40.074377,0],[31.697826,40.074407,0],[31.69782,40.074441,0],[31.697832,40.074483,0],[31.697835,40.07452,0],[31.697861,40.074557,0],[31.697868,40.074588,0],[31.697881,40.074629,0],[31.697893,40.07467,0],[31.697896,40.074708,0],[31.697902,40.074738,0],[31.697909,40.074768,0],[31.697944,40.074809,0],[31.697983,40.074823,0],[31.698037,40.07487,0],[31.69811,40.074906,0],[31.698148,40.07492,0],[31.698183,40.074942,0],[31.698229,40.07494,0],[31.698281,40.07495,0],[31.698334,40.07496,0],[31.69838,40.074958,0],[31.698417,40.074953,0],[31.69846,40.074959,0],[31.698505,40.074939,0],[31.698551,40.074937,0],[31.698605,40.07492,0],[31.698657,40.07493,0],[31.69868,40.074929,0],[31.698727,40.074946,0],[31.698766,40.074979,0],[31.698828,40.075011,0],[31.698852,40.075029,0],[31.698905,40.075057,0],[31.698939,40.075078,0],[31.698982,40.075103,0],[31.69901,40.075114,0],[31.699049,40.075128,0],[31.699097,40.075145,0],[31.699143,40.075144,0],[31.699195,40.075153,0],[31.699247,40.075163,0],[31.699316,40.075161,0],[31.699363,40.07516,0],[31.699413,40.075151,0],[31.699463,40.075142,0],[31.699522,40.075136,0],[31.699575,40.075119,0],[31.699615,40.075106,0],[31.699651,40.075101,0],[31.699682,40.075085,0],[31.699719,40.075081,0],[31.699759,40.075068,0],[31.6998,40.075056,0],[31.699847,40.075055,0],[31.699895,40.075073,0],[31.699945,40.075109,0],[31.699971,40.075127,0],[31.700015,40.075153,0],[31.70004,40.075171,0],[31.700089,40.075189,0],[31.700128,40.075203,0],[31.700184,40.075205,0],[31.700227,40.075212,0],[31.700275,40.075229,0],[31.700314,40.075243,0],[31.70036,40.075242,0],[31.700409,40.07526,0],[31.700477,40.075285,0],[31.700522,40.07531,0],[31.700547,40.075328,0],[31.700608,40.075369,0],[31.700633,40.075405,0],[31.700656,40.075441,0],[31.700633,40.075459,0],[31.700567,40.075454,0],[31.700525,40.075447,0],[31.70046,40.075442,0],[31.700413,40.075424,0],[31.700356,40.075422,0],[31.700323,40.075419,0],[31.700277,40.07542,0],[31.700235,40.075414,0],[31.700184,40.075404,0],[31.700109,40.075395,0],[31.700062,40.075396,0],[31.699987,40.075387,0],[31.699922,40.075382,0],[31.699861,40.075387,0],[31.699805,40.075385,0],[31.699744,40.07539,0],[31.699697,40.075391,0],[31.699654,40.075403,0],[31.699617,40.075408,0],[31.699561,40.075424,0],[31.699487,40.075433,0],[31.699445,40.075446,0],[31.699385,40.075451,0],[31.699362,40.075452,0],[31.699324,40.075457,0],[31.699273,40.075447,0],[31.699232,40.075441,0],[31.699199,40.075439,0],[31.699138,40.075444,0],[31.699087,40.075453,0],[31.699045,40.075465,0],[31.699008,40.075489,0],[31.698961,40.07549,0],[31.698915,40.07551,0],[31.698864,40.075519,0],[31.698799,40.075533,0],[31.698729,40.075535,0],[31.698673,40.075534,0],[31.698631,40.075546,0],[31.698594,40.075551,0],[31.698533,40.075557,0],[31.698477,40.075574,0],[31.698426,40.075602,0],[31.69839,40.075626,0],[31.698348,40.075657,0],[31.698307,40.075689,0],[31.698283,40.075726,0],[31.698264,40.075756,0],[31.698255,40.07579,0],[31.698236,40.075819,0],[31.698231,40.075864,0],[31.698212,40.075912,0],[31.698198,40.075953,0],[31.698198,40.075989,0],[31.698208,40.076029,0],[31.698217,40.076069,0],[31.698231,40.076119,0],[31.698221,40.076152,0],[31.698196,40.076188,0],[31.698161,40.07622,0],[31.698136,40.076256,0],[31.698111,40.076292,0],[31.698091,40.076321,0],[31.698056,40.076353,0],[31.698012,40.076346,0],[31.698002,40.076307,0],[31.697988,40.076275,0],[31.697964,40.076257,0],[31.697949,40.076224,0],[31.697911,40.076174,0],[31.697872,40.076142,0],[31.697838,40.076103,0],[31.697818,40.076078,0],[31.697799,40.076052,0],[31.697799,40.076016,0],[31.697784,40.075984,0],[31.697784,40.075947,0],[31.697785,40.075911,0],[31.69776,40.075875,0],[31.697736,40.075857,0],[31.697672,40.075843,0],[31.697632,40.075828,0],[31.697583,40.07581,0],[31.697543,40.075795,0],[31.697494,40.075777,0],[31.697449,40.075752,0],[31.697429,40.075726,0],[31.697414,40.075693,0],[31.697409,40.075664,0],[31.697424,40.075624,0],[31.697439,40.075602,0],[31.697429,40.075562,0],[31.697439,40.07553,0],[31.697424,40.075497,0],[31.697385,40.075482,0],[31.69735,40.07546,0],[31.697265,40.07542,0],[31.697231,40.075398,0],[31.697211,40.075391,0],[31.697176,40.075369,0],[31.697126,40.07535,0],[31.697077,40.075332,0],[31.697022,40.075321,0],[31.696943,40.075292,0],[31.696894,40.075274,0],[31.69686,40.075253,0],[31.696826,40.075231,0],[31.696796,40.075202,0],[31.696772,40.075166,0],[31.696703,40.075141,0],[31.696693,40.075138,0],[31.696615,40.075109,0],[31.69655,40.075077,0],[31.696506,40.075051,0],[31.696467,40.075037,0],[31.696828,40.074941],[31.696314,40.075045,0],[31.69624,40.075045,0],[31.696177,40.07505,0],[31.696128,40.07505,0],[31.696089,40.075055,0],[31.696055,40.075051,0],[31.696045,40.075012,0],[31.695997,40.074994,0],[31.695943,40.074984,0],[31.695904,40.07497,0],[31.695845,40.074949,0],[31.695786,40.074928,0],[31.695708,40.0749,0],[31.695668,40.074885,0],[31.695629,40.074871,0],[31.695604,40.074853,0],[31.695584,40.07481,0],[31.69554,40.074803,0],[31.695496,40.074815,0],[31.695448,40.074815,0],[31.695389,40.074794,0],[31.695349,40.07478,0],[31.69531,40.074766,0],[31.695261,40.074749,0],[31.695231,40.074738,0],[31.695182,40.074721,0],[31.695133,40.074703,0],[31.695079,40.074693,0],[31.695034,40.074687,0],[31.694985,40.074687,0],[31.694941,40.074681,0],[31.694887,40.074689,0],[31.694838,40.07469,0],[31.694789,40.074691,0],[31.69473,40.074688,0],[31.694701,40.074677,0],[31.694651,40.07466,0],[31.69465,40.074623,0],[31.694649,40.074585,0],[31.694673,40.074548,0],[31.694642,40.074519,0],[31.694584,40.074535,0],[31.69453,40.074543,0],[31.694476,40.074551,0],[31.694437,40.074556,0],[31.694388,40.074575,0],[31.694344,40.074587,0],[31.694295,40.074607,0],[31.694257,40.07463,0],[31.694198,40.074646,0],[31.694159,40.074669,0],[31.69412,40.074692,0],[31.694092,40.074719,0],[31.694069,40.074756,0],[31.694055,40.074778,0],[31.694027,40.074822,0],[31.694023,40.074848,0],[31.694015,40.074881,0],[31.694006,40.074914,0],[31.694008,40.07495,0],[31.693999,40.074983,0],[31.694015,40.075016,0],[31.694002,40.075056,0],[31.694008,40.075085,0],[31.694034,40.07512,0],[31.694026,40.075153,0],[31.694018,40.075186,0],[31.693995,40.075222,0],[31.693946,40.075242,0],[31.693928,40.075271,0],[31.69388,40.07529,0],[31.693836,40.075302,0],[31.693783,40.075311,0],[31.693744,40.075315,0],[31.693705,40.07532,0],[31.69366,40.075314,0],[31.693625,40.075293,0],[31.693575,40.075276,0],[31.693515,40.075256,0],[31.693485,40.075245,0],[31.693508,40.075209,0],[31.693521,40.075168,0],[31.693539,40.075139,0],[31.693489,40.075122,0],[31.693434,40.075112,0],[31.693394,40.075098,0],[31.69335,40.075091,0],[31.693296,40.075081,0],[31.693241,40.075071,0],[31.693196,40.075064,0],[31.693136,40.075043,0],[31.693106,40.075033,0],[31.693057,40.075034,0],[31.693012,40.075027,0],[31.692948,40.075032,0],[31.69288,40.075044,0],[31.692835,40.075038,0],[31.692777,40.075054,0],[31.692738,40.075058,0],[31.692684,40.075066,0],[31.692635,40.075067,0],[31.692591,40.075079,0],[31.692538,40.075087,0],[31.692498,40.075091,0],[31.69244,40.075107,0],[31.69238,40.075105,0],[31.692336,40.075116,0],[31.692277,40.075114,0],[31.692233,40.075126,0],[31.692183,40.075127,0],[31.692129,40.075135,0],[31.692076,40.075143,0],[31.692045,40.075133,0],[31.691991,40.075141,0],[31.691936,40.075131,0],[31.6919,40.07511,0],[31.691854,40.075085,0],[31.691818,40.075064,0],[31.691776,40.075031,0],[31.691735,40.075017,0],[31.691699,40.074996,0],[31.691648,40.074978,0],[31.69162,40.074942,0],[31.691569,40.074924,0],[31.691524,40.074918,0],[31.691474,40.074919,0],[31.691424,40.07492,0],[31.691373,40.074921,0],[31.691323,40.074922,0],[31.691292,40.074911,0],[31.691275,40.074878,0],[31.691297,40.074841,0],[31.69131,40.074799,0],[31.691332,40.074762,0],[31.691355,40.074724,0],[31.691363,40.07469,0],[31.69136,40.074653,0],[31.691378,40.074623,0],[31.69137,40.074574,0],[31.691357,40.074533,0],[31.691335,40.074507,0],[31.691322,40.074466,0],[31.691305,40.074433,0],[31.691277,40.074396,0],[31.691249,40.074359,0],[31.691246,40.074321,0],[31.691197,40.074277,0],[31.69117,40.074239,0],[31.691137,40.07421,0],[31.691119,40.074176,0],[31.691072,40.07415,0],[31.691054,40.074116,0],[31.691017,40.074094,0],[31.690984,40.074065,0],[31.690956,40.074027,0],[31.690919,40.074005,0],[31.690877,40.073971,0],[31.69085,40.073952,0],[31.690814,40.07393,0],[31.690771,40.073896,0],[31.690735,40.073874,0],[31.690683,40.073856,0],[31.690646,40.073833,0],[31.690599,40.073807,0],[31.690557,40.073793,0],[31.690494,40.073771,0],[31.690441,40.073752,0],[31.690368,40.073726,0],[31.690336,40.073715,0],[31.690283,40.073697,0],[31.69022,40.073675,0],[31.690177,40.07366,0],[31.690135,40.073645,0],[31.690082,40.073627,0],[31.69003,40.073609,0],[31.689988,40.073594,0],[31.689946,40.073579,0],[31.689873,40.073553,0],[31.68982,40.073534,0],[31.689763,40.073524,0],[31.689711,40.073505,0],[31.689664,40.073498,0],[31.689601,40.073476,0],[31.689559,40.073461,0],[31.689501,40.07345,0],[31.689459,40.073435,0],[31.689416,40.07342,0],[31.689369,40.073413,0],[31.689313,40.073402,0],[31.689257,40.073392,0],[31.689206,40.073392,0],[31.689166,40.073377,0],[31.689115,40.073359,0],[31.689049,40.073344,0],[31.689008,40.073329,0],[31.688958,40.073311,0],[31.688902,40.0733,0],[31.688872,40.073289,0],[31.688796,40.073271,0],[31.688781,40.073275,0],[31.68871,40.073268,0],[31.688645,40.073253,0],[31.688579,40.073239,0],[31.688544,40.073236,0],[31.688473,40.073229,0],[31.688442,40.073218,0],[31.688387,40.073207,0],[31.688341,40.0732,0],[31.688306,40.073196,0],[31.688255,40.073197,0],[31.688214,40.073202,0],[31.688157,40.07321,0],[31.688117,40.073214,0],[31.688066,40.073215,0],[31.688005,40.073212,0],[31.687948,40.073221,0],[31.687922,40.073221,0],[31.687866,40.073229,0],[31.68781,40.073219,0],[31.687753,40.073227,0],[31.687712,40.073231,0],[31.687655,40.07324,0],[31.687583,40.073252,0],[31.687516,40.073257,0],[31.687454,40.073274,0],[31.687391,40.07329,0],[31.687345,40.073302,0],[31.687288,40.073311,0],[31.687241,40.073303,0],[31.687164,40.073304,0],[31.687128,40.073301,0],[31.687066,40.073298,0],[31.687004,40.073295,0],[31.686962,40.073299,0],[31.686916,40.073292,0],[31.686848,40.073297,0],[31.686811,40.073313,0],[31.68677,40.073317,0],[31.686707,40.073334,0],[31.68665,40.073342,0],[31.686618,40.07335,0],[31.686545,40.073363,0],[31.686494,40.073364,0],[31.686441,40.073384,0],[31.686384,40.073392,0],[31.686331,40.073413,0],[31.686274,40.073421,0],[31.686227,40.073433,0],[31.68617,40.073442,0],[31.686122,40.073454,0],[31.68607,40.073455,0],[31.686024,40.073467,0],[31.685967,40.073476,0],[31.68592,40.073488,0],[31.685857,40.073505,0],[31.685826,40.073513,0],[31.685779,40.073525,0],[31.685727,40.073545,0],[31.68567,40.073554,0],[31.685613,40.073563,0],[31.685561,40.073583,0],[31.685514,40.073595,0],[31.685477,40.073631,0],[31.68542,40.073639,0],[31.685383,40.073655,0],[31.685315,40.07368,0],[31.685294,40.073692,0],[31.685247,40.073704,0],[31.6852,40.073717,0],[31.685188,40.073791,0]]]},"properties":{"name":"Adsız Çokgen","styleUrl":"#msn_ylw-pushpin","fill-opacity":0.2,"fill":"rgba(0, 148, 255, 1)","stroke-opacity":1,"stroke":"rgba(0, 89, 128, 1)","icon-scale":1.1,"icon-offset":[20,2],"icon-offset-units":["pixels","pixels"],"icon":"http://maps.google.com/mapfiles/kml/pushpin/ylw-pushpin.png"}},{"type":"Feature","geometry":{"type":"LineString","coordinates":[[31.718587,40.134572,0],[31.716561,40.127287,0],[31.709982,40.12086,0],[31.70452,40.106171,0],[31.704405,40.105915,0],[31.703397,40.104999,0],[31.701851,40.105167,0],[31.702198,40.10334,0],[31.702113,40.098934,0],[31.697507,40.099011,0],[31.695414,40.098237,0],[31.695857,40.097508,0],[31.69375,40.096538,0],[31.692414,40.095789,0],[31.692408,40.095775,0],[31.69112,40.089665,0],[31.691274,40.08962,0],[31.688641,40.081607,0]]},"properties":{"name":"Adsız Yol","styleUrl":"#m_ylw-pushpin","icon-scale":1.1,"icon-offset":[20,2],"icon-offset-units":["pixels","pixels"],"icon":"http://maps.google.com/mapfiles/kml/pushpin/ylw-pushpin.png","stroke":"rgba(23, 0, 128, 1)"}}]}