{"type":"FeatureCollection","features":[{"type":"Feature","properties":{},"geometry":{"type":"Polygon","coordinates":[[[32.923208,40.002494],[32.924444,40.002651],[32.925063,40.002703],[32.925684,40.002703],[32.926511,40.002729],[32.927406,40.002782],[32.928441,40.002886],[32.929786,40.002965],[32.930338,40.002939],[32.930337,40.002494],[32.930471,40.001713],[32.930847,40.001376],[32.931222,40.001195],[32.931631,40.000937],[32.931903,40.000783],[32.932313,40.000834],[32.932757,40.000808],[32.932958,40.000551],[32.933158,40.000218],[32.93346,39.999963],[32.933965,39.999708],[32.934335,39.99953],[32.934142,40.000014],[32.934114,40.000346],[32.933987,40.000808],[32.933895,40.00135],[32.933905,40.001842],[32.93422,40.002128],[32.934671,40.002337],[32.934989,40.00265],[32.934995,40.002912],[32.935209,40.003732],[32.935293,40.004315],[32.935824,40.004661],[32.935832,40.004955],[32.934904,40.005478],[32.934879,40.005936],[32.934801,40.00656],[32.934691,40.007059],[32.934809,40.007537],[32.935069,40.008016],[32.935587,40.008584],[32.935876,40.008978],[32.936222,40.009285],[32.936627,40.009725],[32.93714,40.009593],[32.937281,40.009505],[32.937452,40.009439],[32.937793,40.009351],[32.937992,40.009329],[32.938163,40.009285],[32.938276,40.009241],[32.938474,40.009153],[32.938673,40.009066],[32.938898,40.008934],[32.939039,40.008825],[32.939873,40.008351],[32.940896,40.00802],[32.940706,40.008347],[32.940371,40.008587],[32.940091,40.008783],[32.93981,40.008958],[32.939417,40.009176],[32.938472,40.009967],[32.938794,40.010561],[32.939455,40.011515],[32.939751,40.012378],[32.940159,40.012779],[32.941166,40.013853],[32.942279,40.014381],[32.943337,40.01515],[32.944641,40.015685],[32.94522,40.015856],[32.945845,40.015993],[32.946294,40.016886],[32.946519,40.017437],[32.946387,40.017851],[32.946432,40.018196],[32.946031,40.018611],[32.945897,40.018992],[32.945629,40.019373],[32.945315,40.019686],[32.945226,40.020242],[32.945002,40.020555],[32.944395,40.021949],[32.943898,40.02237],[32.943234,40.0216],[32.94328,40.021042],[32.943507,40.019998],[32.943644,40.01913],[32.943913,40.018542],[32.944362,40.018093],[32.944049,40.017782],[32.943467,40.017748],[32.941981,40.01791],[32.941222,40.017703],[32.940331,40.017255],[32.939673,40.015985],[32.940408,40.015932],[32.940809,40.015932],[32.940945,40.015624],[32.940902,40.01535],[32.940547,40.015077],[32.939768,40.014799],[32.938749,40.014424],[32.937341,40.013991],[32.937547,40.013315],[32.937558,40.012704],[32.93738,40.012188],[32.936784,40.010988],[32.935758,40.010854],[32.935034,40.009868],[32.934352,40.009735],[32.933469,40.010267],[32.933498,40.009124],[32.93251,40.008145],[32.931899,40.006829],[32.931965,40.004791],[32.930451,40.004584],[32.930284,40.004116],[32.930186,40.003263],[32.926731,40.003159],[32.923208,40.002494]]]}}]}