{
  "type": "FeatureCollection",
  "features": [
    {
      "type": "Feature",
      "properties": {
        "fill-opacity": 0.2,
        "fill": "rgba(192, 101, 101, 1)",
        "stroke": "rgba(255, 255, 255, 1)",
        "stroke-opacity": 0.75,
        "stroke-width": 1
      },
      "geometry": {
        "type": "Polygon",
        "coordinates": [
          [
            [
              32.8378976,
              39.8539319
            ],
            [
              32.8390867,
              39.8493961
            ],
            [
              32.8396069,
              39.847228
            ],
            [
              32.8476437,
              39.851241
            ],
            [
              32.8509053,
              39.8557073
            ],
            [
              32.8539675,
              39.861996
            ],
            [
              32.8548239,
              39.8630529
            ],
            [
              32.8514332,
              39.8652372
            ],
            [
              32.8492982,
              39.8657015
            ],
            [
              32.8372754,
              39.8657081
            ],
            [
              32.8362821,
              39.8640139
            ],
            [
              32.8358958,
              39.8610065
            ],
            [
              32.8347922,
              39.8578296
            ],
            [
              32.8355095,
              39.856474
            ],
            [
              32.8378976,
              39.8539319
            ]
          ]
        ]
      }
    }
  ]
}