{"type":"FeatureCollection","features":[{"type":"Feature","properties":{"stroke":"rgba(177, 85, 0, 0.73)","stroke-width":2},"geometry":{"type":"LineString","coordinates":[[32.905116,39.889668],[32.911304,39.888058],[32.91084,39.887598],[32.91035,39.886426],[32.910132,39.886238],[32.909341,39.885862],[32.908905,39.885611],[32.908415,39.884502],[32.907679,39.88423],[32.906534,39.883979],[32.905126,39.883144],[32.904444,39.882684],[32.904063,39.882056],[32.903518,39.881701],[32.902782,39.881554],[32.902209,39.880948],[32.901283,39.880655],[32.900738,39.879944],[32.900547,39.87873],[32.900396,39.878065],[32.899987,39.877103],[32.899305,39.87658],[32.89876,39.875952],[32.898079,39.875115],[32.897261,39.874362],[32.896798,39.873735],[32.896389,39.873128],[32.895353,39.8725],[32.893718,39.871706],[32.892518,39.871308],[32.891619,39.87112],[32.890638,39.870932],[32.89012,39.870722],[32.88982,39.870492],[32.889193,39.869676],[32.887857,39.868588],[32.886794,39.868003],[32.887558,39.866998],[32.888212,39.866057],[32.888512,39.865994],[32.888757,39.865513],[32.888621,39.865074],[32.888075,39.864613],[32.88753,39.864446],[32.886903,39.864446],[32.886358,39.864655],[32.885895,39.864446],[32.885322,39.864488],[32.884586,39.86453],[32.882706,39.864404],[32.881633,39.864022],[32.88106,39.863374],[32.881772,39.86313],[32.881991,39.862607],[32.882181,39.862126],[32.882181,39.861519],[32.882013,39.860628],[32.881441,39.86],[32.880133,39.859456],[32.878933,39.859623],[32.878224,39.859623],[32.877352,39.859142],[32.876616,39.858619],[32.876207,39.858075],[32.876017,39.857405],[32.875335,39.856443],[32.874899,39.854999],[32.874525,39.853495],[32.873133,39.852449],[32.871649,39.851496],[32.871014,39.850567],[32.871165,39.850218],[32.871438,39.849079],[32.871498,39.847638],[32.871268,39.847326],[32.870543,39.847438],[32.870031,39.849341],[32.869475,39.850207],[32.868902,39.85084],[32.868877,39.851684],[32.869324,39.852646],[32.869271,39.853004],[32.869432,39.85343],[32.870417,39.853966],[32.871474,39.854186],[32.872782,39.854434],[32.873439,39.85467],[32.873766,39.855173],[32.873723,39.855625],[32.873548,39.855994],[32.873133,39.856614],[32.872544,39.857318],[32.872304,39.85777],[32.871823,39.859027],[32.869968,39.860435],[32.869357,39.861105],[32.869269,39.861708],[32.869946,39.862211],[32.871256,39.862697],[32.871561,39.863183],[32.872063,39.863468],[32.872937,39.863266],[32.873334,39.863357],[32.873858,39.863759],[32.873858,39.863893],[32.874229,39.863926],[32.874601,39.863725],[32.874862,39.863407],[32.875277,39.863407],[32.875692,39.863574],[32.875954,39.863591],[32.876109,39.863704],[32.876132,39.864154],[32.876281,39.864436],[32.876281,39.864639],[32.876281,39.864921],[32.876339,39.865168],[32.876442,39.865442],[32.87689,39.865406],[32.877252,39.865463],[32.877241,39.865639],[32.877138,39.865842],[32.877379,39.866018],[32.877494,39.866346],[32.877494,39.866549],[32.877411,39.866752],[32.877732,39.867149],[32.878008,39.867255],[32.878548,39.867026],[32.878686,39.866779],[32.87887,39.866982],[32.879168,39.866946],[32.879433,39.866744],[32.882509,39.867776],[32.883663,39.868017],[32.885376,39.868514],[32.886128,39.868849],[32.88653,39.869252],[32.88653,39.869856],[32.88689,39.87104],[32.886504,39.871464],[32.886194,39.871544],[32.88601,39.871746],[32.886183,39.871985],[32.886493,39.872452],[32.8867,39.872725],[32.886711,39.87291],[32.886987,39.873043],[32.88755,39.873166],[32.887768,39.873783],[32.887734,39.874065],[32.887826,39.874154],[32.88794,39.874215],[32.888297,39.874012],[32.888836,39.873766],[32.889009,39.873686],[32.889376,39.873757],[32.889859,39.873836],[32.890376,39.873845],[32.890744,39.873898],[32.891138,39.873704],[32.891431,39.873697],[32.891563,39.873647],[32.891723,39.873314],[32.89193,39.87327],[32.892383,39.873307],[32.892845,39.87348],[32.893184,39.87369],[32.894181,39.874815],[32.894325,39.875059],[32.894181,39.875451],[32.893974,39.876099],[32.893815,39.876784],[32.893903,39.877197],[32.893799,39.877448],[32.893655,39.877488],[32.893472,39.877638],[32.893589,39.87812],[32.893948,39.878468],[32.894301,39.878531],[32.894677,39.87864],[32.894842,39.878865],[32.895042,39.879263],[32.895219,39.879362],[32.895407,39.879335],[32.895548,39.879326],[32.896039,39.880468],[32.896039,39.880791],[32.895981,39.880991],[32.89601,39.881259],[32.896053,39.88137],[32.895792,39.881849],[32.895792,39.882083],[32.896097,39.882451],[32.896474,39.882585],[32.896997,39.882629],[32.897517,39.883007],[32.898098,39.883007],[32.898562,39.883196],[32.89946,39.883618],[32.899603,39.883874],[32.899746,39.883899],[32.900017,39.883911],[32.90032,39.88385],[32.900479,39.883776],[32.901929,39.884449],[32.903188,39.884975],[32.903777,39.885292],[32.904351,39.885769],[32.90502,39.886552],[32.905535,39.887657],[32.905566,39.88806],[32.905336,39.888682],[32.905116,39.889668]]}}]}