{
  "type": "FeatureCollection",
  "features": [
    {
      "type": "Feature",
      "properties": {},
      "geometry": {
        "type": "Polygon",
        "coordinates": [
          [
            [
              32.8314277,
              39.9299964
            ],
            [
              32.8472139,
              39.9272285
            ],
            [
              32.8666274,
              39.9096634
            ],
            [
              32.8515679,
              39.8949483
            ],
            [
              32.8338719,
              39.8937722
            ],
            [
              32.8181588,
              39.9092937
            ],
            [
              32.8188189,
              39.9261643
            ],
            [
              32.8314277,
              39.9299964
            ]
          ]
        ]
      }
    }
  ]
}