{
  "type": "FeatureCollection",
  "features": [
    {
      "type": "Feature",
      "properties": {
        "name": "Mimarlık Fakültesi A"
      },
      "geometry": {
        "type": "Polygon",
        "coordinates": [
          [
            [
              32.7812156,
              39.8979329
            ],
            [
              32.7815924,
              39.897972
            ],
            [
              32.7816447,
              39.8976829
            ],
            [
              32.7816233,
              39.8976808
            ],
            [
              32.7816314,
              39.8976355
            ],
            [
              32.7816621,
              39.8976387
            ],
            [
              32.7816595,
              39.8976551
            ],
            [
              32.7817963,
              39.8976695
            ],
            [
              32.7817668,
              39.8978362
            ],
            [
              32.781972,
              39.8978568
            ],
            [
              32.7820041,
              39.8976726
            ],
            [
              32.7819492,
              39.8976674
            ],
            [
              32.7820256,
              39.8972323
            ],
            [
              32.7818861,
              39.8972168
            ],
            [
              32.7819224,
              39.897011
            ],
            [
              32.7819666,
              39.8970152
            ],
            [
              32.7820149,
              39.8967415
            ],
            [
              32.7816636,
              39.8967054
            ],
            [
              32.7816138,
              39.8969925
            ],
            [
              32.7813967,
              39.8969699
            ],
            [
              32.7814235,
              39.8968217
            ],
            [
              32.7812491,
              39.8968032
            ],
            [
              32.7812344,
              39.8968845
            ],
            [
              32.7810896,
              39.896869
            ],
            [
              32.7810654,
              39.8970038
            ],
            [
              32.7812397,
              39.8970213
            ],
            [
              32.7812371,
              39.8970409
            ],
            [
              32.7811606,
              39.8970326
            ],
            [
              32.7811378,
              39.8971664
            ],
            [
              32.7813121,
              39.8971849
            ],
            [
              32.7813323,
              39.8970645
            ],
            [
              32.7813511,
              39.8970666
            ],
            [
              32.7813497,
              39.8970789
            ],
            [
              32.7815938,
              39.8971047
            ],
            [
              32.7815604,
              39.897296
            ],
            [
              32.7814357,
              39.8972827
            ],
            [
              32.7813806,
              39.8975934
            ],
            [
              32.781477,
              39.8976037
            ],
            [
              32.7814664,
              39.8976644
            ],
            [
              32.7812666,
              39.8976438
            ],
            [
              32.7812156,
              39.8979329
            ]
          ],
          [
            [
              32.7813632,
              39.8978341
            ],
            [
              32.7813792,
              39.8977416
            ],
            [
              32.7815013,
              39.897754
            ],
            [
              32.7814851,
              39.8978475
            ],
            [
              32.7813632,
              39.8978341
            ]
          ],
          [
            [
              32.7818365,
              39.8975666
            ],
            [
              32.781653,
              39.8975481
            ],
            [
              32.7816796,
              39.8973917
            ],
            [
              32.7818633,
              39.8974113
            ],
            [
              32.7818365,
              39.8975666
            ]
          ]
        ]
      }
    },
    {
      "type": "Feature",
      "properties": {
        "name": "Mimarlık Fakültesi B"
      },
      "geometry": {
        "type": "Polygon",
        "coordinates": [
          [
            [
              32.7809917,
              39.8967033
            ],
            [
              32.7813567,
              39.8967453
            ],
            [
              32.7814126,
              39.8964658
            ],
            [
              32.7810487,
              39.8964233
            ],
            [
              32.7809917,
              39.8967033
            ]
          ],
          [
            [
              32.7812437,
              39.8966283
            ],
            [
              32.7811459,
              39.896617
            ],
            [
              32.7811606,
              39.8965408
            ],
            [
              32.7812585,
              39.8965522
            ],
            [
              32.7812437,
              39.8966283
            ]
          ]
        ]
      }
    },
    {
      "type": "Feature",
      "properties": {
        "name": "Mimarlık Fakültesi C"
      },
      "geometry": {
        "type": "Polygon",
        "coordinates": [
          [
            [
              32.7821254,
              39.8969044
            ],
            [
              32.7824218,
              39.8969342
            ],
            [
              32.7824611,
              39.8967199
            ],
            [
              32.782418,
              39.8967141
            ],
            [
              32.7824238,
              39.8966889
            ],
            [
              32.7822131,
              39.8966664
            ],
            [
              32.7822093,
              39.8966919
            ],
            [
              32.7821664,
              39.8966869
            ],
            [
              32.7821254,
              39.8969044
            ]
          ]
        ]
      }
    },
    {
      "type": "Feature",
      "properties": {
        "name": "Mimarlık Fakültesi D"
      },
      "geometry": {
        "type": "Polygon",
        "coordinates": [
          [
            [
              32.7824235,
              39.8970253
            ],
            [
              32.7825821,
              39.8970429
            ],
            [
              32.7826063,
              39.8969092
            ],
            [
              32.7824481,
              39.8968928
            ],
            [
              32.7824235,
              39.8970253
            ]
          ]
        ]
      }
    }
  ]
}
