{"type":"FeatureCollection","features":[{"type":"Feature","properties":{"addr:housenumber":"32","building":"yes","osm_id":28471394},"geometry":{"type":"Polygon","coordinates":[[[32.8547828,39.8853681],[32.8548451,39.8852123],[32.8549048,39.8851837],[32.8550243,39.8852305],[32.854949,39.8853967],[32.8547828,39.8853681]]]}},{"type":"Feature","properties":{"addr:housenumber":"9","building":"yes","osm_id":28471711},"geometry":{"type":"Polygon","coordinates":[[[32.8574859,39.8678994],[32.8577071,39.8677602],[32.8575644,39.8675391],[32.8573593,39.8676675],[32.8574859,39.8678994]]]}},{"type":"Feature","properties":{"building":"yes","addr:housenumber":"29","osm_id":67502615},"geometry":{"type":"Polygon","coordinates":[[[32.8708841,39.8884656],[32.8710469,39.8882604],[32.8712761,39.8883718],[32.8710936,39.8885581],[32.8708841,39.8884656]]]}},{"type":"Feature","properties":{"addr:housenumber":"13","building":"yes","osm_id":67502943},"geometry":{"type":"Polygon","coordinates":[[[32.8523758,39.8833796],[32.8524824,39.8833754],[32.8525786,39.8833707],[32.8525562,39.8831501],[32.8523441,39.883154],[32.8523758,39.8833796]]]}},{"type":"Feature","properties":{"addr:housenumber":"9","building":"yes","osm_id":67502944},"geometry":{"type":"Polygon","coordinates":[[[32.8529048,39.8833764],[32.852907,39.8831532],[32.8531187,39.883157],[32.8531084,39.883372],[32.8529048,39.8833764]]]}},{"type":"Feature","properties":{"addr:housenumber":"11","building":"yes","osm_id":67502945},"geometry":{"type":"Polygon","coordinates":[[[32.8526371,39.883372],[32.8527385,39.8833729],[32.8528392,39.883373],[32.8528351,39.8831471],[32.8526164,39.8831543],[32.8526371,39.883372]]]}},{"type":"Feature","properties":{"building":"yes","addr:housenumber":"24","osm_id":67502946},"geometry":{"type":"Polygon","coordinates":[[[32.8524192,39.8836688],[32.8524012,39.8835122],[32.8526063,39.8835057],[32.8526254,39.8836628],[32.8524192,39.8836688]]]}},{"type":"Feature","properties":{"building":"yes","addr:housenumber":"20","osm_id":67502947},"geometry":{"type":"Polygon","coordinates":[[[32.8528961,39.8836667],[32.8529021,39.8834653],[32.8530996,39.8834669],[32.8530865,39.883665],[32.8528961,39.8836667]]]}},{"type":"Feature","properties":{"building":"yes","addr:housenumber":"22","osm_id":67502948},"geometry":{"type":"Polygon","coordinates":[[[32.8526516,39.883671],[32.8526424,39.8834631],[32.8528415,39.8834675],[32.8528404,39.883671],[32.8526516,39.883671]]]}},{"type":"Feature","properties":{"addr:housenumber":"7","building":"yes","osm_id":67502949},"geometry":{"type":"Polygon","coordinates":[[[32.8531307,39.8833682],[32.8531357,39.8831788],[32.8533468,39.883181],[32.8533468,39.8833654],[32.8531307,39.8833682]]]}},{"type":"Feature","properties":{"building":"yes","addr:housenumber":"18","osm_id":67502950},"geometry":{"type":"Polygon","coordinates":[[[32.8531155,39.8836683],[32.8533059,39.8836661],[32.8533457,39.8834708],[32.8531187,39.8834686],[32.8531155,39.8836683]]]}},{"type":"Feature","properties":{"addr:housenumber":"224","building":"yes","osm_id":67503268},"geometry":{"type":"Polygon","coordinates":[[[32.8544653,39.8849409],[32.8549022,39.8850437],[32.8549282,39.884968],[32.8544843,39.8848612],[32.8544653,39.8849409]]]}},{"type":"Feature","properties":{"building":"yes","osm_id":67522911},"geometry":{"type":"Polygon","coordinates":[[[32.8503127,39.8884125],[32.8505916,39.8885936],[32.8503878,39.8887747],[32.8500981,39.8886018],[32.8503127,39.8884125]]]}},{"type":"Feature","properties":{"building":"yes","osm_id":69074236},"geometry":{"type":"Polygon","coordinates":[[[32.8496667,39.8878367],[32.8498437,39.8878614],[32.8499885,39.8879808],[32.8500261,39.8881125],[32.8500046,39.8881372],[32.8498491,39.8881166],[32.8498008,39.8880837],[32.8496184,39.8882484],[32.8495057,39.8881743],[32.8497096,39.8880179],[32.8496613,39.887989],[32.8496238,39.8878738],[32.8496667,39.8878367]]]}},{"type":"Feature","properties":{"name":"T.C. Cumhurbaşkanlığı Köşkü","building":"yes","osm_id":71882045},"geometry":{"type":"Polygon","coordinates":[[[32.8661998,39.8869676],[32.8658989,39.8872916],[32.8656994,39.8871826],[32.8655893,39.8873011],[32.8654125,39.8872044],[32.865527,39.8870812],[32.865791,39.8867969],[32.8653492,39.8865554],[32.8649952,39.8869367],[32.8651881,39.8870422],[32.8649852,39.8872607],[32.8651372,39.8873438],[32.8650549,39.8874325],[32.8651322,39.8874747],[32.8650466,39.8875669],[32.8652393,39.8876722],[32.8652959,39.8876113],[32.8653791,39.8876567],[32.8654325,39.8875992],[32.8656232,39.8877034],[32.8657652,39.8875504],[32.8659803,39.887668],[32.8664856,39.8871239],[32.8661998,39.8869676]]]}},{"type":"Feature","properties":{"building":"yes","osm_id":90285309},"geometry":{"type":"Polygon","coordinates":[[[32.8729605,39.8887517],[32.8727218,39.888622],[32.8729605,39.8883771],[32.8731879,39.8885095],[32.8729605,39.8887517]]]}}]}