{"type":"FeatureCollection","features":[{"type":"Feature","properties":{"addr:housenumber":"9","building":"yes","osm_id":28471711},"geometry":{"type":"Polygon","coordinates":[[[32.8574859,39.8678994],[32.8577071,39.8677602],[32.8575644,39.8675391],[32.8573593,39.8676675],[32.8574859,39.8678994]]]}},{"type":"Feature","properties":{"name":"Meral Apt.","addr:housename":"Meral Apt.","addr:housenumber":"46","addr:postcode":"06550","addr:street":"Aleksander Dubçek Cad.","building":"apartments","osm_id":171229275},"geometry":{"type":"Polygon","coordinates":[[[32.8513096,39.8686786],[32.8512117,39.8688478],[32.8515014,39.8689343],[32.8516047,39.8687692],[32.8513096,39.8686786]]]}},{"type":"Feature","properties":{"addr:housename":"Ulutepe Apt.","addr:housenumber":"10","addr:postcode":"06550","addr:street":"639. Cad.","building":"apartments","name":"Ulutepe Apt.","osm_id":171229477},"geometry":{"type":"Polygon","coordinates":[[[32.8447946,39.8532988],[32.844741,39.8531197],[32.8448671,39.8531053],[32.8449073,39.8532865],[32.8447946,39.8532988]]]}},{"type":"Feature","properties":{"name":"Akın 1 Apartmanı","building":"yes","osm_id":172146552},"geometry":{"type":"Polygon","coordinates":[[[32.8257323,39.8476157],[32.825786,39.8473933],[32.8261239,39.847451],[32.8260663,39.8476841],[32.8257323,39.8476157]]]}},{"type":"Feature","properties":{"building":"yes","name":"Akın 2 Apartmanı","osm_id":172146554},"geometry":{"type":"Polygon","coordinates":[[[32.8272451,39.8471792],[32.8271056,39.8469897],[32.8274597,39.8468414],[32.8275898,39.8470581],[32.8272451,39.8471792]]]}},{"type":"Feature","properties":{"building":"yes","name":"Akın 4 Apartmanı","osm_id":172146837},"geometry":{"type":"Polygon","coordinates":[[[32.8259898,39.8468867],[32.8261186,39.846689],[32.8259,39.8465721],[32.8257283,39.8467904],[32.8259898,39.8468867]]]}},{"type":"Feature","properties":{"building":"yes","name":"Akın 3 Apartmanı","osm_id":172146838},"geometry":{"type":"Polygon","coordinates":[[[32.8264619,39.847138],[32.8266228,39.8469403],[32.8263439,39.8467755],[32.8261575,39.8470169],[32.8264619,39.847138]]]}},{"type":"Feature","properties":{"addr:housename":"Guzelbeyli Apt.","name":"Guzelbeyli Apt.","addr:housenumber":"30","addr:street":"665. Sk","building":"residential","osm_id":217527647},"geometry":{"type":"Polygon","coordinates":[[[32.8503514,39.8673015],[32.8506183,39.8674343],[32.850779,39.8675115],[32.8509082,39.8675963],[32.8510655,39.867392],[32.8506028,39.8670681],[32.8503978,39.8672405],[32.8503514,39.8673015]]]}},{"type":"Feature","properties":{"building":"yes","source":"Bing","osm_id":229143936},"geometry":{"type":"Polygon","coordinates":[[[32.8456389,39.8729945],[32.8457607,39.8730407],[32.8458984,39.8728268],[32.8457766,39.8727807],[32.8456389,39.8729945]]]}},{"type":"Feature","properties":{"building":"yes","source":"Bing","osm_id":229143959},"geometry":{"type":"Polygon","coordinates":[[[32.8457984,39.8730551],[32.8459306,39.8731057],[32.8460707,39.87289],[32.8459385,39.8728394],[32.8457984,39.8730551]]]}},{"type":"Feature","properties":{"building":"yes","source":"Bing","osm_id":229143980},"geometry":{"type":"Polygon","coordinates":[[[32.846288,39.8732619],[32.8464292,39.873333],[32.8465951,39.8731389],[32.846454,39.8730678],[32.846288,39.8732619]]]}},{"type":"Feature","properties":{"building":"yes","source":"Bing","osm_id":229144135},"geometry":{"type":"Polygon","coordinates":[[[32.8464411,39.873341],[32.8465574,39.8734121],[32.8467587,39.873218],[32.8466424,39.873147],[32.8464411,39.873341]]]}},{"type":"Feature","properties":{"building":"yes","source":"Bing","osm_id":229144147},"geometry":{"type":"Polygon","coordinates":[[[32.8466021,39.8734152],[32.8467237,39.8734923],[32.8469154,39.8733143],[32.8467938,39.8732372],[32.8466021,39.8734152]]]}},{"type":"Feature","properties":{"building":"yes","source":"Bing","osm_id":229144154},"geometry":{"type":"Polygon","coordinates":[[[32.8444575,39.8725881],[32.8445718,39.8726297],[32.8447039,39.8724155],[32.8445896,39.872374],[32.8444575,39.8725881]]]}},{"type":"Feature","properties":{"building":"yes","source":"Bing","osm_id":229144160},"geometry":{"type":"Polygon","coordinates":[[[32.8467455,39.8735129],[32.8468602,39.8735947],[32.8470744,39.873418],[32.8469597,39.8733361],[32.8467455,39.8735129]]]}},{"type":"Feature","properties":{"building":"yes","source":"Bing","osm_id":229144170},"geometry":{"type":"Polygon","coordinates":[[[32.8441342,39.872475],[32.8443696,39.8725591],[32.8445,39.872344],[32.8442647,39.8722599],[32.8441342,39.872475]]]}},{"type":"Feature","properties":{"building":"yes","source":"Bing","osm_id":229144173},"geometry":{"type":"Polygon","coordinates":[[[32.8468953,39.873613],[32.8470267,39.8737109],[32.8472378,39.873544],[32.8471063,39.8734461],[32.8468953,39.873613]]]}},{"type":"Feature","properties":{"building":"yes","source":"Bing","osm_id":229144183},"geometry":{"type":"Polygon","coordinates":[[[32.8454803,39.872942],[32.8455961,39.8729811],[32.8457241,39.872758],[32.8456083,39.8727189],[32.8454803,39.872942]]]}},{"type":"Feature","properties":{"building":"yes","source":"Bing","osm_id":229144185},"geometry":{"type":"Polygon","coordinates":[[[32.8470531,39.8737354],[32.8471823,39.873839],[32.847403,39.8736771],[32.8472738,39.8735734],[32.8470531,39.8737354]]]}},{"type":"Feature","properties":{"building":"yes","source":"Bing","osm_id":229378099},"geometry":{"type":"Polygon","coordinates":[[[32.8338612,39.87351],[32.8340176,39.8734606],[32.8339069,39.8732543],[32.833753,39.8733084],[32.8338612,39.87351]]]}},{"type":"Feature","properties":{"building":"yes","source":"Bing","osm_id":229378100},"geometry":{"type":"Polygon","coordinates":[[[32.83206,39.8736444],[32.8323422,39.8738264],[32.8325324,39.8736528],[32.8322502,39.8734708],[32.83206,39.8736444]]]}},{"type":"Feature","properties":{"building":"yes","source":"Bing","osm_id":229378101},"geometry":{"type":"Polygon","coordinates":[[[32.834882,39.8720116],[32.8350062,39.8721141],[32.8351959,39.8719788],[32.8350718,39.8718763],[32.834882,39.8720116]]]}},{"type":"Feature","properties":{"building":"yes","source":"Bing","osm_id":229378103},"geometry":{"type":"Polygon","coordinates":[[[32.8328538,39.8726398],[32.832979,39.8727266],[32.8331246,39.8726029],[32.8329994,39.8725161],[32.8328538,39.8726398]]]}},{"type":"Feature","properties":{"building":"yes","source":"Bing","osm_id":229378104},"geometry":{"type":"Polygon","coordinates":[[[32.8331566,39.8720625],[32.8333134,39.8721916],[32.8335104,39.8720507],[32.8333536,39.8719216],[32.8331566,39.8720625]]]}},{"type":"Feature","properties":{"building":"yes","source":"Bing","osm_id":229378107},"geometry":{"type":"Polygon","coordinates":[[[32.8333713,39.8722772],[32.8335224,39.8723877],[32.8336707,39.8722682],[32.8335197,39.8721577],[32.8333713,39.8722772]]]}},{"type":"Feature","properties":{"building":"yes","source":"Bing","osm_id":229378111},"geometry":{"type":"Polygon","coordinates":[[[32.8330913,39.8724518],[32.8331811,39.8725375],[32.8333394,39.8724398],[32.8332496,39.8723541],[32.8330913,39.8724518]]]}},{"type":"Feature","properties":{"building":"yes","source":"Bing","osm_id":229378112},"geometry":{"type":"Polygon","coordinates":[[[32.8336413,39.8720784],[32.8337953,39.8721975],[32.8339534,39.8720771],[32.8337994,39.871958],[32.8336413,39.8720784]]]}},{"type":"Feature","properties":{"building":"yes","source":"Bing","osm_id":229378118},"geometry":{"type":"Polygon","coordinates":[[[32.8332246,39.8729371],[32.8333887,39.8730416],[32.8334931,39.872945],[32.8333289,39.8728405],[32.8332246,39.8729371]]]}},{"type":"Feature","properties":{"building":"yes","source":"Bing","osm_id":229378120},"geometry":{"type":"Polygon","coordinates":[[[32.8335537,39.8724275],[32.8337131,39.8725601],[32.8339174,39.8724154],[32.8337581,39.8722828],[32.8335537,39.8724275]]]}},{"type":"Feature","properties":{"building":"yes","source":"Bing","osm_id":229378121},"geometry":{"type":"Polygon","coordinates":[[[32.8352048,39.8737044],[32.8354614,39.8738752],[32.8356147,39.8737395],[32.8353581,39.8735687],[32.8352048,39.8737044]]]}},{"type":"Feature","properties":{"building":"yes","source":"Bing","osm_id":229378123},"geometry":{"type":"Polygon","coordinates":[[[32.8335667,39.8728757],[32.8338014,39.8730782],[32.8339293,39.872991],[32.8336946,39.8727885],[32.8335667,39.8728757]]]}},{"type":"Feature","properties":{"building":"yes","source":"Bing","osm_id":229378138},"geometry":{"type":"Polygon","coordinates":[[[32.8350942,39.8726177],[32.835245,39.872725],[32.8354052,39.8725925],[32.8352544,39.8724851],[32.8350942,39.8726177]]]}},{"type":"Feature","properties":{"building":"yes","source":"Bing","osm_id":229378144},"geometry":{"type":"Polygon","coordinates":[[[32.8344078,39.8720741],[32.834546,39.8721809],[32.8347418,39.8720315],[32.8346036,39.8719248],[32.8344078,39.8720741]]]}},{"type":"Feature","properties":{"building":"yes","source":"Bing","osm_id":229378148},"geometry":{"type":"Polygon","coordinates":[[[32.8345464,39.8717446],[32.8346848,39.8718543],[32.8348806,39.8717087],[32.8347422,39.871599],[32.8345464,39.8717446]]]}},{"type":"Feature","properties":{"building":"yes","source":"Bing","osm_id":229378151},"geometry":{"type":"Polygon","coordinates":[[[32.8342669,39.8730885],[32.8344895,39.8732649],[32.8347047,39.8731049],[32.8344822,39.8729285],[32.8342669,39.8730885]]]}},{"type":"Feature","properties":{"building":"yes","source":"Bing","osm_id":229378153},"geometry":{"type":"Polygon","coordinates":[[[32.833933,39.8731311],[32.8340728,39.8731778],[32.8341123,39.873108],[32.8339725,39.8730614],[32.833933,39.8731311]]]}},{"type":"Feature","properties":{"building":"yes","source":"Bing","osm_id":229378158},"geometry":{"type":"Polygon","coordinates":[[[32.8339159,39.8736724],[32.8341227,39.8736276],[32.8340726,39.8734916],[32.8338659,39.8735364],[32.8339159,39.8736724]]]}},{"type":"Feature","properties":{"building":"yes","source":"Bing","osm_id":229378159},"geometry":{"type":"Polygon","coordinates":[[[32.8349042,39.8730894],[32.8351182,39.8732602],[32.8353309,39.8731032],[32.8351169,39.8729324],[32.8349042,39.8730894]]]}},{"type":"Feature","properties":{"building":"yes","source":"Bing","osm_id":229378162},"geometry":{"type":"Polygon","coordinates":[[[32.8329945,39.872771],[32.8331966,39.8729024],[32.8333121,39.8727977],[32.83311,39.8726664],[32.8329945,39.872771]]]}},{"type":"Feature","properties":{"building":"yes","source":"Bing","osm_id":229378166},"geometry":{"type":"Polygon","coordinates":[[[32.8343898,39.8726731],[32.8345904,39.8728262],[32.8347899,39.8726722],[32.8345892,39.8725191],[32.8343898,39.8726731]]]}},{"type":"Feature","properties":{"building":"yes","source":"Bing","osm_id":229378169},"geometry":{"type":"Polygon","coordinates":[[[32.8359722,39.8737903],[32.8361138,39.8738722],[32.8362925,39.8736902],[32.836151,39.8736083],[32.8359722,39.8737903]]]}},{"type":"Feature","properties":{"building":"yes","source":"Bing","osm_id":229378173},"geometry":{"type":"Polygon","coordinates":[[[32.8332301,39.8725779],[32.8334107,39.8727283],[32.8335584,39.872624],[32.8333778,39.8724735],[32.8332301,39.8725779]]]}},{"type":"Feature","properties":{"building":"yes","source":"Bing","osm_id":229378181},"geometry":{"type":"Polygon","coordinates":[[[32.8366298,39.8728161],[32.8368861,39.8729547],[32.8370219,39.8728067],[32.8367657,39.8726681],[32.8366298,39.8728161]]]}},{"type":"Feature","properties":{"building":"yes","source":"Bing","osm_id":229378184},"geometry":{"type":"Polygon","coordinates":[[[32.8392538,39.8735297],[32.8393852,39.8737416],[32.8395496,39.8736815],[32.8394182,39.8734697],[32.8392538,39.8735297]]]}},{"type":"Feature","properties":{"building":"yes","source":"Bing","osm_id":229378185},"geometry":{"type":"Polygon","coordinates":[[[32.8352019,39.8722776],[32.835332,39.8723824],[32.8355144,39.8722489],[32.8353843,39.8721441],[32.8352019,39.8722776]]]}},{"type":"Feature","properties":{"building":"yes","source":"Bing","osm_id":229378188},"geometry":{"type":"Polygon","coordinates":[[[32.8388914,39.8736501],[32.8389863,39.8738722],[32.8391437,39.8738326],[32.8390488,39.8736105],[32.8388914,39.8736501]]]}},{"type":"Feature","properties":{"building":"yes","source":"Bing","osm_id":229378195},"geometry":{"type":"Polygon","coordinates":[[[32.8352766,39.8727595],[32.8354323,39.8728781],[32.8356122,39.8727389],[32.8354565,39.8726204],[32.8352766,39.8727595]]]}},{"type":"Feature","properties":{"building":"yes","source":"Bing","osm_id":229378199},"geometry":{"type":"Polygon","coordinates":[[[32.83547,39.8729061],[32.8356536,39.872753],[32.8358385,39.8728893],[32.8356135,39.8730115],[32.83547,39.8729061]]]}},{"type":"Feature","properties":{"building":"yes","source":"Bing","osm_id":229378200},"geometry":{"type":"Polygon","coordinates":[[[32.8342314,39.8719397],[32.834379,39.8720586],[32.834587,39.8719064],[32.8344394,39.8717876],[32.8342314,39.8719397]]]}},{"type":"Feature","properties":{"building":"yes","source":"Bing","osm_id":229378203},"geometry":{"type":"Polygon","coordinates":[[[32.8322498,39.8733756],[32.832572,39.8735922],[32.8327609,39.8734266],[32.8324386,39.8732101],[32.8322498,39.8733756]]]}},{"type":"Feature","properties":{"building":"yes","source":"Bing","osm_id":229378204},"geometry":{"type":"Polygon","coordinates":[[[32.8347215,39.8718744],[32.8348515,39.8719805],[32.835034,39.8718489],[32.8349039,39.8717428],[32.8347215,39.8718744]]]}},{"type":"Feature","properties":{"building":"yes","source":"Bing","osm_id":229378207},"geometry":{"type":"Polygon","coordinates":[[[32.8340541,39.8729121],[32.8342475,39.8730642],[32.8344525,39.8729107],[32.8342591,39.8727586],[32.8340541,39.8729121]]]}},{"type":"Feature","properties":{"building":"yes","source":"Bing","osm_id":229378210},"geometry":{"type":"Polygon","coordinates":[[[32.8328607,39.8722711],[32.833014,39.8723915],[32.8331617,39.8722807],[32.8330085,39.8721603],[32.8328607,39.8722711]]]}},{"type":"Feature","properties":{"building":"yes","source":"Bing","osm_id":229378214},"geometry":{"type":"Polygon","coordinates":[[[32.8338249,39.8722725],[32.8339813,39.8723966],[32.8341686,39.8722575],[32.8340122,39.8721335],[32.8338249,39.8722725]]]}},{"type":"Feature","properties":{"building":"yes","source":"Bing","osm_id":229378216},"geometry":{"type":"Polygon","coordinates":[[[32.8326876,39.873273],[32.8328513,39.873387],[32.8330666,39.873205],[32.8329028,39.8730909],[32.8326876,39.873273]]]}},{"type":"Feature","properties":{"building":"yes","source":"Bing","osm_id":229378217},"geometry":{"type":"Polygon","coordinates":[[[32.8346208,39.8728505],[32.8348458,39.8730278],[32.8350395,39.8728831],[32.8348145,39.8727057],[32.8346208,39.8728505]]]}},{"type":"Feature","properties":{"building":"yes","source":"Bing","osm_id":229378224},"geometry":{"type":"Polygon","coordinates":[[[32.834134,39.8724816],[32.8343542,39.8726492],[32.8345717,39.872481],[32.8343515,39.8723133],[32.834134,39.8724816]]]}},{"type":"Feature","properties":{"building":"yes","source":"Bing","osm_id":229378226},"geometry":{"type":"Polygon","coordinates":[[[32.8354225,39.8734431],[32.8356901,39.8736241],[32.8358466,39.8734879],[32.8355791,39.8733068],[32.8354225,39.8734431]]]}},{"type":"Feature","properties":{"building":"yes","source":"Bing","osm_id":229378227},"geometry":{"type":"Polygon","coordinates":[[[32.8332725,39.8737733],[32.8335391,39.8737034],[32.8334677,39.8735429],[32.833232,39.873663],[32.8332725,39.8737733]]]}},{"type":"Feature","properties":{"building":"yes","source":"Bing","osm_id":229378228},"geometry":{"type":"Polygon","coordinates":[[[32.833424,39.8730705],[32.8336526,39.8732143],[32.8337601,39.8731136],[32.8335315,39.8729699],[32.833424,39.8730705]]]}},{"type":"Feature","properties":{"building":"yes","source":"Bing","osm_id":229378229},"geometry":{"type":"Polygon","coordinates":[[[32.8338084,39.8726955],[32.8340298,39.8728747],[32.8342325,39.8727273],[32.8340111,39.8725481],[32.8338084,39.8726955]]]}},{"type":"Feature","properties":{"building":"yes","source":"Bing","osm_id":229378231},"geometry":{"type":"Polygon","coordinates":[[[32.8326312,39.8724681],[32.8328173,39.8726081],[32.8329756,39.8724842],[32.8327895,39.8723442],[32.8326312,39.8724681]]]}},{"type":"Feature","properties":{"building":"yes","source":"Bing","osm_id":229378236},"geometry":{"type":"Polygon","coordinates":[[[32.8350256,39.8721441],[32.8351536,39.8722509],[32.8353519,39.8721109],[32.8352238,39.8720041],[32.8350256,39.8721441]]]}},{"type":"Feature","properties":{"building":"yes","source":"Bing","osm_id":229378242},"geometry":{"type":"Polygon","coordinates":[[[32.8390848,39.8736053],[32.8391954,39.8738218],[32.8393377,39.873779],[32.8392149,39.8735662],[32.8390848,39.8736053]]]}},{"type":"Feature","properties":{"building":"yes","source":"Bing","osm_id":229378243},"geometry":{"type":"Polygon","coordinates":[[[32.8353758,39.8724064],[32.8356312,39.8726155],[32.8358025,39.8724922],[32.8355471,39.8722831],[32.8353758,39.8724064]]]}},{"type":"Feature","properties":{"building":"yes","source":"Bing","osm_id":229378245},"geometry":{"type":"Polygon","coordinates":[[[32.8365135,39.8732039],[32.8366984,39.8730489],[32.8369209,39.8731665],[32.8367799,39.8733485],[32.8365135,39.8732039]]]}},{"type":"Feature","properties":{"source":"Bing","building":"yes","osm_id":229378247},"geometry":{"type":"Polygon","coordinates":[[[32.8345744,39.8722039],[32.834718,39.8723182],[32.8349211,39.8721679],[32.8347775,39.8720536],[32.8345744,39.8722039]]]}},{"type":"Feature","properties":{"building":"yes","source":"Bing","osm_id":229378257},"geometry":{"type":"Polygon","coordinates":[[[32.8362506,39.8730615],[32.8364178,39.8728923],[32.8366586,39.873015],[32.8364557,39.8731721],[32.8362506,39.8730615]]]}},{"type":"Feature","properties":{"building":"yes","source":"Bing","osm_id":229378259},"geometry":{"type":"Polygon","coordinates":[[[32.8345539,39.8732742],[32.8347485,39.8734422],[32.8349575,39.8732996],[32.834763,39.8731316],[32.8345539,39.8732742]]]}},{"type":"Feature","properties":{"building":"yes","source":"Bing","osm_id":229378263},"geometry":{"type":"Polygon","coordinates":[[[32.8340692,39.8732431],[32.8342042,39.8732674],[32.834229,39.873186],[32.834094,39.8731617],[32.8340692,39.8732431]]]}},{"type":"Feature","properties":{"building":"yes","source":"Bing","osm_id":229378265},"geometry":{"type":"Polygon","coordinates":[[[32.8334193,39.8718768],[32.8335694,39.8719879],[32.8337689,39.8718293],[32.8336394,39.871734],[32.8335932,39.8717358],[32.8334193,39.8718768]]]}},{"type":"Feature","properties":{"building":"yes","source":"Bing","osm_id":229378268},"geometry":{"type":"Polygon","coordinates":[[[32.833927,39.8736978],[32.8339759,39.8738485],[32.8340838,39.8738227],[32.8342447,39.8737356],[32.8342152,39.8736427],[32.833927,39.8736978]]]}},{"type":"Feature","properties":{"building":"yes","source":"Bing","osm_id":229378270},"geometry":{"type":"Polygon","coordinates":[[[32.8326256,39.8732235],[32.8328445,39.8730275],[32.8325714,39.8728479],[32.8324918,39.8729211],[32.8325076,39.8729379],[32.8324687,39.872964],[32.832417,39.8730747],[32.8326256,39.8732235]]]}},{"type":"Feature","properties":{"building":"yes","source":"Bing","osm_id":229379586},"geometry":{"type":"Polygon","coordinates":[[[32.8399415,39.8720464],[32.8399167,39.8720581],[32.8400392,39.87221],[32.8400689,39.8721959],[32.8400789,39.8722083],[32.8402753,39.872115],[32.8402687,39.8721069],[32.8402915,39.8720961],[32.8401672,39.8719421],[32.8401404,39.8719549],[32.8401305,39.8719427],[32.8399334,39.8720364],[32.8399415,39.8720464]]]}},{"type":"Feature","properties":{"building":"yes","source":"Bing","osm_id":229379587},"geometry":{"type":"Polygon","coordinates":[[[32.8404936,39.8718149],[32.8404688,39.8718267],[32.8405913,39.8719786],[32.840621,39.8719645],[32.840631,39.8719769],[32.8408274,39.8718835],[32.8408209,39.8718754],[32.8408436,39.8718646],[32.8407194,39.8717106],[32.8406925,39.8717234],[32.8406827,39.8717112],[32.8404856,39.8718049],[32.8404936,39.8718149]]]}},{"type":"Feature","properties":{"building":"yes","source":"Bing","osm_id":229379588},"geometry":{"type":"Polygon","coordinates":[[[32.8405483,39.8721715],[32.8405235,39.8721833],[32.840646,39.8723352],[32.8406757,39.8723211],[32.8406857,39.8723335],[32.8408821,39.8722402],[32.8408755,39.872232],[32.8408983,39.8722212],[32.8407741,39.8720672],[32.8407472,39.87208],[32.8407373,39.8720679],[32.8405402,39.8721615],[32.8405483,39.8721715]]]}},{"type":"Feature","properties":{"building":"yes","source":"Bing","osm_id":229379593},"geometry":{"type":"Polygon","coordinates":[[[32.8388902,39.8716123],[32.8390381,39.871809],[32.8391804,39.8717459],[32.8390325,39.8715492],[32.8388902,39.8716123]]]}},{"type":"Feature","properties":{"building":"yes","source":"Bing","osm_id":229379594},"geometry":{"type":"Polygon","coordinates":[[[32.842486,39.8721533],[32.8426282,39.8723557],[32.8428605,39.8722596],[32.8427183,39.8720572],[32.842486,39.8721533]]]}},{"type":"Feature","properties":{"building":"yes","source":"Bing","osm_id":229379595},"geometry":{"type":"Polygon","coordinates":[[[32.8401574,39.8723136],[32.8403036,39.872505],[32.8404581,39.8724355],[32.8403119,39.8722441],[32.8401574,39.8723136]]]}},{"type":"Feature","properties":{"building":"yes","source":"Bing","osm_id":229379597},"geometry":{"type":"Polygon","coordinates":[[[32.8389342,39.8724325],[32.839091,39.872636],[32.8392605,39.872559],[32.8391036,39.8723555],[32.8389342,39.8724325]]]}},{"type":"Feature","properties":{"building":"yes","source":"Bing","osm_id":229379598},"geometry":{"type":"Polygon","coordinates":[[[32.8408117,39.8724812],[32.8409596,39.8726871],[32.8411224,39.8726182],[32.8409745,39.8724123],[32.8408117,39.8724812]]]}},{"type":"Feature","properties":{"building":"yes","source":"Bing","osm_id":229379599},"geometry":{"type":"Polygon","coordinates":[[[32.8417171,39.8712442],[32.8418752,39.8714467],[32.8420186,39.8713808],[32.8418605,39.8711783],[32.8417171,39.8712442]]]}},{"type":"Feature","properties":{"building":"yes","source":"Bing","osm_id":229379600},"geometry":{"type":"Polygon","coordinates":[[[32.839993,39.8732296],[32.840153,39.8734276],[32.8403009,39.8733572],[32.840141,39.8731592],[32.839993,39.8732296]]]}},{"type":"Feature","properties":{"building":"yes","source":"Bing","osm_id":229379601},"geometry":{"type":"Polygon","coordinates":[[[32.8390881,39.8731803],[32.8392109,39.8733922],[32.8393512,39.8733442],[32.8392284,39.8731324],[32.8390881,39.8731803]]]}},{"type":"Feature","properties":{"building":"yes","source":"Bing","osm_id":229379602},"geometry":{"type":"Polygon","coordinates":[[[32.8404058,39.8726475],[32.840564,39.8728521],[32.8407212,39.8727805],[32.840563,39.8725759],[32.8404058,39.8726475]]]}},{"type":"Feature","properties":{"building":"yes","source":"Bing","osm_id":229379603},"geometry":{"type":"Polygon","coordinates":[[[32.8395579,39.8730145],[32.8394195,39.8730773],[32.8395554,39.8732845],[32.839723,39.8732111],[32.8395579,39.8730145]]]}},{"type":"Feature","properties":{"building":"yes","source":"Bing","osm_id":229379604},"geometry":{"type":"Polygon","coordinates":[[[32.8413511,39.8713954],[32.8415043,39.8716054],[32.8416479,39.8715437],[32.8414947,39.8713337],[32.8413511,39.8713954]]]}},{"type":"Feature","properties":{"building":"yes","source":"Bing","osm_id":229379605},"geometry":{"type":"Polygon","coordinates":[[[32.8421209,39.8714626],[32.8422668,39.8716642],[32.8424234,39.8715902],[32.8422812,39.8713942],[32.8421209,39.8714626]]]}},{"type":"Feature","properties":{"building":"yes","source":"Bing","osm_id":229379606},"geometry":{"type":"Polygon","coordinates":[[[32.838688,39.8732951],[32.838795,39.8735107],[32.8389432,39.8734674],[32.8388361,39.8732518],[32.838688,39.8732951]]]}},{"type":"Feature","properties":{"building":"yes","source":"Bing","osm_id":229379607},"geometry":{"type":"Polygon","coordinates":[[[32.8398648,39.8715834],[32.8400205,39.8717859],[32.8401661,39.87172],[32.8400105,39.8715175],[32.8398648,39.8715834]]]}},{"type":"Feature","properties":{"building":"yes","source":"Bing","osm_id":229379609},"geometry":{"type":"Polygon","coordinates":[[[32.8418439,39.8724277],[32.8419983,39.8726256],[32.8421382,39.8725613],[32.8419838,39.8723634],[32.8418439,39.8724277]]]}},{"type":"Feature","properties":{"building":"yes","source":"Bing","osm_id":229379611},"geometry":{"type":"Polygon","coordinates":[[[32.8416468,39.8721253],[32.8417964,39.872325],[32.8419223,39.8722695],[32.8417727,39.8720698],[32.8416468,39.8721253]]]}},{"type":"Feature","properties":{"building":"yes","source":"Bing","osm_id":229379612},"geometry":{"type":"Polygon","coordinates":[[[32.8416626,39.8725108],[32.8418183,39.8727087],[32.8419522,39.8726466],[32.8417966,39.8724487],[32.8416626,39.8725108]]]}},{"type":"Feature","properties":{"building":"yes","source":"Bing","osm_id":229379613},"geometry":{"type":"Polygon","coordinates":[[[32.8398141,39.8728996],[32.8399638,39.8731069],[32.8401218,39.8730396],[32.8399722,39.8728324],[32.8398141,39.8728996]]]}},{"type":"Feature","properties":{"building":"yes","source":"Bing","osm_id":229379614},"geometry":{"type":"Polygon","coordinates":[[[32.8420068,39.8719676],[32.8421637,39.8721729],[32.8423024,39.8721105],[32.8421455,39.8719051],[32.8420068,39.8719676]]]}},{"type":"Feature","properties":{"building":"yes","source":"Bing","osm_id":229379615},"geometry":{"type":"Polygon","coordinates":[[[32.8413815,39.8717771],[32.8415359,39.8719787],[32.8416712,39.8719177],[32.8415167,39.8717161],[32.8413815,39.8717771]]]}},{"type":"Feature","properties":{"building":"yes","source":"Bing","osm_id":229379616},"geometry":{"type":"Polygon","coordinates":[[[32.8405984,39.8729643],[32.8407549,39.8731663],[32.8409073,39.8730967],[32.8407508,39.8728948],[32.8405984,39.8729643]]]}},{"type":"Feature","properties":{"building":"yes","source":"Bing","osm_id":229379618},"geometry":{"type":"Polygon","coordinates":[[[32.839848,39.871196],[32.8400012,39.8713976],[32.8401552,39.8713287],[32.840002,39.8711271],[32.839848,39.871196]]]}},{"type":"Feature","properties":{"building":"yes","source":"Bing","osm_id":229379619},"geometry":{"type":"Polygon","coordinates":[[[32.8386718,39.8720883],[32.838825,39.8722946],[32.8390114,39.8722131],[32.8388581,39.8720068],[32.8386718,39.8720883]]]}},{"type":"Feature","properties":{"building":"yes","source":"Bing","osm_id":229379620},"geometry":{"type":"Polygon","coordinates":[[[32.8386984,39.8716941],[32.8388489,39.8718901],[32.8389902,39.8718262],[32.8388397,39.8716302],[32.8386984,39.8716941]]]}},{"type":"Feature","properties":{"building":"yes","source":"Bing","osm_id":229379621},"geometry":{"type":"Polygon","coordinates":[[[32.8422111,39.8722709],[32.8423583,39.8724712],[32.8425955,39.8723685],[32.8424483,39.8721682],[32.8422111,39.8722709]]]}},{"type":"Feature","properties":{"building":"yes","source":"Bing","osm_id":229379622},"geometry":{"type":"Polygon","coordinates":[[[32.8399631,39.8724218],[32.8401007,39.8725934],[32.8402517,39.8725221],[32.8401141,39.8723505],[32.8399631,39.8724218]]]}},{"type":"Feature","properties":{"building":"yes","source":"Bing","osm_id":229379623},"geometry":{"type":"Polygon","coordinates":[[[32.8396181,39.8729907],[32.8397694,39.8731887],[32.8399142,39.8731235],[32.8397628,39.8729255],[32.8396181,39.8729907]]]}},{"type":"Feature","properties":{"building":"yes","source":"Bing","osm_id":229379624},"geometry":{"type":"Polygon","coordinates":[[[32.8395538,39.8725631],[32.8397154,39.8727611],[32.8398638,39.8726897],[32.8397021,39.8724917],[32.8395538,39.8725631]]]}},{"type":"Feature","properties":{"building":"yes","source":"Bing","osm_id":229379625},"geometry":{"type":"Polygon","coordinates":[[[32.8393078,39.8726568],[32.8391344,39.8727135],[32.8393099,39.8729287],[32.8394798,39.8728653],[32.8393078,39.8726568]]]}},{"type":"Feature","properties":{"building":"yes","source":"Bing","osm_id":229379626},"geometry":{"type":"Polygon","coordinates":[[[32.8382595,39.8733814],[32.8383228,39.8736129],[32.838504,39.8735765],[32.8384189,39.8733469],[32.8382595,39.8733814]]]}},{"type":"Feature","properties":{"building":"yes","source":"Bing","osm_id":229379627},"geometry":{"type":"Polygon","coordinates":[[[32.8406036,39.8725696],[32.8407635,39.8727729],[32.8409226,39.8726992],[32.8407626,39.8724959],[32.8406036,39.8725696]]]}},{"type":"Feature","properties":{"building":"yes","source":"Bing","osm_id":229379628},"geometry":{"type":"Polygon","coordinates":[[[32.8397832,39.8733167],[32.8399414,39.87352],[32.8400994,39.8734476],[32.8399412,39.8732443],[32.8397832,39.8733167]]]}},{"type":"Feature","properties":{"building":"yes","source":"Bing","osm_id":229379629},"geometry":{"type":"Polygon","coordinates":[[[32.8415408,39.8713188],[32.8416916,39.8715279],[32.8418364,39.8714664],[32.8416856,39.8712573],[32.8415408,39.8713188]]]}},{"type":"Feature","properties":{"building":"yes","source":"Bing","osm_id":229379630},"geometry":{"type":"Polygon","coordinates":[[[32.8408099,39.871639],[32.8409643,39.8718424],[32.8410967,39.8717833],[32.8409423,39.8715798],[32.8408099,39.871639]]]}},{"type":"Feature","properties":{"building":"yes","source":"Bing","osm_id":229379631},"geometry":{"type":"Polygon","coordinates":[[[32.8388862,39.8732372],[32.8390042,39.873451],[32.8391454,39.873405],[32.8390275,39.8731913],[32.8388862,39.8732372]]]}},{"type":"Feature","properties":{"building":"yes","source":"Bing","osm_id":229379632},"geometry":{"type":"Polygon","coordinates":[[[32.8412808,39.8722793],[32.8414523,39.87248],[32.8415778,39.8724168],[32.8414063,39.8722161],[32.8412808,39.8722793]]]}},{"type":"Feature","properties":{"building":"yes","source":"Bing","osm_id":229379633},"geometry":{"type":"Polygon","coordinates":[[[32.8402097,39.8727359],[32.8403714,39.8729379],[32.8405245,39.8728657],[32.8403628,39.8726637],[32.8402097,39.8727359]]]}},{"type":"Feature","properties":{"building":"yes","source":"Bing","osm_id":229379634},"geometry":{"type":"Polygon","coordinates":[[[32.8411747,39.8714784],[32.8413292,39.8716847],[32.8414642,39.8716252],[32.8413098,39.8714189],[32.8411747,39.8714784]]]}},{"type":"Feature","properties":{"building":"yes","source":"Bing","osm_id":229379635},"geometry":{"type":"Polygon","coordinates":[[[32.8419348,39.8715466],[32.8420869,39.871751],[32.8422362,39.8716856],[32.8420842,39.8714811],[32.8419348,39.8715466]]]}},{"type":"Feature","properties":{"building":"yes","source":"Bing","osm_id":229379636},"geometry":{"type":"Polygon","coordinates":[[[32.8384666,39.8733586],[32.8385736,39.8735704],[32.8387417,39.8735204],[32.8386347,39.8733086],[32.8384666,39.8733586]]]}},{"type":"Feature","properties":{"building":"yes","source":"Bing","osm_id":229379637},"geometry":{"type":"Polygon","coordinates":[[[32.8412073,39.8726977],[32.8413672,39.8729075],[32.841524,39.8728372],[32.841364,39.8726273],[32.8412073,39.8726977]]]}},{"type":"Feature","properties":{"building":"yes","source":"Bing","osm_id":229379638},"geometry":{"type":"Polygon","coordinates":[[[32.8396642,39.8716627],[32.8398223,39.8718699],[32.8399809,39.8717986],[32.8398228,39.8715914],[32.8396642,39.8716627]]]}},{"type":"Feature","properties":{"building":"yes","source":"Bing","osm_id":229379639},"geometry":{"type":"Polygon","coordinates":[[[32.8414547,39.8722065],[32.8416067,39.872409],[32.8417501,39.8723456],[32.8415981,39.8721431],[32.8414547,39.8722065]]]}},{"type":"Feature","properties":{"building":"yes","source":"Bing","osm_id":229379641},"geometry":{"type":"Polygon","coordinates":[[[32.8394637,39.8713659],[32.8396157,39.8715694],[32.839771,39.871501],[32.839619,39.8712975],[32.8394637,39.8713659]]]}},{"type":"Feature","properties":{"building":"yes","source":"Bing","osm_id":229379642},"geometry":{"type":"Polygon","coordinates":[[[32.8418159,39.872045],[32.841974,39.8722513],[32.8421208,39.872185],[32.8419627,39.8719787],[32.8418159,39.872045]]]}},{"type":"Feature","properties":{"building":"yes","source":"Bing","osm_id":229379643},"geometry":{"type":"Polygon","coordinates":[[[32.8390828,39.8719091],[32.8392434,39.872121],[32.8393947,39.8720535],[32.8392342,39.8718416],[32.8390828,39.8719091]]]}},{"type":"Feature","properties":{"building":"yes","source":"Bing","osm_id":229379644},"geometry":{"type":"Polygon","coordinates":[[[32.8414912,39.8725827],[32.8416456,39.8727861],[32.8417706,39.8727303],[32.8416161,39.8725268],[32.8414912,39.8725827]]]}},{"type":"Feature","properties":{"building":"yes","source":"Bing","osm_id":229379645},"geometry":{"type":"Polygon","coordinates":[[[32.839082,39.8715304],[32.8392247,39.8717251],[32.8393709,39.871662],[32.8392281,39.8714673],[32.839082,39.8715304]]]}},{"type":"Feature","properties":{"building":"yes","source":"Bing","osm_id":229379646},"geometry":{"type":"Polygon","coordinates":[[[32.8422792,39.8718472],[32.8424568,39.8720824],[32.8427073,39.871971],[32.8425298,39.8717358],[32.8422792,39.8718472]]]}},{"type":"Feature","properties":{"building":"yes","source":"Bing","osm_id":229379647},"geometry":{"type":"Polygon","coordinates":[[[32.840045,39.8711186],[32.8402019,39.8713146],[32.8403712,39.8712347],[32.8402143,39.8710387],[32.840045,39.8711186]]]}},{"type":"Feature","properties":{"building":"yes","source":"Bing","osm_id":229379648},"geometry":{"type":"Polygon","coordinates":[[[32.8403972,39.8730554],[32.8405537,39.8732613],[32.8407115,39.8731906],[32.840555,39.8729847],[32.8403972,39.8730554]]]}},{"type":"Feature","properties":{"building":"yes","source":"Bing","osm_id":229379649},"geometry":{"type":"Polygon","coordinates":[[[32.8396522,39.871281],[32.8398066,39.8714863],[32.8399652,39.8714161],[32.8398107,39.8712107],[32.8396522,39.871281]]]}},{"type":"Feature","properties":{"building":"yes","source":"Bing","osm_id":229379650},"geometry":{"type":"Polygon","coordinates":[[[32.8378266,39.87343],[32.8378035,39.8736586],[32.8380029,39.8736409],[32.8379883,39.8734188],[32.8378266,39.87343]]]}},{"type":"Feature","properties":{"building":"yes","source":"Bing","osm_id":229379651},"geometry":{"type":"Polygon","coordinates":[[[32.8393209,39.8725417],[32.8396468,39.8724036],[32.8394942,39.8721915],[32.8391683,39.8723297],[32.8393209,39.8725417]]]}},{"type":"Feature","properties":{"building":"yes","source":"Bing","osm_id":229379652},"geometry":{"type":"Polygon","coordinates":[[[32.840254,39.8714116],[32.8404036,39.8716021],[32.8405818,39.8715196],[32.8404322,39.8713292],[32.840254,39.8714116]]]}},{"type":"Feature","properties":{"building":"yes","source":"Bing","osm_id":229379653},"geometry":{"type":"Polygon","coordinates":[[[32.8397602,39.8724825],[32.8399149,39.8726766],[32.8400624,39.8726073],[32.8399076,39.8724132],[32.8397602,39.8724825]]]}},{"type":"Feature","properties":{"building":"yes","source":"Bing","osm_id":229379654},"geometry":{"type":"Polygon","coordinates":[[[32.8410129,39.872398],[32.8411591,39.872596],[32.8413047,39.8725327],[32.8411585,39.8723347],[32.8410129,39.872398]]]}},{"type":"Feature","properties":{"building":"yes","source":"Bing","osm_id":229379655},"geometry":{"type":"Polygon","coordinates":[[[32.8393508,39.8726436],[32.8395159,39.8728469],[32.8396683,39.872774],[32.8395032,39.8725707],[32.8393508,39.8726436]]]}},{"type":"Feature","properties":{"building":"yes","source":"Bing","osm_id":229379656},"geometry":{"type":"Polygon","coordinates":[[[32.8419142,39.8711639],[32.8420613,39.8713664],[32.84222,39.8712985],[32.8420728,39.871096],[32.8419142,39.8711639]]]}},{"type":"Feature","properties":{"building":"yes","source":"Bing","osm_id":229379657},"geometry":{"type":"Polygon","coordinates":[[[32.8401942,39.8731372],[32.8403508,39.8733405],[32.8405096,39.8732685],[32.8403531,39.8730652],[32.8401942,39.8731372]]]}},{"type":"Feature","properties":{"building":"yes","source":"Bing","osm_id":229379658},"geometry":{"type":"Polygon","coordinates":[[[32.8400582,39.8714994],[32.8402175,39.871701],[32.8403729,39.8716287],[32.8402135,39.8714271],[32.8400582,39.8714994]]]}},{"type":"Feature","properties":{"building":"yes","source":"Bing","osm_id":229379660},"geometry":{"type":"Polygon","coordinates":[[[32.8420214,39.8723474],[32.8421807,39.87255],[32.8423317,39.87248],[32.8421724,39.8722775],[32.8420214,39.8723474]]]}},{"type":"Feature","properties":{"building":"yes","source":"Bing","osm_id":229379661},"geometry":{"type":"Polygon","coordinates":[[[32.8396095,39.8734118],[32.8397316,39.8736005],[32.8398966,39.8735409],[32.8397573,39.8733496],[32.8396095,39.8734118]]]}},{"type":"Feature","properties":{"building":"yes","source":"Bing","osm_id":229379662},"geometry":{"type":"Polygon","coordinates":[[[32.8410252,39.8719367],[32.8411796,39.8721355],[32.8413122,39.8720749],[32.8411577,39.8718761],[32.8410252,39.8719367]]]}},{"type":"Feature","properties":{"building":"yes","source":"Bing","osm_id":229379663},"geometry":{"type":"Polygon","coordinates":[[[32.8410026,39.8727887],[32.8411574,39.872996],[32.8413269,39.8729214],[32.8411721,39.8727142],[32.8410026,39.8727887]]]}},{"type":"Feature","properties":{"building":"yes","source":"Bing","osm_id":229379664},"geometry":{"type":"Polygon","coordinates":[[[32.8395362,39.8721796],[32.8396955,39.872383],[32.8398607,39.8723069],[32.8397014,39.8721034],[32.8395362,39.8721796]]]}},{"type":"Feature","properties":{"building":"yes","source":"Bing","osm_id":229379665},"geometry":{"type":"Polygon","coordinates":[[[32.840024,39.8728165],[32.8401702,39.8730211],[32.8403263,39.8729554],[32.8401801,39.8727508],[32.840024,39.8728165]]]}},{"type":"Feature","properties":{"building":"yes","source":"Bing","osm_id":229379666},"geometry":{"type":"Polygon","coordinates":[[[32.8409777,39.871555],[32.8411322,39.8717566],[32.8412833,39.8716884],[32.8411289,39.8714868],[32.8409777,39.871555]]]}},{"type":"Feature","properties":{"building":"yes","source":"Bing","osm_id":229379667},"geometry":{"type":"Polygon","coordinates":[[[32.8417427,39.871904],[32.8420394,39.8717752],[32.8418877,39.8715693],[32.8415909,39.8716981],[32.8417427,39.871904]]]}},{"type":"Feature","properties":{"building":"yes","source":"Bing","osm_id":229379668},"geometry":{"type":"Polygon","coordinates":[[[32.8408065,39.8728772],[32.8409562,39.8730831],[32.8411219,39.8730121],[32.8409723,39.8728062],[32.8408065,39.8728772]]]}},{"type":"Feature","properties":{"building":"yes","source":"Bing","osm_id":229379669},"geometry":{"type":"Polygon","coordinates":[[[32.8394538,39.872023],[32.8397736,39.8718886],[32.8396216,39.8716755],[32.8393018,39.8718099],[32.8394538,39.872023]]]}},{"type":"Feature","properties":{"building":"yes","source":"Bing","osm_id":229379671},"geometry":{"type":"Polygon","coordinates":[[[32.8392752,39.871448],[32.8394272,39.8716515],[32.8395855,39.8715818],[32.8394335,39.8713784],[32.8392752,39.871448]]]}},{"type":"Feature","properties":{"building":"yes","source":"Bing","osm_id":229379672},"geometry":{"type":"Polygon","coordinates":[[[32.8411966,39.8718583],[32.8413511,39.8720637],[32.8414949,39.8719999],[32.8413405,39.8717946],[32.8411966,39.8718583]]]}},{"type":"Feature","properties":{"building":"yes","source":"Bing","osm_id":229379673},"geometry":{"type":"Polygon","coordinates":[[[32.8380394,39.8734085],[32.8380723,39.873654],[32.8382778,39.8736269],[32.838217,39.8733898],[32.8380394,39.8734085]]]}},{"type":"Feature","properties":{"building":"yes","source":"Bing","osm_id":229379674},"geometry":{"type":"Polygon","coordinates":[[[32.8388968,39.8720025],[32.8390488,39.8721975],[32.8391877,39.8721338],[32.8390357,39.8719387],[32.8388968,39.8720025]]]}},{"type":"Feature","properties":{"building":"yes","source":"Bing","osm_id":229643066},"geometry":{"type":"Polygon","coordinates":[[[32.8377055,39.8727922],[32.8379183,39.8727853],[32.8379082,39.8726027],[32.8377484,39.8726079],[32.8377511,39.8726571],[32.8376393,39.8726608],[32.8376424,39.8727173],[32.8376706,39.8727163],[32.8376719,39.8727388],[32.8377025,39.8727378],[32.8377055,39.8727922]]]}},{"type":"Feature","properties":{"building":"yes","source":"Bing","osm_id":229643070},"geometry":{"type":"Polygon","coordinates":[[[32.8382052,39.8725647],[32.838219,39.8726888],[32.8382071,39.8726905],[32.8382168,39.8727693],[32.8383153,39.8727637],[32.8383153,39.8727497],[32.8383488,39.8727479],[32.8383457,39.8727003],[32.8383743,39.8726961],[32.8384004,39.8727353],[32.8384272,39.872725],[32.8384381,39.8727371],[32.838519,39.8727054],[32.8383852,39.8725248],[32.8383238,39.8725509],[32.8382843,39.8725621],[32.8382052,39.8725647]]]}},{"type":"Feature","properties":{"building":"yes","source":"Bing","osm_id":229643082},"geometry":{"type":"Polygon","coordinates":[[[32.8386275,39.8728059],[32.8387255,39.87293],[32.8389801,39.8728178],[32.8388958,39.872703],[32.8386275,39.8728059]]]}},{"type":"Feature","properties":{"building":"yes","source":"Bing","osm_id":229643095},"geometry":{"type":"Polygon","coordinates":[[[32.8383299,39.8729577],[32.8384108,39.8731861],[32.8386963,39.8731161],[32.8385862,39.872897],[32.8383299,39.8729577]]]}},{"type":"Feature","properties":{"building":"yes","source":"Bing","osm_id":229643101},"geometry":{"type":"Polygon","coordinates":[[[32.8379577,39.8727788],[32.8381696,39.8727667],[32.8381523,39.8725878],[32.8379404,39.8725999],[32.8379577,39.8727788]]]}},{"type":"Feature","properties":{"building":"yes","source":"Bing","osm_id":229643108},"geometry":{"type":"Polygon","coordinates":[[[32.8374876,39.8725493],[32.8376013,39.8726528],[32.8378104,39.8725174],[32.8376968,39.872414],[32.8374876,39.8725493]]]}},{"type":"Feature","properties":{"building":"yes","source":"Bing","osm_id":229643143},"geometry":{"type":"Polygon","coordinates":[[[32.8387307,39.872963],[32.8388201,39.8730805],[32.8391176,39.8729947],[32.8389904,39.8728403],[32.8387307,39.872963]]]}},{"type":"Feature","properties":{"building":"yes","source":"Bing","osm_id":229643145},"geometry":{"type":"Polygon","coordinates":[[[32.8384821,39.8724816],[32.8385217,39.8725595],[32.8386128,39.8726783],[32.8388141,39.8725951],[32.8386541,39.8724037],[32.8384821,39.8724816]]]}},{"type":"Feature","properties":{"building":"yes","source":"Bing","osm_id":229643152},"geometry":{"type":"Polygon","coordinates":[[[32.8373368,39.8723998],[32.8374453,39.8725115],[32.8376315,39.872405],[32.837621,39.8723942],[32.8376812,39.8723597],[32.8375832,39.8722588],[32.8373368,39.8723998]]]}},{"type":"Feature","properties":{"building":"yes","source":"Bing","osm_id":229875413},"geometry":{"type":"Polygon","coordinates":[[[32.8421928,39.872934],[32.8422586,39.8730201],[32.8425611,39.8728841],[32.8424941,39.8727964],[32.8424503,39.8728161],[32.8424374,39.8727993],[32.8424792,39.8727804],[32.8424083,39.8726876],[32.8421071,39.872823],[32.8421751,39.8729122],[32.8422241,39.8728902],[32.842241,39.8729123],[32.8421928,39.872934]]]}},{"type":"Feature","properties":{"building":"yes","source":"Bing","osm_id":229875416},"geometry":{"type":"Polygon","coordinates":[[[32.8416891,39.8735315],[32.8417066,39.8735236],[32.8417334,39.8735587],[32.8417164,39.8735664],[32.8417686,39.8736302],[32.8418228,39.8736371],[32.8420253,39.8735482],[32.8420398,39.8735023],[32.8419912,39.8734395],[32.8419712,39.8734484],[32.8419466,39.8734161],[32.8419622,39.8734091],[32.8419145,39.8733511],[32.841857,39.8733371],[32.8416542,39.8734304],[32.8416461,39.8734775],[32.8416891,39.8735315]]]}},{"type":"Feature","properties":{"building":"yes","source":"Bing","osm_id":229875417},"geometry":{"type":"Polygon","coordinates":[[[32.8412209,39.8732694],[32.8412316,39.8732827],[32.8411866,39.8733042],[32.8411762,39.8732914],[32.8410945,39.8733331],[32.8410871,39.8733749],[32.8412084,39.8735278],[32.8412685,39.8735377],[32.8413491,39.8734986],[32.8413368,39.8734836],[32.8413782,39.8734638],[32.8413878,39.8734756],[32.841462,39.8734374],[32.8414786,39.8733929],[32.8413516,39.8732399],[32.84129,39.873235],[32.8412209,39.8732694]]]}},{"type":"Feature","properties":{"building":"yes","source":"Bing","osm_id":229875418},"geometry":{"type":"Polygon","coordinates":[[[32.8430836,39.8728837],[32.8431133,39.872924],[32.8431358,39.8729142],[32.8431592,39.8729459],[32.8431377,39.8729552],[32.843167,39.872995],[32.8431932,39.8729837],[32.8432167,39.8730156],[32.843275,39.8729903],[32.8432686,39.8729816],[32.8433351,39.8729527],[32.8433408,39.8729604],[32.8434025,39.8729336],[32.8433817,39.8729056],[32.8434199,39.872889],[32.8433894,39.8728476],[32.8433669,39.8728574],[32.8433433,39.8728255],[32.8433666,39.8728154],[32.8433376,39.872776],[32.8433227,39.8727825],[32.8432992,39.8727506],[32.8430726,39.872849],[32.8430947,39.8728789],[32.8430836,39.8728837]]]}},{"type":"Feature","properties":{"building":"yes","source":"Bing","osm_id":229875419},"geometry":{"type":"Polygon","coordinates":[[[32.8427609,39.8731804],[32.8427916,39.8732225],[32.8428127,39.8732135],[32.8428356,39.8732449],[32.8428987,39.8732178],[32.8428925,39.8732093],[32.8429586,39.8731809],[32.8429652,39.8731901],[32.8430208,39.8731662],[32.8430033,39.8731421],[32.8430261,39.8731323],[32.8429908,39.8730838],[32.8429739,39.8730911],[32.8429533,39.8730627],[32.8429943,39.8730451],[32.8429628,39.8730019],[32.842944,39.8730099],[32.842924,39.8729825],[32.8426899,39.8730829],[32.842707,39.8731063],[32.8426956,39.8731112],[32.842729,39.8731572],[32.842761,39.8731434],[32.8427815,39.8731715],[32.8427609,39.8731804]]]}},{"type":"Feature","properties":{"building":"yes","source":"Bing","osm_id":229875420},"geometry":{"type":"Polygon","coordinates":[[[32.8423388,39.8733557],[32.8423695,39.8733978],[32.8423905,39.8733888],[32.8424134,39.8734202],[32.8424766,39.8733931],[32.8424704,39.8733846],[32.8425365,39.8733563],[32.8425431,39.8733654],[32.8425987,39.8733415],[32.8425811,39.8733174],[32.8426039,39.8733076],[32.8425686,39.8732591],[32.8425518,39.8732664],[32.8425311,39.873238],[32.8425722,39.8732204],[32.8425407,39.8731772],[32.8425219,39.8731852],[32.8425019,39.8731578],[32.8422678,39.8732582],[32.8422849,39.8732817],[32.8422735,39.8732866],[32.8423069,39.8733325],[32.8423389,39.8733187],[32.8423594,39.8733468],[32.8423388,39.8733557]]]}},{"type":"Feature","properties":{"building":"yes","source":"Bing","osm_id":229875422},"geometry":{"type":"Polygon","coordinates":[[[32.8454901,39.873812],[32.8456103,39.8738581],[32.8457307,39.8736733],[32.8456105,39.8736272],[32.8454901,39.873812]]]}},{"type":"Feature","properties":{"building":"yes","source":"Bing","osm_id":229875425},"geometry":{"type":"Polygon","coordinates":[[[32.8388462,39.8711716],[32.8389932,39.8713742],[32.8391398,39.8713116],[32.8389927,39.8711089],[32.8388462,39.8711716]]]}},{"type":"Feature","properties":{"building":"yes","source":"Bing","osm_id":229875430},"geometry":{"type":"Polygon","coordinates":[[[32.845349,39.8734742],[32.8454881,39.8735257],[32.8456048,39.8733399],[32.8454658,39.8732884],[32.845349,39.8734742]]]}},{"type":"Feature","properties":{"building":"yes","source":"Bing","osm_id":229875440},"geometry":{"type":"Polygon","coordinates":[[[32.8386295,39.8712653],[32.8387877,39.8714653],[32.8389464,39.8713913],[32.8387882,39.8711913],[32.8386295,39.8712653]]]}},{"type":"Feature","properties":{"building":"yes","source":"Bing","osm_id":229875444},"geometry":{"type":"Polygon","coordinates":[[[32.8404534,39.8704875],[32.8406107,39.8706888],[32.8407558,39.870622],[32.8405984,39.8704207],[32.8404534,39.8704875]]]}},{"type":"Feature","properties":{"building":"yes","source":"Bing","osm_id":229875454},"geometry":{"type":"Polygon","coordinates":[[[32.8430682,39.8734023],[32.8432166,39.8735936],[32.8433402,39.8735372],[32.8431918,39.8733458],[32.8430682,39.8734023]]]}},{"type":"Feature","properties":{"building":"yes","source":"Bing","osm_id":229875456},"geometry":{"type":"Polygon","coordinates":[[[32.8436707,39.8730532],[32.8437918,39.873111],[32.8439037,39.8729729],[32.8437826,39.8729151],[32.8436707,39.8730532]]]}},{"type":"Feature","properties":{"building":"yes","source":"Bing","osm_id":229875457},"geometry":{"type":"Polygon","coordinates":[[[32.8405225,39.8709033],[32.8406818,39.8711059],[32.8408195,39.8710421],[32.8406602,39.8708396],[32.8405225,39.8709033]]]}},{"type":"Feature","properties":{"building":"yes","source":"Bing","osm_id":229875462},"geometry":{"type":"Polygon","coordinates":[[[32.8440618,39.8736931],[32.844214,39.8738502],[32.8443467,39.8737745],[32.8441945,39.8736174],[32.8440618,39.8736931]]]}},{"type":"Feature","properties":{"building":"yes","source":"Bing","osm_id":229875463},"geometry":{"type":"Polygon","coordinates":[[[32.844021,39.8729674],[32.8441465,39.8730137],[32.8442401,39.8728644],[32.8441146,39.872818],[32.844021,39.8729674]]]}},{"type":"Feature","properties":{"building":"yes","source":"Bing","osm_id":229875464},"geometry":{"type":"Polygon","coordinates":[[[32.845169,39.8736898],[32.8454329,39.8737906],[32.8455527,39.873606],[32.8452912,39.873508],[32.845169,39.8736898]]]}},{"type":"Feature","properties":{"building":"yes","source":"Bing","osm_id":229875468},"geometry":{"type":"Polygon","coordinates":[[[32.8424655,39.8726658],[32.8426236,39.8728692],[32.842764,39.872805],[32.8426059,39.8726015],[32.8424655,39.8726658]]]}},{"type":"Feature","properties":{"building":"yes","source":"Bing","osm_id":229875469},"geometry":{"type":"Polygon","coordinates":[[[32.8459717,39.8737159],[32.8461055,39.8735395],[32.8459926,39.8734891],[32.8458589,39.8736655],[32.8459717,39.8737159]]]}},{"type":"Feature","properties":{"building":"yes","source":"Bing","osm_id":229875473},"geometry":{"type":"Polygon","coordinates":[[[32.8384515,39.871357],[32.8386037,39.8715432],[32.8387444,39.8714754],[32.8385922,39.8712893],[32.8384515,39.871357]]]}},{"type":"Feature","properties":{"building":"yes","source":"Bing","osm_id":229875476},"geometry":{"type":"Polygon","coordinates":[[[32.8455473,39.8735488],[32.8458075,39.8736468],[32.8459247,39.8734635],[32.8456645,39.8733655],[32.8455473,39.8735488]]]}},{"type":"Feature","properties":{"building":"yes","source":"Bing","osm_id":229875478},"geometry":{"type":"Polygon","coordinates":[[[32.8401042,39.8706333],[32.8402642,39.8708327],[32.8403815,39.8707772],[32.8402216,39.8705779],[32.8401042,39.8706333]]]}},{"type":"Feature","properties":{"building":"yes","source":"Bing","osm_id":229875479},"geometry":{"type":"Polygon","coordinates":[[[32.8418788,39.8729198],[32.8420369,39.8731224],[32.8421969,39.8730488],[32.8420388,39.8728463],[32.8418788,39.8729198]]]}},{"type":"Feature","properties":{"building":"yes","source":"Bing","osm_id":229875484},"geometry":{"type":"Polygon","coordinates":[[[32.8383939,39.871363],[32.8382531,39.8714272],[32.8384242,39.8716265],[32.838553,39.8715676],[32.8383939,39.871363]]]}},{"type":"Feature","properties":{"building":"yes","source":"Bing","osm_id":229875486},"geometry":{"type":"Polygon","coordinates":[[[32.8426683,39.8725726],[32.842818,39.8727864],[32.8431214,39.8726614],[32.8429718,39.8724475],[32.8426683,39.8725726]]]}},{"type":"Feature","properties":{"building":"yes","source":"Bing","osm_id":229875488},"geometry":{"type":"Polygon","coordinates":[[[32.8408128,39.8699621],[32.8409676,39.8701667],[32.8411175,39.8700999],[32.8409627,39.8698953],[32.8408128,39.8699621]]]}},{"type":"Feature","properties":{"building":"yes","source":"Bing","osm_id":229875492},"geometry":{"type":"Polygon","coordinates":[[[32.8386727,39.8709759],[32.8386813,39.8711171],[32.8387906,39.8711132],[32.838782,39.870972],[32.8386727,39.8709759]]]}},{"type":"Feature","properties":{"building":"yes","source":"Bing","osm_id":229875494},"geometry":{"type":"Polygon","coordinates":[[[32.8438386,39.8731316],[32.843962,39.8731852],[32.8440726,39.8730349],[32.8439492,39.8729814],[32.8438386,39.8731316]]]}},{"type":"Feature","properties":{"building":"yes","source":"Bing","osm_id":229875495},"geometry":{"type":"Polygon","coordinates":[[[32.8408874,39.8707549],[32.8410418,39.8709594],[32.8411904,39.8708932],[32.8410359,39.8706888],[32.8408874,39.8707549]]]}},{"type":"Feature","properties":{"building":"yes","source":"Bing","osm_id":229875496},"geometry":{"type":"Polygon","coordinates":[[[32.8441742,39.873267],[32.8442924,39.8733151],[32.844397,39.8731639],[32.8442788,39.8731158],[32.8441742,39.873267]]]}},{"type":"Feature","properties":{"building":"yes","source":"Bing","osm_id":229875497},"geometry":{"type":"Polygon","coordinates":[[[32.8432372,39.8733379],[32.8433881,39.8735162],[32.8435291,39.8734459],[32.8433442,39.8732788],[32.8432372,39.8733379]]]}},{"type":"Feature","properties":{"building":"yes","source":"Bing","osm_id":229875498},"geometry":{"type":"Polygon","coordinates":[[[32.8409117,39.871133],[32.8410649,39.8713411],[32.8412157,39.8712757],[32.8410625,39.8710676],[32.8409117,39.871133]]]}},{"type":"Feature","properties":{"building":"yes","source":"Bing","osm_id":229875502},"geometry":{"type":"Polygon","coordinates":[[[32.8402736,39.8705654],[32.8404241,39.870766],[32.8405704,39.8707014],[32.8404199,39.8705007],[32.8402736,39.8705654]]]}},{"type":"Feature","properties":{"building":"yes","source":"Bing","osm_id":229875503},"geometry":{"type":"Polygon","coordinates":[[[32.8409925,39.8698816],[32.8411482,39.8700882],[32.8413114,39.8700157],[32.8411557,39.8698092],[32.8409925,39.8698816]]]}},{"type":"Feature","properties":{"building":"yes","source":"Bing","osm_id":229875506},"geometry":{"type":"Polygon","coordinates":[[[32.8412875,39.870978],[32.8414395,39.8711778],[32.8415751,39.871117],[32.8414231,39.8709172],[32.8412875,39.870978]]]}},{"type":"Feature","properties":{"building":"yes","source":"Bing","osm_id":229875507},"geometry":{"type":"Polygon","coordinates":[[[32.844184,39.8730262],[32.8443081,39.8730724],[32.8444079,39.8729147],[32.8442837,39.8728684],[32.844184,39.8730262]]]}},{"type":"Feature","properties":{"building":"yes","source":"Bing","osm_id":229875508},"geometry":{"type":"Polygon","coordinates":[[[32.8414602,39.870894],[32.8416183,39.8711012],[32.8417584,39.8710382],[32.8416003,39.870831],[32.8414602,39.870894]]]}},{"type":"Feature","properties":{"building":"yes","source":"Bing","osm_id":229875509},"geometry":{"type":"Polygon","coordinates":[[[32.8443323,39.8733379],[32.8444516,39.8733872],[32.8445611,39.8732314],[32.8444418,39.873182],[32.8443323,39.8733379]]]}},{"type":"Feature","properties":{"building":"yes","source":"Bing","osm_id":229875510},"geometry":{"type":"Polygon","coordinates":[[[32.8460216,39.8737532],[32.8462709,39.8738895],[32.8464301,39.8737179],[32.8461808,39.8735816],[32.8460216,39.8737532]]]}},{"type":"Feature","properties":{"building":"yes","source":"Bing","osm_id":229875516},"geometry":{"type":"Polygon","coordinates":[[[32.8407037,39.8708296],[32.8408618,39.8710322],[32.8410016,39.8709679],[32.8408435,39.8707654],[32.8407037,39.8708296]]]}},{"type":"Feature","properties":{"building":"yes","source":"Bing","osm_id":229875517},"geometry":{"type":"Polygon","coordinates":[[[32.8443506,39.8730906],[32.844471,39.8731373],[32.8445719,39.8729843],[32.8444515,39.8729375],[32.8443506,39.8730906]]]}},{"type":"Feature","properties":{"building":"yes","source":"Bing","osm_id":229875518},"geometry":{"type":"Polygon","coordinates":[[[32.8411002,39.8710583],[32.8412498,39.8712636],[32.8413935,39.8712019],[32.841244,39.8709966],[32.8411002,39.8710583]]]}},{"type":"Feature","properties":{"building":"yes","source":"Bing","osm_id":229875531},"geometry":{"type":"Polygon","coordinates":[[[32.8403562,39.8735834],[32.8405119,39.8737841],[32.8406647,39.8737143],[32.840509,39.8735136],[32.8403562,39.8735834]]]}},{"type":"Feature","properties":{"building":"yes","source":"Bing","osm_id":229875532},"geometry":{"type":"Polygon","coordinates":[[[32.8438313,39.8728768],[32.8439383,39.8727378],[32.8440782,39.8727863],[32.8439857,39.8729356],[32.8438313,39.8728768]]]}},{"type":"Feature","properties":{"building":"yes","source":"Bing","osm_id":229875538},"geometry":{"type":"Polygon","coordinates":[[[32.8437407,39.8734125],[32.8438806,39.8735591],[32.8440392,39.87345],[32.8438579,39.8733455],[32.8437407,39.8734125]]]}},{"type":"Feature","properties":{"building":"yes","source":"Bing","osm_id":229875539},"geometry":{"type":"Polygon","coordinates":[[[32.8448455,39.8732875],[32.8449777,39.8733393],[32.8450933,39.8731657],[32.8449611,39.8731139],[32.8448455,39.8732875]]]}},{"type":"Feature","properties":{"building":"yes","source":"Bing","osm_id":229875540},"geometry":{"type":"Polygon","coordinates":[[[32.843247,39.8736375],[32.8434087,39.8738083],[32.8435288,39.8737413],[32.843367,39.8735705],[32.843247,39.8736375]]]}},{"type":"Feature","properties":{"building":"yes","source":"Bing","osm_id":229875547},"geometry":{"type":"Polygon","coordinates":[[[32.8394241,39.870928],[32.8395746,39.871132],[32.8397287,39.871065],[32.8395782,39.8708611],[32.8394241,39.870928]]]}},{"type":"Feature","properties":{"building":"yes","source":"Bing","osm_id":229875549},"geometry":{"type":"Polygon","coordinates":[[[32.8434051,39.8735619],[32.8435583,39.8737299],[32.8436757,39.8736668],[32.8435224,39.8734988],[32.8434051,39.8735619]]]}},{"type":"Feature","properties":{"building":"yes","source":"Bing","osm_id":229875550},"geometry":{"type":"Polygon","coordinates":[[[32.8411955,39.8701694],[32.8413529,39.8703733],[32.841505,39.8703041],[32.8413477,39.8701002],[32.8411955,39.8701694]]]}},{"type":"Feature","properties":{"building":"yes","source":"Bing","osm_id":229875551},"geometry":{"type":"Polygon","coordinates":[[[32.8435753,39.8734863],[32.8437237,39.8736506],[32.8438356,39.873591],[32.8436872,39.8734267],[32.8435753,39.8734863]]]}},{"type":"Feature","properties":{"building":"yes","source":"Bing","osm_id":229875553},"geometry":{"type":"Polygon","coordinates":[[[32.8440027,39.8731942],[32.8441269,39.8732489],[32.8442388,39.8730996],[32.8441146,39.8730448],[32.8440027,39.8731942]]]}},{"type":"Feature","properties":{"building":"yes","source":"Bing","osm_id":229875557},"geometry":{"type":"Polygon","coordinates":[[[32.8433832,39.873252],[32.8435778,39.8734219],[32.8437514,39.8733048],[32.8434802,39.8731909],[32.8433832,39.873252]]]}},{"type":"Feature","properties":{"building":"yes","source":"Bing","osm_id":229875559},"geometry":{"type":"Polygon","coordinates":[[[32.8398798,39.8703564],[32.8400414,39.870561],[32.8401819,39.8704956],[32.8400202,39.870291],[32.8398798,39.8703564]]]}},{"type":"Feature","properties":{"building":"yes","source":"Bing","osm_id":229875560},"geometry":{"type":"Polygon","coordinates":[[[32.8410089,39.8702505],[32.8411663,39.8704565],[32.841316,39.870389],[32.8411586,39.8701831],[32.8410089,39.8702505]]]}},{"type":"Feature","properties":{"building":"yes","source":"Bing","osm_id":229875563},"geometry":{"type":"Polygon","coordinates":[[[32.8405508,39.8734957],[32.8407016,39.8736992],[32.840863,39.8736287],[32.8407122,39.8734252],[32.8405508,39.8734957]]]}},{"type":"Feature","properties":{"building":"yes","source":"Bing","osm_id":229875568},"geometry":{"type":"Polygon","coordinates":[[[32.8414057,39.8731354],[32.8415068,39.8732649],[32.8417707,39.8731436],[32.8416696,39.8730141],[32.8414057,39.8731354]]]}},{"type":"Feature","properties":{"building":"yes","source":"Bing","osm_id":229875570},"geometry":{"type":"Polygon","coordinates":[[[32.8401446,39.8736721],[32.8402893,39.8738718],[32.8404581,39.8737998],[32.8403134,39.8736001],[32.8401446,39.8736721]]]}},{"type":"Feature","properties":{"building":"yes","source":"Bing","osm_id":229875573},"geometry":{"type":"Polygon","coordinates":[[[32.8398016,39.8710323],[32.8400716,39.8709102],[32.8399791,39.8707897],[32.8397091,39.8709118],[32.8398016,39.8710323]]]}},{"type":"Feature","properties":{"building":"yes","source":"Bing","osm_id":229875575},"geometry":{"type":"Polygon","coordinates":[[[32.8450146,39.8733547],[32.84514,39.8734008],[32.8452506,39.8732235],[32.8451253,39.8731774],[32.8450146,39.8733547]]]}},{"type":"Feature","properties":{"building":"yes","source":"Bing","osm_id":229875580},"geometry":{"type":"Polygon","coordinates":[[[32.8395815,39.8707459],[32.8398412,39.8706271],[32.8397519,39.8705122],[32.8394922,39.870631],[32.8395815,39.8707459]]]}},{"type":"Feature","properties":{"building":"yes","source":"Bing","osm_id":229875581},"geometry":{"type":"Polygon","coordinates":[[[32.8407442,39.8734117],[32.840901,39.873617],[32.8410519,39.8735492],[32.840895,39.8733438],[32.8407442,39.8734117]]]}},{"type":"Feature","properties":{"building":"yes","source":"Bing","osm_id":229875583},"geometry":{"type":"Polygon","coordinates":[[[32.8408188,39.8703271],[32.8409788,39.8705357],[32.8411262,39.8704691],[32.8409662,39.8702605],[32.8408188,39.8703271]]]}},{"type":"Feature","properties":{"building":"yes","source":"Bing","osm_id":229875585},"geometry":{"type":"Polygon","coordinates":[[[32.8392409,39.8710066],[32.839394,39.8712158],[32.8395371,39.8711541],[32.8393841,39.8709449],[32.8392409,39.8710066]]]}},{"type":"Feature","properties":{"building":"yes","source":"Bing","osm_id":229875587},"geometry":{"type":"Polygon","coordinates":[[[32.8446765,39.8734779],[32.8449404,39.8735806],[32.845053,39.8734101],[32.8447891,39.8733074],[32.8446765,39.8734779]]]}},{"type":"Feature","properties":{"building":"yes","source":"Bing","osm_id":229875588},"geometry":{"type":"Polygon","coordinates":[[[32.8451861,39.8734126],[32.845323,39.8734589],[32.8454275,39.8732769],[32.8452906,39.8732306],[32.8451861,39.8734126]]]}},{"type":"Feature","properties":{"building":"yes","source":"Bing","osm_id":229875592},"geometry":{"type":"Polygon","coordinates":[[[32.8396872,39.8708858],[32.8399495,39.8707637],[32.8398602,39.8706507],[32.8395979,39.8707728],[32.8396872,39.8708858]]]}},{"type":"Feature","properties":{"building":"yes","source":"Bing","osm_id":229875593},"geometry":{"type":"Polygon","coordinates":[[[32.8406382,39.8704043],[32.8407905,39.8706096],[32.8409334,39.8705471],[32.8407812,39.8703419],[32.8406382,39.8704043]]]}},{"type":"Feature","properties":{"building":"yes","source":"Bing","osm_id":229875595},"geometry":{"type":"Polygon","coordinates":[[[32.8390319,39.8710977],[32.8391833,39.8712976],[32.8393427,39.8712266],[32.8391914,39.8710266],[32.8390319,39.8710977]]]}},{"type":"Feature","properties":{"building":"yes","source":"Bing","osm_id":229875596},"geometry":{"type":"Polygon","coordinates":[[[32.8445342,39.8731652],[32.844803,39.8732623],[32.8449063,39.8730937],[32.8446376,39.8729967],[32.8445342,39.8731652]]]}},{"type":"Feature","properties":{"building":"yes","source":"Bing","osm_id":229875599},"geometry":{"type":"Polygon","coordinates":[[[32.8407122,39.8714923],[32.841006,39.8713667],[32.8408515,39.8711539],[32.8405578,39.8712795],[32.8407122,39.8714923]]]}},{"type":"Feature","properties":{"building":"yes","source":"Bing","osm_id":229875601},"geometry":{"type":"Polygon","coordinates":[[[32.8444953,39.8734023],[32.8446183,39.8734559],[32.844735,39.8732982],[32.844612,39.8732446],[32.8444953,39.8734023]]]}},{"type":"Feature","properties":{"building":"yes","source":"Bing","osm_id":229875605},"geometry":{"type":"Polygon","coordinates":[[[32.8403304,39.8709902],[32.8404945,39.8711908],[32.8406456,39.871118],[32.8404815,39.8709173],[32.8403304,39.8709902]]]}},{"type":"Feature","properties":{"building":"yes","source":"Bing","osm_id":229875606},"geometry":{"type":"Polygon","coordinates":[[[32.8449903,39.8736104],[32.8451179,39.873664],[32.8452456,39.8734848],[32.845118,39.8734312],[32.8449903,39.8736104]]]}},{"type":"Feature","properties":{"building":"yes","source":"Bing","osm_id":229875607},"geometry":{"type":"Polygon","coordinates":[[[32.8429867,39.8734405],[32.8427428,39.8735376],[32.8428092,39.8736328],[32.8428961,39.8737159],[32.8431436,39.8736235],[32.8429867,39.8734405]]]}},{"type":"Feature","properties":{"building":"yes","source":"Bing","osm_id":229875610},"geometry":{"type":"Polygon","coordinates":[[[32.8442217,39.8735928],[32.8443877,39.8737499],[32.844548,39.8736627],[32.8445073,39.8736264],[32.8442986,39.8735426],[32.8442217,39.8735928]]]}},{"type":"Feature","properties":{"building":"yes","source":"Bing","osm_id":229875613},"geometry":{"type":"Polygon","coordinates":[[[32.8433946,39.8726917],[32.8436171,39.8727888],[32.8437407,39.872622],[32.8436269,39.8725723],[32.8435108,39.8725417],[32.8433946,39.8726917]]]}},{"type":"Feature","properties":{"building":"yes","source":"Bing","osm_id":229875614},"geometry":{"type":"Polygon","coordinates":[[[32.8424808,39.8736337],[32.8426135,39.8738319],[32.8427297,39.8737861],[32.8427252,39.8737793],[32.8427932,39.8737524],[32.8426651,39.8735611],[32.8424808,39.8736337]]]}},{"type":"Feature","properties":{"building":"yes","source":"Bing","osm_id":229875620},"geometry":{"type":"Polygon","coordinates":[[[32.8430942,39.8724612],[32.8431805,39.8726927],[32.843245,39.872716],[32.8433313,39.8726759],[32.8433605,39.8726441],[32.8434286,39.8725209],[32.8432353,39.8724537],[32.8431295,39.87245],[32.8430942,39.8724612]]]}}]}