{"type":"FeatureCollection","features":[{"type":"Feature","properties":{"addr:housenumber":"32","building":"yes","osm_id":28471394},"geometry":{"type":"Polygon","coordinates":[[[32.8547828,39.8853681],[32.8548451,39.8852123],[32.8549048,39.8851837],[32.8550243,39.8852305],[32.854949,39.8853967],[32.8547828,39.8853681]]]}},{"type":"Feature","properties":{"addr:housenumber":"9","building":"yes","osm_id":28471711},"geometry":{"type":"Polygon","coordinates":[[[32.8574859,39.8678994],[32.8577071,39.8677602],[32.8575644,39.8675391],[32.8573593,39.8676675],[32.8574859,39.8678994]]]}},{"type":"Feature","properties":{"building":"yes","addr:housenumber":"29","osm_id":67502615},"geometry":{"type":"Polygon","coordinates":[[[32.8708841,39.8884656],[32.8710469,39.8882604],[32.8712761,39.8883718],[32.8710936,39.8885581],[32.8708841,39.8884656]]]}},{"type":"Feature","properties":{"addr:housenumber":"13","building":"yes","osm_id":67502943},"geometry":{"type":"Polygon","coordinates":[[[32.8523758,39.8833796],[32.8524824,39.8833754],[32.8525786,39.8833707],[32.8525562,39.8831501],[32.8523441,39.883154],[32.8523758,39.8833796]]]}},{"type":"Feature","properties":{"addr:housenumber":"9","building":"yes","osm_id":67502944},"geometry":{"type":"Polygon","coordinates":[[[32.8529048,39.8833764],[32.852907,39.8831532],[32.8531187,39.883157],[32.8531084,39.883372],[32.8529048,39.8833764]]]}},{"type":"Feature","properties":{"addr:housenumber":"11","building":"yes","osm_id":67502945},"geometry":{"type":"Polygon","coordinates":[[[32.8526371,39.883372],[32.8527385,39.8833729],[32.8528392,39.883373],[32.8528351,39.8831471],[32.8526164,39.8831543],[32.8526371,39.883372]]]}},{"type":"Feature","properties":{"building":"yes","addr:housenumber":"24","osm_id":67502946},"geometry":{"type":"Polygon","coordinates":[[[32.8524192,39.8836688],[32.8524012,39.8835122],[32.8526063,39.8835057],[32.8526254,39.8836628],[32.8524192,39.8836688]]]}},{"type":"Feature","properties":{"building":"yes","addr:housenumber":"20","osm_id":67502947},"geometry":{"type":"Polygon","coordinates":[[[32.8528961,39.8836667],[32.8529021,39.8834653],[32.8530996,39.8834669],[32.8530865,39.883665],[32.8528961,39.8836667]]]}},{"type":"Feature","properties":{"building":"yes","addr:housenumber":"22","osm_id":67502948},"geometry":{"type":"Polygon","coordinates":[[[32.8526516,39.883671],[32.8526424,39.8834631],[32.8528415,39.8834675],[32.8528404,39.883671],[32.8526516,39.883671]]]}},{"type":"Feature","properties":{"addr:housenumber":"7","building":"yes","osm_id":67502949},"geometry":{"type":"Polygon","coordinates":[[[32.8531307,39.8833682],[32.8531357,39.8831788],[32.8533468,39.883181],[32.8533468,39.8833654],[32.8531307,39.8833682]]]}},{"type":"Feature","properties":{"building":"yes","addr:housenumber":"18","osm_id":67502950},"geometry":{"type":"Polygon","coordinates":[[[32.8531155,39.8836683],[32.8533059,39.8836661],[32.8533457,39.8834708],[32.8531187,39.8834686],[32.8531155,39.8836683]]]}},{"type":"Feature","properties":{"addr:housenumber":"224","building":"yes","osm_id":67503268},"geometry":{"type":"Polygon","coordinates":[[[32.8544653,39.8849409],[32.8549022,39.8850437],[32.8549282,39.884968],[32.8544843,39.8848612],[32.8544653,39.8849409]]]}},{"type":"Feature","properties":{"building":"yes","osm_id":67522911},"geometry":{"type":"Polygon","coordinates":[[[32.8503127,39.8884125],[32.8505916,39.8885936],[32.8503878,39.8887747],[32.8500981,39.8886018],[32.8503127,39.8884125]]]}},{"type":"Feature","properties":{"building":"yes","osm_id":69074236},"geometry":{"type":"Polygon","coordinates":[[[32.8496667,39.8878367],[32.8498437,39.8878614],[32.8499885,39.8879808],[32.8500261,39.8881125],[32.8500046,39.8881372],[32.8498491,39.8881166],[32.8498008,39.8880837],[32.8496184,39.8882484],[32.8495057,39.8881743],[32.8497096,39.8880179],[32.8496613,39.887989],[32.8496238,39.8878738],[32.8496667,39.8878367]]]}},{"type":"Feature","properties":{"name":"T.C. Cumhurbaşkanlığı Köşkü","building":"yes","osm_id":71882045},"geometry":{"type":"Polygon","coordinates":[[[32.8661998,39.8869676],[32.8658989,39.8872916],[32.8656994,39.8871826],[32.8655893,39.8873011],[32.8654125,39.8872044],[32.865527,39.8870812],[32.865791,39.8867969],[32.8653492,39.8865554],[32.8649952,39.8869367],[32.8651881,39.8870422],[32.8649852,39.8872607],[32.8651372,39.8873438],[32.8650549,39.8874325],[32.8651322,39.8874747],[32.8650466,39.8875669],[32.8652393,39.8876722],[32.8652959,39.8876113],[32.8653791,39.8876567],[32.8654325,39.8875992],[32.8656232,39.8877034],[32.8657652,39.8875504],[32.8659803,39.887668],[32.8664856,39.8871239],[32.8661998,39.8869676]]]}},{"type":"Feature","properties":{"building":"yes","osm_id":90285309},"geometry":{"type":"Polygon","coordinates":[[[32.8729605,39.8887517],[32.8727218,39.888622],[32.8729605,39.8883771],[32.8731879,39.8885095],[32.8729605,39.8887517]]]}},{"type":"Feature","properties":{"amenity":"public_building","building":"yes","name":"Atrium İş Merkezi","osm_id":155024461},"geometry":{"type":"Polygon","coordinates":[[[32.8012848,39.8833389],[32.8013011,39.8833517],[32.8014959,39.8835047],[32.8015145,39.8835194],[32.8017022,39.8833787],[32.8017443,39.8834118],[32.801788,39.8833791],[32.8018229,39.8834065],[32.8018605,39.8833783],[32.8019007,39.8834099],[32.8020558,39.8832937],[32.8020136,39.8832605],[32.8020546,39.8832298],[32.8020097,39.8831945],[32.8020426,39.8831698],[32.8014533,39.8827068],[32.8014191,39.8827324],[32.8013751,39.8826978],[32.8013453,39.8827201],[32.8013053,39.8826886],[32.8011408,39.8828119],[32.8011775,39.8828407],[32.8011363,39.8828716],[32.8011729,39.8829004],[32.8011342,39.8829294],[32.8014744,39.8831967],[32.8012848,39.8833389]]]}},{"type":"Feature","properties":{"name":"Meral Apt.","addr:housename":"Meral Apt.","addr:housenumber":"46","addr:postcode":"06550","addr:street":"Aleksander Dubçek Cad.","building":"apartments","osm_id":171229275},"geometry":{"type":"Polygon","coordinates":[[[32.8513096,39.8686786],[32.8512117,39.8688478],[32.8515014,39.8689343],[32.8516047,39.8687692],[32.8513096,39.8686786]]]}},{"type":"Feature","properties":{"addr:housename":"Ulutepe Apt.","addr:housenumber":"10","addr:postcode":"06550","addr:street":"639. Cad.","building":"apartments","name":"Ulutepe Apt.","osm_id":171229477},"geometry":{"type":"Polygon","coordinates":[[[32.8447946,39.8532988],[32.844741,39.8531197],[32.8448671,39.8531053],[32.8449073,39.8532865],[32.8447946,39.8532988]]]}},{"type":"Feature","properties":{"name":"Akın 1 Apartmanı","building":"yes","osm_id":172146552},"geometry":{"type":"Polygon","coordinates":[[[32.8257323,39.8476157],[32.825786,39.8473933],[32.8261239,39.847451],[32.8260663,39.8476841],[32.8257323,39.8476157]]]}},{"type":"Feature","properties":{"building":"yes","name":"Akın 2 Apartmanı","osm_id":172146554},"geometry":{"type":"Polygon","coordinates":[[[32.8272451,39.8471792],[32.8271056,39.8469897],[32.8274597,39.8468414],[32.8275898,39.8470581],[32.8272451,39.8471792]]]}},{"type":"Feature","properties":{"building":"yes","name":"Akın 4 Apartmanı","osm_id":172146837},"geometry":{"type":"Polygon","coordinates":[[[32.8259898,39.8468867],[32.8261186,39.846689],[32.8259,39.8465721],[32.8257283,39.8467904],[32.8259898,39.8468867]]]}},{"type":"Feature","properties":{"building":"yes","name":"Akın 3 Apartmanı","osm_id":172146838},"geometry":{"type":"Polygon","coordinates":[[[32.8264619,39.847138],[32.8266228,39.8469403],[32.8263439,39.8467755],[32.8261575,39.8470169],[32.8264619,39.847138]]]}},{"type":"Feature","properties":{"building":"residential","name":"Ege Botanik Konutları","osm_id":198921243},"geometry":{"type":"Polygon","coordinates":[[[32.8530211,39.8778261],[32.8534207,39.8775292],[32.8536236,39.8773783],[32.8538646,39.8771982],[32.8539661,39.877057],[32.8530147,39.8766093],[32.8523615,39.8772907],[32.8522536,39.877461],[32.8530211,39.8778261]]]}},{"type":"Feature","properties":{"building":"residential","name":"Ege Flora Konutları","osm_id":198921245},"geometry":{"type":"Polygon","coordinates":[[[32.8533297,39.8760808],[32.8522668,39.8757056],[32.8522623,39.8755335],[32.8521367,39.8753373],[32.8521233,39.8751274],[32.8521412,39.8750069],[32.8522578,39.8748452],[32.8523968,39.8747557],[32.8526166,39.8746559],[32.8528094,39.8745836],[32.8529754,39.8745595],[32.8531548,39.8745698],[32.8532893,39.874649],[32.8533969,39.8747419],[32.8535763,39.8750207],[32.8537692,39.8752788],[32.8538992,39.8754716],[32.8536795,39.875709],[32.8533297,39.8760808]]]}},{"type":"Feature","properties":{"building":"residential","name":"Koz Vadi Sitesi","osm_id":198921250},"geometry":{"type":"Polygon","coordinates":[[[32.8519504,39.8751194],[32.8519638,39.875288],[32.8520894,39.875584],[32.852067,39.8759351],[32.8521253,39.8761416],[32.8521298,39.876238],[32.8519459,39.8762999],[32.851771,39.876293],[32.8516006,39.876238],[32.8512283,39.8762276],[32.8511117,39.8761898],[32.8510041,39.8761967],[32.8509817,39.8756563],[32.8510131,39.8753706],[32.8511431,39.8752364],[32.8512821,39.8751366],[32.8513987,39.8751159],[32.8519504,39.8751194]]]}}]}