{"type":"FeatureCollection","features":[{"type":"Feature","properties":{},"geometry":{"type":"Polygon","coordinates":[[[32.85456,39.84481],[32.85499,39.84511],[32.85245,39.84658],[32.85236,39.84663],[32.85183,39.84616],[32.85182,39.84615],[32.85173,39.84607],[32.85085,39.84529],[32.85073,39.84514],[32.85069,39.84507],[32.85063,39.84495],[32.85057,39.8448],[32.85051,39.84467],[32.84947,39.84302],[32.85028,39.84277],[32.85056,39.84264],[32.85064,39.84247],[32.85063,39.84231],[32.85052,39.84213],[32.85033,39.8419],[32.85051,39.84157],[32.85065,39.84131],[32.85085,39.84111],[32.85108,39.84103],[32.85144,39.84097],[32.85303,39.84084],[32.85348,39.84141],[32.85339,39.84164],[32.85332,39.84192],[32.85329,39.84212],[32.85332,39.84232],[32.85339,39.84251],[32.85353,39.84279],[32.85359,39.84307],[32.85361,39.84341],[32.85366,39.84375],[32.85375,39.84401],[32.85392,39.8442],[32.85418,39.84445],[32.85428,39.84456],[32.85456,39.84481]]]}},{"type":"Feature","properties":{},"geometry":{"type":"Polygon","coordinates":[[[32.82858,39.8468],[32.82865,39.84677],[32.82869,39.84674],[32.82882,39.84658],[32.82894,39.84642],[32.82906,39.84613],[32.82942,39.84545],[32.82942,39.84534],[32.8294,39.84526],[32.82935,39.8452],[32.82927,39.84514],[32.8292,39.84511],[32.82901,39.84507],[32.82895,39.84506],[32.82846,39.84498],[32.82829,39.84495],[32.82812,39.84493],[32.8277,39.84488],[32.82686,39.8448],[32.8261,39.84473],[32.82579,39.84516],[32.82685,39.84586],[32.82704,39.84598],[32.82858,39.8468]]]}},{"type":"Feature","properties":{},"geometry":{"type":"Polygon","coordinates":[[[32.82593,39.84799],[32.82615,39.8479],[32.8263,39.84788],[32.82638,39.84787],[32.82662,39.84782],[32.82679,39.84778],[32.82707,39.84788],[32.82731,39.84801],[32.82798,39.8485],[32.8275,39.8489],[32.82679,39.84844],[32.82662,39.84856],[32.82639,39.8484],[32.82585,39.84802],[32.82593,39.84799]]]}},{"type":"Feature","properties":{},"geometry":{"type":"Polygon","coordinates":[[[32.84533,39.85696],[32.84499,39.85694],[32.84429,39.8569],[32.84403,39.85685],[32.84378,39.85677],[32.84368,39.85675],[32.84356,39.85676],[32.84341,39.85679],[32.84324,39.85683],[32.84316,39.85681],[32.8431,39.8568],[32.843,39.85674],[32.84292,39.85669],[32.84289,39.8566],[32.8429,39.85655],[32.84293,39.85648],[32.84299,39.85631],[32.84301,39.85615],[32.84303,39.85604],[32.84305,39.85597],[32.84305,39.85594],[32.84341,39.85593],[32.84339,39.85552],[32.84343,39.85544],[32.84349,39.85537],[32.84354,39.85523],[32.84359,39.85515],[32.84363,39.85516],[32.84378,39.85493],[32.84372,39.85491],[32.84378,39.85477],[32.84497,39.85512],[32.84521,39.85519],[32.84564,39.85528],[32.84581,39.85531],[32.84548,39.85646],[32.84533,39.85696]]]}},{"type":"Feature","properties":{},"geometry":{"type":"Polygon","coordinates":[[[32.84782,39.85984],[32.84787,39.85989],[32.84788,39.85999],[32.84787,39.86007],[32.84779,39.86021],[32.84776,39.86036],[32.84776,39.86052],[32.84779,39.86066],[32.84791,39.86093],[32.84809,39.86122],[32.84823,39.86131],[32.84833,39.86134],[32.84842,39.86136],[32.8485,39.86136],[32.84861,39.86135],[32.8487,39.86132],[32.8488,39.86128],[32.84897,39.86117],[32.84906,39.86112],[32.84917,39.86108],[32.84935,39.86104],[32.84953,39.86102],[32.85024,39.86095],[32.85041,39.86094],[32.85044,39.8608],[32.85039,39.86039],[32.85013,39.86016],[32.84917,39.86015],[32.84871,39.86004],[32.84831,39.85993],[32.84798,39.85982],[32.84782,39.85984]]]}},{"type":"Feature","properties":{},"geometry":{"type":"Polygon","coordinates":[[[32.85333,39.85826],[32.85379,39.85875],[32.85365,39.85888],[32.85459,39.85956],[32.85478,39.85971],[32.85518,39.86001],[32.85544,39.86019],[32.85572,39.86038],[32.85608,39.86059],[32.85657,39.86085],[32.85705,39.8611],[32.8577,39.86143],[32.85873,39.86197],[32.85921,39.86222],[32.85924,39.86223],[32.86007,39.86266],[32.86085,39.86306],[32.86172,39.8635],[32.86245,39.86389],[32.863,39.86418],[32.86318,39.86407],[32.86319,39.86392],[32.8632,39.86386],[32.86323,39.86369],[32.86328,39.86351],[32.86332,39.86333],[32.86337,39.86327],[32.86354,39.8632],[32.86362,39.86316],[32.86365,39.86311],[32.86365,39.863],[32.86357,39.86275],[32.86353,39.8626],[32.86346,39.8625],[32.86341,39.86245],[32.86329,39.86239],[32.86308,39.86236],[32.86285,39.86238],[32.86269,39.86238],[32.8624,39.86236],[32.86223,39.8623],[32.86209,39.86223],[32.86195,39.86216],[32.86189,39.86208],[32.86182,39.86196],[32.86181,39.86187],[32.86185,39.86169],[32.86188,39.86158],[32.86196,39.8615],[32.86205,39.86142],[32.86207,39.86132],[32.86214,39.86127],[32.86227,39.86124],[32.86203,39.86071],[32.86185,39.86055],[32.8616,39.86039],[32.86139,39.86029],[32.86113,39.86023],[32.86096,39.86016],[32.86087,39.86011],[32.86082,39.86004],[32.86085,39.85987],[32.8608,39.85979],[32.86068,39.85966],[32.86054,39.85957],[32.86026,39.85946],[32.85999,39.85945],[32.85972,39.85948],[32.85962,39.8596],[32.85947,39.85974],[32.85911,39.85985],[32.85901,39.85994],[32.85894,39.85999],[32.85856,39.86006],[32.85842,39.86005],[32.8583,39.85999],[32.85829,39.85991],[32.8583,39.8598],[32.85835,39.8597],[32.85837,39.85963],[32.85835,39.85957],[32.85824,39.85948],[32.85801,39.85931],[32.85761,39.8591],[32.85729,39.85889],[32.85702,39.8591],[32.85693,39.85917],[32.85635,39.85881],[32.85574,39.8584],[32.85539,39.85817],[32.85521,39.85802],[32.85512,39.85797],[32.85494,39.85785],[32.85479,39.85778],[32.85461,39.85772],[32.85428,39.85763],[32.8535,39.8574],[32.85315,39.85731],[32.85299,39.85728],[32.85285,39.85727],[32.85275,39.85728],[32.85333,39.85826]]]}},{"type":"Feature","properties":{},"geometry":{"type":"Polygon","coordinates":[[[32.84675,39.86767],[32.84763,39.86683],[32.84766,39.86688],[32.84778,39.86697],[32.84791,39.86704],[32.84808,39.8671],[32.84827,39.86711],[32.84845,39.86706],[32.84876,39.86696],[32.84902,39.86686],[32.84882,39.86706],[32.84874,39.86741],[32.84864,39.86775],[32.8485,39.86796],[32.84841,39.86803],[32.84795,39.86789],[32.84775,39.86805],[32.84747,39.86812],[32.8472,39.86811],[32.84693,39.86802],[32.84679,39.86786],[32.84675,39.86767]]]}},{"type":"Feature","properties":{},"geometry":{"type":"Polygon","coordinates":[[[32.83152,39.85174],[32.83207,39.85126],[32.83212,39.85124],[32.83217,39.85121],[32.83224,39.85115],[32.83228,39.8511],[32.83257,39.85102],[32.83436,39.85103],[32.83433,39.85224],[32.83321,39.85221],[32.83277,39.8526],[32.83152,39.85174]]]}},{"type":"Feature","properties":{},"geometry":{"type":"Polygon","coordinates":[[[32.84444,39.85363],[32.84461,39.85363],[32.84476,39.85365],[32.84478,39.85359],[32.84468,39.8534],[32.84458,39.85319],[32.84451,39.85307],[32.84424,39.85321],[32.84444,39.85363]]]}}]}