{"type":"FeatureCollection","features":[{"type":"Feature","properties":{},"geometry":{"type":"Polygon","coordinates":[[[32.85456,39.84481],[32.85499,39.84511],[32.85253,39.84654],[32.85145,39.8456],[32.85121,39.84538],[32.85113,39.8453],[32.85108,39.84519],[32.85106,39.84513],[32.851,39.84492],[32.85048,39.84453],[32.84958,39.84304],[32.85028,39.84277],[32.85056,39.84264],[32.85064,39.84247],[32.85063,39.84231],[32.85052,39.84213],[32.85033,39.8419],[32.85051,39.84157],[32.85065,39.84131],[32.85085,39.84111],[32.85108,39.84103],[32.85144,39.84097],[32.85303,39.84084],[32.85348,39.84141],[32.85339,39.84164],[32.85332,39.84192],[32.85329,39.84212],[32.85332,39.84232],[32.85339,39.84251],[32.85353,39.84279],[32.85359,39.84307],[32.85361,39.84341],[32.85366,39.84375],[32.85375,39.84401],[32.85392,39.8442],[32.85418,39.84445],[32.85428,39.84456],[32.85456,39.84481]]]}},{"type":"Feature","properties":{},"geometry":{"type":"Polygon","coordinates":[[[32.82593,39.84799],[32.82615,39.8479],[32.8263,39.84788],[32.82638,39.84787],[32.82662,39.84782],[32.82679,39.84778],[32.82707,39.84788],[32.82731,39.84801],[32.82798,39.8485],[32.8275,39.8489],[32.82679,39.84844],[32.82662,39.84856],[32.82639,39.8484],[32.82585,39.84802],[32.82593,39.84799]]]}},{"type":"Feature","properties":{},"geometry":{"type":"Polygon","coordinates":[[[32.84533,39.85696],[32.84499,39.85694],[32.84429,39.8569],[32.84403,39.85685],[32.84378,39.85677],[32.84368,39.85675],[32.84356,39.85676],[32.84341,39.85679],[32.84324,39.85683],[32.84316,39.85681],[32.8431,39.8568],[32.843,39.85674],[32.84292,39.85669],[32.84289,39.8566],[32.8429,39.85655],[32.84293,39.85648],[32.84299,39.85631],[32.84301,39.85615],[32.84303,39.85604],[32.84305,39.85597],[32.84305,39.85594],[32.84341,39.85593],[32.84339,39.85552],[32.84343,39.85544],[32.84349,39.85537],[32.84354,39.85523],[32.84359,39.85515],[32.84363,39.85516],[32.84378,39.85493],[32.84372,39.85491],[32.84378,39.85477],[32.84497,39.85512],[32.84521,39.85519],[32.84564,39.85528],[32.84581,39.85531],[32.84548,39.85646],[32.84533,39.85696]]]}},{"type":"Feature","properties":{},"geometry":{"type":"Polygon","coordinates":[[[32.84793,39.85982],[32.84794,39.85991],[32.84792,39.85999],[32.84784,39.86014],[32.84782,39.86028],[32.84781,39.86044],[32.84784,39.86059],[32.84796,39.86085],[32.84814,39.86115],[32.84829,39.86123],[32.84839,39.86127],[32.84848,39.86128],[32.84856,39.86128],[32.84866,39.86127],[32.84875,39.86124],[32.84885,39.86121],[32.84902,39.86109],[32.84911,39.86105],[32.84922,39.86101],[32.8494,39.86097],[32.84959,39.86095],[32.8503,39.86088],[32.85046,39.86087],[32.85044,39.8608],[32.85039,39.86039],[32.85013,39.86016],[32.84917,39.86015],[32.84871,39.86004],[32.84831,39.85993],[32.84798,39.85982],[32.84793,39.85982]]]}},{"type":"Feature","properties":{},"geometry":{"type":"Polygon","coordinates":[[[32.84675,39.86767],[32.84763,39.86683],[32.84766,39.86688],[32.84778,39.86697],[32.84791,39.86704],[32.84808,39.8671],[32.84827,39.86711],[32.84845,39.86706],[32.84876,39.86696],[32.84902,39.86686],[32.84882,39.86706],[32.84874,39.86741],[32.84864,39.86775],[32.8485,39.86796],[32.84841,39.86803],[32.84795,39.86789],[32.84775,39.86805],[32.84747,39.86812],[32.8472,39.86811],[32.84693,39.86802],[32.84679,39.86786],[32.84675,39.86767]]]}},{"type":"Feature","properties":{},"geometry":{"type":"Polygon","coordinates":[[[32.83324,39.85174],[32.83323,39.85107],[32.83436,39.85103],[32.83433,39.85224],[32.83324,39.85219],[32.8332,39.8522],[32.83324,39.85174]]]}},{"type":"Feature","properties":{},"geometry":{"type":"Polygon","coordinates":[[[32.84443,39.85361],[32.84459,39.85361],[32.84475,39.85363],[32.84477,39.85357],[32.84467,39.85338],[32.84455,39.8532],[32.84451,39.85309],[32.84423,39.85319],[32.84443,39.85361]]]}}]}