{"type":"FeatureCollection","features":[{"type":"Feature","properties":{"landuse":"construction","name":"Sinpaş Boulevard İnşaatı","osm_id":404667189},"geometry":{"type":"Polygon","coordinates":[[[32.8540122,39.8450295],[32.8541212,39.8451401],[32.8542734,39.845473],[32.853112,39.8460875],[32.853007,39.8460611],[32.8525498,39.8457849],[32.8524437,39.8456913],[32.852313,39.8454985],[32.8521892,39.8455384],[32.8520459,39.8453608],[32.8516525,39.8449668],[32.8515616,39.8449277],[32.8516345,39.8447274],[32.8517109,39.8444314],[32.8519337,39.8443087],[32.8517888,39.8438852],[32.8517205,39.8436746],[32.8532964,39.8433904],[32.8534557,39.8438724],[32.8535325,39.8438634],[32.8535762,39.8440332],[32.8536376,39.8442182],[32.8537754,39.844512],[32.8538803,39.8447452],[32.8540122,39.8450295]]]}},{"type":"Feature","properties":{"landuse":"construction","name":"Sinpaş Ege Vadisi","osm_id":466450418},"geometry":{"type":"Polygon","coordinates":[[[32.8453311,39.8569641],[32.8449931,39.8569393],[32.844293,39.8568981],[32.8440276,39.8568518],[32.8437835,39.8567726],[32.8436816,39.8567489],[32.8435555,39.8567602],[32.8434067,39.856787],[32.843235,39.8568302],[32.8431358,39.8568004],[32.8430701,39.8567819],[32.8429748,39.8567294],[32.8428957,39.8566717],[32.8428622,39.8565873],[32.8428689,39.8565368],[32.8428997,39.8564607],[32.8429641,39.8562949],[32.8429829,39.8561353],[32.8429988,39.8560269],[32.8430218,39.8559531],[32.8430271,39.8559211],[32.8433843,39.8559157],[32.8432513,39.855509],[32.8432769,39.8553441],[32.843312,39.8552168],[32.8433683,39.8550867],[32.8434534,39.855046],[32.8435205,39.8549249],[32.8435681,39.8548891],[32.843691,39.8548917],[32.8437148,39.854734],[32.8449731,39.8551223],[32.8452115,39.8551908],[32.8456411,39.8552792],[32.8458058,39.85531],[32.8454759,39.8564596],[32.8453311,39.8569641]]]}},{"type":"Feature","properties":{"construction":"residential","landuse":"construction","name":"Funda ROMA","note":"building is sued probably because of seeing the prime ministry complex and the military base nearby","osm_id":472150058},"geometry":{"type":"Polygon","coordinates":[[[32.86533,39.8785504],[32.8651773,39.87827],[32.8650399,39.8780434],[32.864966,39.878052],[32.8648831,39.877827],[32.8650122,39.8777827],[32.8649141,39.8775655],[32.8650144,39.8773821],[32.8654804,39.8771723],[32.8656678,39.8770345],[32.8661779,39.8774993],[32.8666112,39.8780206],[32.8662913,39.8783737],[32.8660957,39.8785766],[32.8657801,39.8789378],[32.865583,39.8788213],[32.8654333,39.8788486],[32.8653154,39.8786257],[32.86533,39.8785504]]]}},{"type":"Feature","properties":{"landuse":"construction","osm_id":473839792},"geometry":{"type":"Polygon","coordinates":[[[32.8479275,39.8598188],[32.8479382,39.8599146],[32.8479234,39.8599948],[32.8478416,39.8601369],[32.8478175,39.8602831],[32.8478148,39.8604437],[32.8478443,39.8605899],[32.8479597,39.8608513],[32.8481394,39.8611458],[32.8482855,39.8612333],[32.8483861,39.8612683],[32.8484773,39.8612827],[32.8485578,39.8612847],[32.8486624,39.8612724],[32.8487549,39.8612446],[32.8488528,39.8612055],[32.8490191,39.8610943],[32.8491149,39.8610469],[32.8492189,39.8610058],[32.8494047,39.8609671],[32.8495864,39.8609471],[32.8502959,39.8608761],[32.8504621,39.8608677],[32.850439,39.8607968],[32.850394,39.8603927],[32.8501253,39.8601641],[32.8491714,39.8601453],[32.8487067,39.8600412],[32.8483138,39.8599268],[32.84798,39.8598209],[32.8479275,39.8598188]]]}},{"type":"Feature","properties":{"landuse":"construction","osm_id":679404789},"geometry":{"type":"Polygon","coordinates":[[[32.8761832,39.888092],[32.8762224,39.8881536],[32.8767691,39.888511],[32.8768422,39.8884736],[32.8773586,39.8889072],[32.8777437,39.889016],[32.8780822,39.8890253],[32.8780729,39.8887485],[32.8780742,39.8885973],[32.8780916,39.8884861],[32.8781131,39.8883729],[32.8781453,39.8882803],[32.8782096,39.8881435],[32.8783692,39.8878512],[32.8779106,39.8877339],[32.8777389,39.887668],[32.8775404,39.8875734],[32.8765405,39.8870412],[32.8765018,39.8871713],[32.8764357,39.8874566],[32.8764273,39.8875531],[32.8764194,39.8876438],[32.8764723,39.8878154],[32.8763115,39.8879716],[32.8761832,39.888092]]]}},{"type":"Feature","properties":{"landuse":"construction","osm_id":738127406},"geometry":{"type":"Polygon","coordinates":[[[32.8467259,39.8676576],[32.8475392,39.8668057],[32.8476647,39.8668805],[32.8477773,39.86697],[32.8479114,39.867041],[32.848075,39.8670987],[32.8482681,39.8671059],[32.8484519,39.8670596],[32.8487617,39.8669597],[32.8489065,39.866897],[32.8491533,39.8672335],[32.8491559,39.8676185],[32.8490648,39.8677955],[32.8488368,39.8679932],[32.8483808,39.8680138],[32.8479275,39.8678759],[32.8477264,39.8680385],[32.8474474,39.8681105],[32.8471711,39.8680982],[32.8469002,39.8680055],[32.8467608,39.8678491],[32.8467259,39.8676576]]]}},{"type":"Feature","properties":{"landuse":"construction","osm_id":738133290},"geometry":{"type":"Polygon","coordinates":[[[32.8332383,39.8517446],[32.83323,39.851072],[32.8343756,39.851094],[32.8343735,39.8511242],[32.834366,39.8522313],[32.8332417,39.8521868],[32.833198,39.8521983],[32.8332383,39.8517446]]]}},{"type":"Feature","properties":{"landuse":"construction","osm_id":739124415},"geometry":{"type":"Polygon","coordinates":[[[32.8443991,39.8535976],[32.8445949,39.853613],[32.8447515,39.8536283],[32.8447666,39.8535682],[32.8446716,39.8533803],[32.8445522,39.8531951],[32.8444789,39.8530784],[32.8442073,39.8531755],[32.8443991,39.8535976]]]}},{"type":"Feature","properties":{"landuse":"brownfield","osm_id":851028378},"geometry":{"type":"Polygon","coordinates":[[[32.8405381,39.8887636],[32.8403599,39.8883154],[32.8402411,39.887809],[32.840944,39.887733],[32.8410958,39.8877634],[32.8411123,39.88789],[32.8411651,39.8879229],[32.8411783,39.8879862],[32.8412542,39.8880521],[32.8413334,39.8882166],[32.8413466,39.8883483],[32.841109,39.8885711],[32.8411288,39.8886268],[32.8405381,39.8887636]]]}},{"type":"Feature","properties":{"landuse":"construction","osm_id":856571679},"geometry":{"type":"Polygon","coordinates":[[[32.8644848,39.8631613],[32.8649622,39.8633508],[32.8652304,39.8634949],[32.8654933,39.8636802],[32.8655308,39.8637584],[32.8657643,39.8638879],[32.8662411,39.8641477],[32.866255,39.8640569],[32.8663489,39.8640013],[32.8664589,39.8639931],[32.8666091,39.8639293],[32.8668612,39.8636966],[32.8669041,39.8636102],[32.8669256,39.8634866],[32.8669524,39.8632231],[32.8671026,39.8630749],[32.8673226,39.8629761],[32.8675425,39.8629431],[32.8676766,39.8629061],[32.8679073,39.8627702],[32.8680628,39.8626261],[32.8679743,39.8624119],[32.8678322,39.8621772],[32.8676122,39.8619899],[32.867234,39.8618293],[32.8665367,39.861681],[32.8661102,39.8616358],[32.8657964,39.8616625],[32.8655308,39.8617449],[32.8654182,39.8618396],[32.8647101,39.8628525],[32.8644848,39.8631613]]]}},{"type":"Feature","properties":{"landuse":"construction","residential":"apartments","osm_id":1152252967},"geometry":{"type":"Polygon","coordinates":[[[32.8417042,39.8618846],[32.8415185,39.8620428],[32.8413762,39.8622059],[32.8410179,39.8623712],[32.8407159,39.8622916],[32.8405097,39.8621167],[32.8402815,39.8620631],[32.8391491,39.8614082],[32.8389839,39.8612272],[32.838759,39.8611188],[32.8383736,39.8609652],[32.8381921,39.8608656],[32.8390489,39.8600463],[32.8388397,39.8599253],[32.8384446,39.859837],[32.8386946,39.8592063],[32.838753,39.8591029],[32.838934,39.858939],[32.8394043,39.8591047],[32.8396619,39.8591894],[32.8397328,39.8592555],[32.8398646,39.859309],[32.8398909,39.8593688],[32.8399007,39.8594523],[32.84013,39.8596069],[32.840403,39.8599753],[32.84057,39.8600829],[32.8408784,39.8604222],[32.8409895,39.860805],[32.8412055,39.861133],[32.8415416,39.8615962],[32.8417042,39.8618846]]]}},{"type":"Feature","properties":{"landuse":"construction","name":"Vien Oran","osm_id":1212223411},"geometry":{"type":"Polygon","coordinates":[[[32.8217066,39.851326],[32.821491,39.8510921],[32.8214161,39.8509854],[32.8213744,39.8509111],[32.8213705,39.8508544],[32.8213923,39.8507788],[32.8214405,39.8507253],[32.8226145,39.8500405],[32.8230997,39.8508186],[32.8217066,39.851326]]]}},{"type":"Feature","properties":{"landuse":"construction","osm_id":1212223412},"geometry":{"type":"Polygon","coordinates":[[[32.822042,39.871138],[32.8223718,39.8708607],[32.8227366,39.8710926],[32.8233152,39.870561],[32.8234488,39.8706129],[32.8235833,39.8706289],[32.8237138,39.8706217],[32.8241074,39.8704729],[32.8241214,39.870564],[32.824148,39.8706256],[32.8241223,39.8706984],[32.8240057,39.8708155],[32.8240886,39.8708636],[32.8236414,39.8713069],[32.8236855,39.8713328],[32.8231185,39.8718555],[32.8229453,39.8717553],[32.8226405,39.871613],[32.8222605,39.8713835],[32.8222533,39.8713366],[32.8222042,39.8712537],[32.822042,39.871138]]]}},{"type":"Feature","properties":{"landuse":"construction","osm_id":1212223415},"geometry":{"type":"Polygon","coordinates":[[[32.8126223,39.8850532],[32.8137252,39.8849931],[32.8132726,39.8834118],[32.8130707,39.8833283],[32.8123951,39.883406],[32.8124125,39.8836614],[32.8124959,39.8843462],[32.8125585,39.8843988],[32.8126223,39.8850532]]]}},{"type":"Feature","properties":{"construction":"residential","landuse":"construction","osm_id":1212223416},"geometry":{"type":"Polygon","coordinates":[[[32.8140148,39.8852258],[32.8143874,39.8851834],[32.8140261,39.8840087],[32.8136623,39.8840751],[32.81399,39.8851449],[32.8140148,39.8852258]]]}},{"type":"Feature","properties":{"landuse":"construction","osm_id":1311121040},"geometry":{"type":"Polygon","coordinates":[[[32.8276486,39.8822628],[32.8267402,39.8822217],[32.8267171,39.8819559],[32.8268401,39.8818669],[32.8270491,39.8817596],[32.827204,39.8819531],[32.8276668,39.8819963],[32.8276518,39.8821455],[32.8276486,39.8822628]]]}},{"type":"Feature","properties":{"landuse":"construction","osm_id":1311121041},"geometry":{"type":"Polygon","coordinates":[[[32.826363,39.8851798],[32.8262496,39.8848727],[32.8258624,39.8849535],[32.8259652,39.8852744],[32.826363,39.8851798]]]}},{"type":"Feature","properties":{"landuse":"construction","osm_id":1480923249},"geometry":{"type":"Polygon","coordinates":[[[32.8019292,39.8835415],[32.8022468,39.8832295],[32.801374,39.8825028],[32.801028,39.8827061],[32.8011346,39.8835679],[32.8016748,39.8835572],[32.8019292,39.8835415]]]}},{"type":"Feature","properties":{"landuse":"construction","osm_id":1484056563},"geometry":{"type":"Polygon","coordinates":[[[32.8142704,39.8870182],[32.8143217,39.8870631],[32.8143384,39.8871538],[32.8143432,39.8872875],[32.8144506,39.8877748],[32.8144528,39.8878251],[32.8138671,39.8878573],[32.8129454,39.8879003],[32.8128714,39.8879058],[32.8128033,39.8873874],[32.8128833,39.8871785],[32.812943,39.8871217],[32.812986,39.8870933],[32.8130456,39.887065],[32.8130803,39.8870503],[32.8131877,39.8870338],[32.8133285,39.8870256],[32.8137511,39.8870338],[32.814139,39.8870146],[32.8142704,39.8870182]]]}}]}