{"type":"FeatureCollection","features":[{"type":"Feature","properties":{},"geometry":{"type":"Polygon","coordinates":[[[32.85428,39.84488],[32.85462,39.84516],[32.85455,39.84527],[32.85417,39.84546],[32.85374,39.84569],[32.85321,39.84598],[32.8527,39.84627],[32.85212,39.84664],[32.85175,39.84626],[32.85077,39.84546],[32.85091,39.84491],[32.85078,39.84453],[32.85032,39.84284],[32.85066,39.84173],[32.85075,39.84128],[32.85087,39.84113],[32.85111,39.84101],[32.85145,39.84092],[32.8517,39.84097],[32.85307,39.84094],[32.85323,39.84131],[32.8532,39.84164],[32.85314,39.84183],[32.85315,39.84236],[32.85331,39.84284],[32.85344,39.84349],[32.85347,39.84376],[32.85355,39.84402],[32.85373,39.84423],[32.85428,39.84488]]]}},{"type":"Feature","properties":{},"geometry":{"type":"Polygon","coordinates":[[[32.82618,39.8483],[32.82625,39.84824],[32.82653,39.848],[32.82693,39.84805],[32.82707,39.84807],[32.82731,39.84821],[32.82675,39.84866],[32.82636,39.84843],[32.82618,39.8483]]]}}]}