{"type":"FeatureCollection","features":[{"type":"Feature","properties":{},"geometry":{"type":"Polygon","coordinates":[[[32.85401,39.84503],[32.85412,39.84514],[32.85427,39.8455],[32.85307,39.84621],[32.85279,39.84596],[32.85239,39.8456],[32.85187,39.84515],[32.85159,39.84488],[32.85171,39.84443],[32.85193,39.84431],[32.85179,39.84389],[32.85172,39.84367],[32.8517,39.8436],[32.85164,39.84329],[32.8516,39.843],[32.85164,39.84292],[32.85166,39.84287],[32.85165,39.84273],[32.85165,39.84254],[32.8517,39.84252],[32.85175,39.84235],[32.85187,39.84236],[32.85205,39.84235],[32.85242,39.84228],[32.85248,39.84226],[32.85259,39.84229],[32.85268,39.84232],[32.85275,39.8423],[32.85293,39.84228],[32.85306,39.84237],[32.853,39.84257],[32.85313,39.84292],[32.85322,39.84322],[32.85332,39.84338],[32.85346,39.84379],[32.85349,39.84388],[32.85354,39.84387],[32.85358,39.84403],[32.85364,39.84422],[32.85378,39.84451],[32.85388,39.84475],[32.85401,39.84503]]]}},{"type":"Feature","properties":{},"geometry":{"type":"Polygon","coordinates":[[[32.84533,39.85696],[32.84499,39.85694],[32.84429,39.8569],[32.84403,39.85685],[32.84378,39.85677],[32.84368,39.85675],[32.84356,39.85676],[32.84341,39.85679],[32.84324,39.85683],[32.84316,39.85681],[32.8431,39.8568],[32.843,39.85674],[32.84292,39.85669],[32.84289,39.8566],[32.8429,39.85655],[32.84293,39.85648],[32.84299,39.85631],[32.84301,39.85615],[32.84303,39.85604],[32.84305,39.85597],[32.84305,39.85594],[32.84341,39.85593],[32.84339,39.85552],[32.84343,39.85544],[32.84349,39.85537],[32.84354,39.85523],[32.84359,39.85515],[32.84363,39.85516],[32.84378,39.85493],[32.84372,39.85491],[32.84371,39.85473],[32.84497,39.85512],[32.84521,39.85519],[32.84564,39.85528],[32.84581,39.85531],[32.84548,39.85646],[32.84533,39.85696]]]}},{"type":"Feature","properties":{},"geometry":{"type":"Polygon","coordinates":[[[32.84793,39.85982],[32.84794,39.85991],[32.84792,39.85999],[32.84784,39.86014],[32.84782,39.86028],[32.84781,39.86044],[32.84784,39.86059],[32.84796,39.86085],[32.84814,39.86115],[32.84829,39.86123],[32.84839,39.86127],[32.84848,39.86128],[32.84856,39.86128],[32.84866,39.86127],[32.84875,39.86124],[32.84885,39.86121],[32.84902,39.86109],[32.84911,39.86105],[32.84922,39.86101],[32.8494,39.86097],[32.84959,39.86095],[32.8503,39.86088],[32.85046,39.86087],[32.85044,39.8608],[32.85039,39.86039],[32.85013,39.86016],[32.84917,39.86015],[32.84871,39.86004],[32.84831,39.85993],[32.84798,39.85982],[32.84793,39.85982]]]}},{"type":"Feature","properties":{},"geometry":{"type":"Polygon","coordinates":[[[32.84675,39.86767],[32.84763,39.86683],[32.84766,39.86688],[32.84778,39.86697],[32.84791,39.86704],[32.84808,39.8671],[32.84827,39.86711],[32.84845,39.86706],[32.84876,39.86696],[32.84902,39.86686],[32.84882,39.86706],[32.84874,39.86741],[32.84864,39.86775],[32.8485,39.86796],[32.84841,39.86803],[32.84795,39.86789],[32.84775,39.86805],[32.84747,39.86812],[32.8472,39.86811],[32.84693,39.86802],[32.84679,39.86786],[32.84675,39.86767]]]}},{"type":"Feature","properties":{},"geometry":{"type":"Polygon","coordinates":[[[32.83324,39.85174],[32.83323,39.85107],[32.83436,39.85103],[32.83433,39.85224],[32.83324,39.85219],[32.8332,39.8522],[32.83324,39.85174]]]}},{"type":"Feature","properties":{},"geometry":{"type":"Polygon","coordinates":[[[32.84443,39.85361],[32.84459,39.85361],[32.84475,39.85363],[32.84477,39.85357],[32.84467,39.85338],[32.84455,39.8532],[32.84451,39.85309],[32.84423,39.85319],[32.84443,39.85361]]]}},{"type":"Feature","properties":{},"geometry":{"type":"Polygon","coordinates":[[[32.8405,39.85624],[32.84024,39.85642],[32.84022,39.85647],[32.84021,39.85652],[32.84021,39.85655],[32.84023,39.85659],[32.84024,39.85661],[32.84026,39.85662],[32.8403,39.85664],[32.84034,39.85666],[32.84037,39.85668],[32.84039,39.8567],[32.8404,39.85673],[32.84041,39.85677],[32.84041,39.85681],[32.84041,39.85683],[32.8404,39.85686],[32.84037,39.8569],[32.84033,39.85694],[32.84031,39.85697],[32.84028,39.85703],[32.84023,39.85716],[32.84022,39.8572],[32.84023,39.85724],[32.84025,39.85729],[32.84026,39.85732],[32.84029,39.85735],[32.84038,39.85741],[32.8404,39.85743],[32.84041,39.85745],[32.84043,39.85749],[32.84045,39.85755],[32.84047,39.85757],[32.84048,39.85758],[32.84052,39.85758],[32.84058,39.85758],[32.84063,39.85758],[32.84067,39.85759],[32.84075,39.85762],[32.84084,39.85765],[32.8409,39.85769],[32.84095,39.85773],[32.84099,39.85778],[32.84102,39.85788],[32.84102,39.85796],[32.84102,39.8581],[32.84101,39.85819],[32.84101,39.85823],[32.84104,39.85828],[32.84123,39.8585],[32.84141,39.85865],[32.84145,39.85867],[32.84148,39.85867],[32.84153,39.85867],[32.84171,39.85861],[32.84183,39.85853],[32.84209,39.85831],[32.84233,39.85804],[32.8424,39.85797],[32.84244,39.85796],[32.84251,39.85796],[32.84261,39.85797],[32.84275,39.85782],[32.84242,39.85764],[32.84211,39.85743],[32.8419,39.8573],[32.84173,39.85717],[32.84154,39.85705],[32.8414,39.85695],[32.84117,39.85676],[32.84073,39.85644],[32.8405,39.85624]]]}},{"type":"Feature","properties":{},"geometry":{"type":"Polygon","coordinates":[[[32.8417,39.86188],[32.84152,39.86204],[32.84138,39.86221],[32.84102,39.86237],[32.84072,39.86229],[32.84051,39.86212],[32.84028,39.86206],[32.83915,39.86141],[32.83898,39.86123],[32.83876,39.86112],[32.83837,39.86097],[32.83808,39.86087],[32.83905,39.86005],[32.83884,39.85993],[32.83844,39.85984],[32.83869,39.85921],[32.83875,39.8591],[32.83893,39.85894],[32.8394,39.8591],[32.83966,39.85919],[32.83973,39.85926],[32.83986,39.85931],[32.83989,39.85937],[32.8399,39.85945],[32.84013,39.85961],[32.8404,39.85998],[32.84057,39.86008],[32.84088,39.86042],[32.84099,39.86081],[32.84121,39.86113],[32.84154,39.8616],[32.8417,39.86188]]]}},{"type":"Feature","properties":{},"geometry":{"type":"Polygon","coordinates":[[[32.82171,39.85133],[32.82149,39.85109],[32.82142,39.85099],[32.82137,39.85091],[32.82137,39.85085],[32.82139,39.85078],[32.82144,39.85073],[32.82261,39.85004],[32.82309,39.85081],[32.82171,39.85133]]]}}]}