{"type":"FeatureCollection","features":[{"type":"Feature","properties":{},"geometry":{"type":"Polygon","coordinates":[[[32.85428,39.84488],[32.85466,39.84523],[32.85455,39.84527],[32.85417,39.84546],[32.85212,39.84664],[32.85175,39.84626],[32.85077,39.84546],[32.85091,39.84491],[32.85078,39.84453],[32.85032,39.84284],[32.85066,39.84173],[32.85075,39.84128],[32.85087,39.84113],[32.85111,39.84101],[32.85146,39.84097],[32.8517,39.84097],[32.85307,39.84094],[32.85323,39.84131],[32.8532,39.84164],[32.85314,39.84183],[32.85315,39.84236],[32.85331,39.84284],[32.85344,39.84349],[32.85347,39.84376],[32.85355,39.84402],[32.85373,39.84423],[32.85428,39.84488]]]}},{"type":"Feature","properties":{},"geometry":{"type":"Polygon","coordinates":[[[32.82857,39.8468],[32.82866,39.84675],[32.82891,39.84622],[32.829,39.84602],[32.82918,39.84577],[32.82933,39.84545],[32.82932,39.84536],[32.82927,39.84529],[32.82922,39.84525],[32.8291,39.8452],[32.8288,39.84512],[32.82819,39.84505],[32.8272,39.84495],[32.82627,39.84486],[32.82591,39.84482],[32.82571,39.84517],[32.82708,39.84602],[32.82857,39.8468]]]}},{"type":"Feature","properties":{},"geometry":{"type":"Polygon","coordinates":[[[32.82601,39.84807],[32.82622,39.84797],[32.82654,39.8479],[32.8268,39.84791],[32.82699,39.84793],[32.82695,39.84799],[32.82705,39.84803],[32.82711,39.84797],[32.82773,39.84848],[32.82734,39.84879],[32.82679,39.84844],[32.82667,39.84853],[32.82641,39.84835],[32.82601,39.84807]]]}},{"type":"Feature","properties":{},"geometry":{"type":"Polygon","coordinates":[[[32.84525,39.85688],[32.84516,39.8569],[32.84513,39.85691],[32.84472,39.85688],[32.84447,39.85686],[32.84439,39.85686],[32.84432,39.85686],[32.84425,39.85685],[32.8442,39.85683],[32.84413,39.85682],[32.84405,39.85679],[32.84399,39.85677],[32.84391,39.85676],[32.84378,39.85674],[32.84369,39.85672],[32.84366,39.85671],[32.84363,39.85672],[32.84359,39.85673],[32.84351,39.85674],[32.84341,39.85674],[32.84331,39.85675],[32.84322,39.85675],[32.84313,39.85674],[32.84306,39.85672],[32.84297,39.85665],[32.84294,39.8566],[32.84294,39.85655],[32.84298,39.85648],[32.84301,39.85643],[32.84307,39.85634],[32.8433,39.85595],[32.84337,39.85588],[32.84351,39.85582],[32.84349,39.85559],[32.84349,39.85555],[32.84351,39.85547],[32.84356,39.85539],[32.84364,39.85527],[32.84372,39.85518],[32.84383,39.85503],[32.84392,39.85486],[32.84514,39.85523],[32.84551,39.85532],[32.84571,39.85535],[32.84525,39.85688]]]}},{"type":"Feature","properties":{},"geometry":{"type":"Polygon","coordinates":[[[32.84801,39.85987],[32.84792,39.86008],[32.84784,39.86041],[32.84784,39.8606],[32.84798,39.86091],[32.84813,39.86118],[32.8483,39.86129],[32.84847,39.86132],[32.84866,39.86129],[32.84877,39.86125],[32.84895,39.86111],[32.84911,39.86103],[32.8493,39.86102],[32.84996,39.86096],[32.85024,39.86093],[32.85035,39.86087],[32.85042,39.86079],[32.85038,39.86041],[32.8501,39.8602],[32.84919,39.86016],[32.84801,39.85987]]]}}]}