{"type":"FeatureCollection","features":[{"type":"Feature","properties":{},"geometry":{"type":"Polygon","coordinates":[[[32.8406,39.8498],[32.84082,39.8489],[32.84092,39.8485],[32.84096,39.84825],[32.84106,39.84818],[32.8411,39.84817],[32.84116,39.8482],[32.84231,39.8487],[32.84147,39.84996],[32.8406,39.8498]]]}},{"type":"Feature","properties":{},"geometry":{"type":"Polygon","coordinates":[[[32.84378,39.85403],[32.84398,39.85385],[32.84429,39.8537],[32.84459,39.85369],[32.8458,39.85385],[32.84562,39.85512],[32.84381,39.85463],[32.84378,39.85403]]]}},{"type":"Feature","properties":{},"geometry":{"type":"Polygon","coordinates":[[[32.84477,39.85359],[32.84447,39.85297],[32.84435,39.8529],[32.84439,39.85269],[32.84447,39.85267],[32.84525,39.85252],[32.8461,39.85242],[32.84675,39.85235],[32.84687,39.85295],[32.84691,39.85316],[32.84698,39.85358],[32.84691,39.85369],[32.84617,39.85374],[32.84628,39.85356],[32.8453,39.85323],[32.84477,39.85359]]]}},{"type":"Feature","properties":{},"geometry":{"type":"Polygon","coordinates":[[[32.84875,39.85483],[32.84758,39.85459],[32.8475,39.85406],[32.84759,39.85369],[32.84831,39.85365],[32.84875,39.85483]]]}},{"type":"Feature","properties":{},"geometry":{"type":"Polygon","coordinates":[[[32.85244,39.85357],[32.85203,39.85256],[32.85215,39.85237],[32.85217,39.85208],[32.85275,39.85187],[32.85278,39.85217],[32.85282,39.8523],[32.85255,39.85248],[32.85295,39.85347],[32.85244,39.85357]]]}},{"type":"Feature","properties":{},"geometry":{"type":"Polygon","coordinates":[[[32.84151,39.84999],[32.84216,39.85023],[32.84237,39.85013],[32.84314,39.84915],[32.84237,39.84874],[32.84151,39.84999]]]}},{"type":"Feature","properties":{},"geometry":{"type":"Polygon","coordinates":[[[32.84382,39.87044],[32.84447,39.8704],[32.84449,39.86995],[32.84445,39.86983],[32.84436,39.8698],[32.84365,39.86989],[32.8434,39.86992],[32.8435,39.87014],[32.84371,39.87012],[32.84382,39.87044]]]}},{"type":"Feature","properties":{},"geometry":{"type":"Polygon","coordinates":[[[32.82905,39.84691],[32.82913,39.84706],[32.8293,39.84724],[32.82985,39.84753],[32.83005,39.84763],[32.83021,39.84765],[32.83049,39.84765],[32.83072,39.84754],[32.8309,39.84746],[32.83123,39.84702],[32.83137,39.8469],[32.83168,39.84681],[32.83199,39.84676],[32.83335,39.84723],[32.83428,39.84759],[32.8345,39.84806],[32.83483,39.84874],[32.83643,39.84834],[32.83666,39.8482],[32.83669,39.848],[32.83663,39.84789],[32.83653,39.84763],[32.83587,39.84603],[32.83427,39.84562],[32.83357,39.84543],[32.83305,39.84534],[32.83251,39.84527],[32.83206,39.84523],[32.83152,39.84522],[32.83098,39.84522],[32.83031,39.8453],[32.8299,39.8454],[32.82966,39.84562],[32.82951,39.8458],[32.82936,39.84607],[32.82915,39.84653],[32.82907,39.84676],[32.82905,39.84691]]]}},{"type":"Feature","properties":{},"geometry":{"type":"Polygon","coordinates":[[[32.85223,39.84672],[32.85272,39.84639],[32.85299,39.84623],[32.8535,39.84597],[32.85432,39.84549],[32.85469,39.84527],[32.8549,39.84532],[32.8554,39.84536],[32.85596,39.84578],[32.85647,39.84622],[32.85677,39.84653],[32.85685,39.84664],[32.85689,39.84679],[32.85701,39.84713],[32.85712,39.84708],[32.85728,39.84703],[32.85739,39.84703],[32.85741,39.84705],[32.85739,39.84709],[32.85731,39.84721],[32.85775,39.84752],[32.85792,39.84764],[32.85807,39.84766],[32.85834,39.84795],[32.85847,39.84839],[32.8589,39.8486],[32.85983,39.84935],[32.86033,39.84994],[32.86092,39.85045],[32.86289,39.85197],[32.86296,39.85217],[32.86293,39.85244],[32.86274,39.85281],[32.86244,39.85323],[32.86222,39.85335],[32.86205,39.85337],[32.86191,39.85335],[32.86176,39.85326],[32.86128,39.85305],[32.86057,39.8527],[32.8603,39.85252],[32.86004,39.85237],[32.85963,39.85189],[32.85888,39.85099],[32.85859,39.85067],[32.85811,39.85047],[32.85794,39.8504],[32.85735,39.85012],[32.85693,39.84992],[32.85644,39.84972],[32.85586,39.84943],[32.85536,39.84911],[32.85515,39.84897],[32.85501,39.84885],[32.85489,39.84874],[32.85477,39.84864],[32.85458,39.84853],[32.85412,39.84818],[32.85348,39.84769],[32.85283,39.84721],[32.85223,39.84672]]]}},{"type":"Feature","properties":{},"geometry":{"type":"Polygon","coordinates":[[[32.82513,39.87134],[32.82428,39.87063],[32.82425,39.87044],[32.82545,39.86925],[32.82648,39.86969],[32.82662,39.86978],[32.82665,39.86987],[32.82668,39.86997],[32.8263,39.87036],[32.82599,39.87019],[32.82592,39.87027],[32.82586,39.87023],[32.82555,39.87055],[32.82594,39.87074],[32.82513,39.87134]]]}},{"type":"Feature","properties":{},"geometry":{"type":"Polygon","coordinates":[[[32.81882,39.85971],[32.81925,39.85932],[32.82028,39.85972],[32.8197,39.86028],[32.81882,39.85971]]]}},{"type":"Feature","properties":{},"geometry":{"type":"Polygon","coordinates":[[[32.82746,39.87057],[32.82753,39.87048],[32.82773,39.87023],[32.82902,39.87094],[32.82877,39.87117],[32.82868,39.87125],[32.82746,39.87057]]]}},{"type":"Feature","properties":{},"geometry":{"type":"Polygon","coordinates":[[[32.85457,39.87113],[32.85478,39.8706],[32.85534,39.87075],[32.8554,39.87082],[32.85539,39.87106],[32.85537,39.87115],[32.85536,39.87119],[32.85536,39.87122],[32.8551,39.87118],[32.85508,39.87123],[32.85479,39.87122],[32.85478,39.87117],[32.85457,39.87113]]]}},{"type":"Feature","properties":{},"geometry":{"type":"Polygon","coordinates":[[[32.84246,39.85242],[32.8428,39.85161],[32.84347,39.85184],[32.84307,39.85265],[32.84246,39.85242]]]}},{"type":"Feature","properties":{},"geometry":{"type":"Polygon","coordinates":[[[32.82855,39.84683],[32.82866,39.84675],[32.82891,39.84622],[32.82899,39.84602],[32.82918,39.84577],[32.82933,39.84545],[32.82932,39.84536],[32.82927,39.84529],[32.82922,39.84525],[32.8291,39.8452],[32.8288,39.84512],[32.82819,39.84505],[32.8272,39.84495],[32.82627,39.84486],[32.82621,39.84493],[32.82604,39.84488],[32.82582,39.84519],[32.82591,39.84523],[32.82591,39.84526],[32.82629,39.8455],[32.82673,39.84579],[32.8272,39.84608],[32.82768,39.84633],[32.82787,39.84641],[32.82804,39.84642],[32.82813,39.84647],[32.82805,39.84653],[32.82855,39.84683]]]}}]}