{"type":"FeatureCollection","features":[{"type":"Feature","properties":{},"geometry":{"type":"Polygon","coordinates":[[[32.84048,39.85028],[32.84082,39.8489],[32.84092,39.8485],[32.84099,39.84827],[32.84108,39.84819],[32.84112,39.84818],[32.8412,39.84822],[32.8423,39.84877],[32.8414,39.85003],[32.84104,39.85051],[32.84048,39.85028]]]}},{"type":"Feature","properties":{},"geometry":{"type":"Polygon","coordinates":[[[32.84376,39.85397],[32.84397,39.85381],[32.84427,39.85369],[32.84459,39.85369],[32.84538,39.8538],[32.84584,39.85386],[32.84577,39.85435],[32.84376,39.85397]]]}},{"type":"Feature","properties":{},"geometry":{"type":"Polygon","coordinates":[[[32.84477,39.85359],[32.84447,39.85297],[32.84439,39.85289],[32.84442,39.85269],[32.84447,39.85267],[32.84486,39.85258],[32.84525,39.85252],[32.8461,39.85242],[32.84679,39.85237],[32.84689,39.85296],[32.84691,39.85316],[32.84698,39.85358],[32.84691,39.85369],[32.84617,39.85375],[32.84592,39.85377],[32.84559,39.85374],[32.84486,39.85363],[32.84477,39.85359]]]}},{"type":"Feature","properties":{},"geometry":{"type":"Polygon","coordinates":[[[32.84878,39.85489],[32.84752,39.85467],[32.84755,39.85411],[32.84763,39.8537],[32.8483,39.85364],[32.84878,39.85489]]]}},{"type":"Feature","properties":{},"geometry":{"type":"Polygon","coordinates":[[[32.8524,39.85364],[32.85208,39.85286],[32.85187,39.85219],[32.85217,39.85208],[32.85276,39.85187],[32.85288,39.85229],[32.85259,39.8525],[32.85294,39.85354],[32.8524,39.85364]]]}},{"type":"Feature","properties":{},"geometry":{"type":"Polygon","coordinates":[[[32.8414,39.85003],[32.84207,39.85031],[32.84237,39.85013],[32.84312,39.84917],[32.8423,39.84877],[32.8414,39.85003]]]}},{"type":"Feature","properties":{},"geometry":{"type":"Polygon","coordinates":[[[32.83899,39.85034],[32.83969,39.85048],[32.83982,39.85015],[32.83983,39.8501],[32.83991,39.84984],[32.83977,39.84981],[32.83921,39.8497],[32.83918,39.84979],[32.8391,39.85002],[32.83909,39.85005],[32.83908,39.85008],[32.83899,39.85034]]]}},{"type":"Feature","properties":{},"geometry":{"type":"Polygon","coordinates":[[[32.84382,39.87044],[32.84447,39.8704],[32.84449,39.86995],[32.84445,39.86983],[32.84436,39.8698],[32.84365,39.86989],[32.8434,39.86992],[32.8435,39.87014],[32.84371,39.87012],[32.84382,39.87044]]]}},{"type":"Feature","properties":{},"geometry":{"type":"Polygon","coordinates":[[[32.8312,39.84713],[32.83134,39.84696],[32.83143,39.84693],[32.8315,39.84707],[32.83161,39.8472],[32.83224,39.84701],[32.83242,39.84699],[32.83263,39.84701],[32.83286,39.84706],[32.83308,39.84713],[32.83335,39.84723],[32.83393,39.84745],[32.83425,39.84759],[32.83433,39.84773],[32.83444,39.84791],[32.83485,39.84807],[32.83577,39.84842],[32.83592,39.84847],[32.83617,39.84843],[32.83648,39.84834],[32.83656,39.84829],[32.83666,39.8482],[32.83669,39.84811],[32.83669,39.848],[32.83663,39.84789],[32.83653,39.84763],[32.83615,39.84677],[32.83598,39.84635],[32.83587,39.84608],[32.83429,39.84566],[32.83357,39.84546],[32.83305,39.84534],[32.83251,39.84527],[32.83206,39.84523],[32.83152,39.84522],[32.83098,39.84522],[32.83079,39.84523],[32.83057,39.84526],[32.83035,39.84528],[32.83012,39.84532],[32.8299,39.8454],[32.82971,39.84552],[32.82957,39.84565],[32.82945,39.84581],[32.82931,39.84608],[32.82915,39.84653],[32.82907,39.84676],[32.82905,39.84691],[32.82907,39.84702],[32.82914,39.84714],[32.82929,39.84726],[32.82953,39.84741],[32.82972,39.84753],[32.82999,39.84769],[32.83024,39.8478],[32.83051,39.84788],[32.83081,39.84791],[32.83106,39.84791],[32.83119,39.84776],[32.83148,39.84727],[32.83139,39.84719],[32.8312,39.84713]]]}},{"type":"Feature","properties":{},"geometry":{"type":"Polygon","coordinates":[[[32.85778,39.85031],[32.85735,39.85012],[32.85693,39.84994],[32.85644,39.84972],[32.85586,39.84943],[32.85536,39.84911],[32.85514,39.84894],[32.85495,39.84877],[32.85482,39.84867],[32.85459,39.84852],[32.85412,39.84818],[32.85348,39.84769],[32.85283,39.84721],[32.85212,39.84665],[32.85457,39.84526],[32.85478,39.84522],[32.85496,39.84524],[32.8554,39.84536],[32.85611,39.84564],[32.85687,39.84617],[32.8569,39.84643],[32.85708,39.84694],[32.85762,39.84733],[32.8577,39.84745],[32.85787,39.84756],[32.85834,39.84762],[32.85864,39.84788],[32.85999,39.84947],[32.85954,39.84972],[32.85913,39.84993],[32.85881,39.84994],[32.85846,39.84993],[32.85778,39.85031]]]}},{"type":"Feature","properties":{},"geometry":{"type":"Polygon","coordinates":[[[32.82513,39.87134],[32.82428,39.87063],[32.82425,39.87044],[32.82545,39.86925],[32.82648,39.86969],[32.82662,39.86978],[32.82665,39.86987],[32.82668,39.86997],[32.8263,39.87036],[32.82599,39.87019],[32.82592,39.87027],[32.82586,39.87023],[32.82555,39.87055],[32.82594,39.87074],[32.82513,39.87134]]]}},{"type":"Feature","properties":{},"geometry":{"type":"Polygon","coordinates":[[[32.81882,39.85971],[32.81925,39.85932],[32.82028,39.85972],[32.8197,39.86028],[32.81882,39.85971]]]}},{"type":"Feature","properties":{},"geometry":{"type":"Polygon","coordinates":[[[32.82746,39.87057],[32.82753,39.87048],[32.82773,39.87023],[32.82902,39.87094],[32.82877,39.87117],[32.82868,39.87125],[32.82746,39.87057]]]}},{"type":"Feature","properties":{},"geometry":{"type":"Polygon","coordinates":[[[32.84239,39.85255],[32.8428,39.85161],[32.84351,39.85181],[32.84308,39.85273],[32.84239,39.85255]]]}},{"type":"Feature","properties":{},"geometry":{"type":"Polygon","coordinates":[[[32.85916,39.86696],[32.85994,39.86643],[32.86051,39.86702],[32.86003,39.86735],[32.86005,39.86761],[32.86003,39.86786],[32.85938,39.86802],[32.85932,39.86803],[32.8592,39.86757],[32.85918,39.86747],[32.85918,39.86742],[32.85913,39.86711],[32.85916,39.86696]]]}},{"type":"Feature","properties":{},"geometry":{"type":"Polygon","coordinates":[[[32.85999,39.84947],[32.86044,39.84991],[32.86101,39.85039],[32.86203,39.85113],[32.86262,39.85152],[32.86295,39.85197],[32.86299,39.85214],[32.86289,39.85228],[32.86274,39.85246],[32.86249,39.85278],[32.86223,39.8532],[32.86205,39.85329],[32.86195,39.85332],[32.86176,39.85326],[32.8613,39.8531],[32.86089,39.85293],[32.86046,39.85271],[32.86021,39.85254],[32.86004,39.85237],[32.85963,39.85189],[32.85888,39.85099],[32.85864,39.85071],[32.85778,39.85031],[32.85846,39.84993],[32.85881,39.84994],[32.85913,39.84993],[32.85954,39.84972],[32.85999,39.84947]]]}},{"type":"Feature","properties":{},"geometry":{"type":"Polygon","coordinates":[[[32.84402,39.85083],[32.84467,39.84995],[32.84553,39.85038],[32.84537,39.85057],[32.84555,39.85066],[32.84566,39.85071],[32.84518,39.85127],[32.84402,39.85083]]]}},{"type":"Feature","properties":{},"geometry":{"type":"Polygon","coordinates":[[[32.83849,39.85115],[32.839,39.84963],[32.83834,39.84965],[32.83776,39.84976],[32.83738,39.84983],[32.83746,39.85013],[32.83767,39.85103],[32.83849,39.85115]]]}},{"type":"Feature","properties":{},"geometry":{"type":"Polygon","coordinates":[[[32.83617,39.8503],[32.83636,39.84925],[32.8364,39.84851],[32.83665,39.84845],[32.83682,39.84828],[32.83697,39.84816],[32.83709,39.84838],[32.83746,39.84912],[32.83727,39.84925],[32.83738,39.84983],[32.83746,39.85013],[32.83697,39.85033],[32.83617,39.8503]]]}},{"type":"Feature","properties":{},"geometry":{"type":"Polygon","coordinates":[[[32.83739,39.84848],[32.83787,39.84813],[32.83869,39.84918],[32.83854,39.84934],[32.83798,39.84932],[32.83785,39.84926],[32.83774,39.84918],[32.83764,39.84902],[32.8375,39.84874],[32.83739,39.84848]]]}},{"type":"Feature","properties":{},"geometry":{"type":"Polygon","coordinates":[[[32.83787,39.84813],[32.83869,39.84918],[32.8389,39.84924],[32.83935,39.84869],[32.83919,39.84806],[32.83876,39.84779],[32.83812,39.84792],[32.83787,39.84813]]]}},{"type":"Feature","properties":{},"geometry":{"type":"Polygon","coordinates":[[[32.83709,39.84838],[32.83697,39.84816],[32.83653,39.84722],[32.83616,39.84624],[32.83621,39.84607],[32.83673,39.84623],[32.83785,39.84665],[32.83835,39.84683],[32.83878,39.84704],[32.83917,39.84724],[32.83895,39.84749],[32.83849,39.8472],[32.83816,39.84751],[32.8378,39.84784],[32.83747,39.84824],[32.83728,39.84836],[32.83709,39.84838]]]}},{"type":"Feature","properties":{},"geometry":{"type":"Polygon","coordinates":[[[32.848,39.85579],[32.84816,39.85524],[32.84884,39.85538],[32.84887,39.85606],[32.84883,39.85609],[32.84875,39.85609],[32.848,39.85579]]]}},{"type":"Feature","properties":{},"geometry":{"type":"Polygon","coordinates":[[[32.84752,39.85467],[32.84748,39.85504],[32.84886,39.8553],[32.84878,39.85489],[32.84752,39.85467]]]}},{"type":"Feature","properties":{},"geometry":{"type":"Polygon","coordinates":[[[32.84368,39.85436],[32.84385,39.85469],[32.84455,39.85495],[32.84521,39.85514],[32.8456,39.85522],[32.8457,39.85483],[32.84368,39.85436]]]}},{"type":"Feature","properties":{},"geometry":{"type":"Polygon","coordinates":[[[32.84376,39.85397],[32.84368,39.85436],[32.8457,39.85483],[32.84577,39.85435],[32.84376,39.85397]]]}},{"type":"Feature","properties":{},"geometry":{"type":"Polygon","coordinates":[[[32.8517,39.85389],[32.85218,39.85377],[32.85275,39.85367],[32.85285,39.85402],[32.85294,39.85405],[32.85283,39.85466],[32.85225,39.85479],[32.85164,39.85394],[32.8517,39.85389]]]}},{"type":"Feature","properties":{},"geometry":{"type":"Polygon","coordinates":[[[32.85039,39.85449],[32.85085,39.85519],[32.85208,39.85486],[32.85156,39.85404],[32.85039,39.85449]]]}},{"type":"Feature","properties":{},"geometry":{"type":"Polygon","coordinates":[[[32.84993,39.85373],[32.85039,39.85449],[32.85156,39.85404],[32.85144,39.85387],[32.85135,39.85385],[32.85096,39.85332],[32.84993,39.85373]]]}},{"type":"Feature","properties":{},"geometry":{"type":"Polygon","coordinates":[[[32.84993,39.85373],[32.84944,39.85302],[32.85042,39.85268],[32.85096,39.85332],[32.84993,39.85373]]]}},{"type":"Feature","properties":{},"geometry":{"type":"Polygon","coordinates":[[[32.85288,39.85477],[32.85259,39.85559],[32.8525,39.85595],[32.85307,39.85607],[32.85346,39.85484],[32.85288,39.85477]]]}},{"type":"Feature","properties":{},"geometry":{"type":"Polygon","coordinates":[[[32.85122,39.85585],[32.85147,39.85587],[32.85172,39.85587],[32.85196,39.85585],[32.85206,39.85584],[32.85224,39.85641],[32.85226,39.85666],[32.85186,39.85681],[32.85165,39.8565],[32.85133,39.85606],[32.85127,39.85593],[32.85122,39.85585]]]}},{"type":"Feature","properties":{},"geometry":{"type":"Polygon","coordinates":[[[32.81927,39.84662],[32.8199,39.8476],[32.82042,39.84744],[32.82057,39.84748],[32.82098,39.84767],[32.82107,39.84765],[32.8212,39.84756],[32.82052,39.84655],[32.81927,39.84662]]]}},{"type":"Feature","properties":{},"geometry":{"type":"Polygon","coordinates":[[[32.82052,39.84655],[32.8212,39.84756],[32.82129,39.8477],[32.82156,39.84762],[32.82221,39.84864],[32.82303,39.84842],[32.82424,39.84805],[32.82466,39.84793],[32.82465,39.84821],[32.82473,39.84855],[32.82556,39.84811],[32.82578,39.84718],[32.8256,39.84701],[32.82483,39.84674],[32.82352,39.8465],[32.82239,39.84642],[32.82133,39.8465],[32.82052,39.84655]]]}},{"type":"Feature","properties":{},"geometry":{"type":"Polygon","coordinates":[[[32.82174,39.85132],[32.82485,39.8502],[32.82479,39.85083],[32.82433,39.85125],[32.82283,39.85256],[32.82174,39.85132]]]}},{"type":"Feature","properties":{},"geometry":{"type":"Polygon","coordinates":[[[32.85011,39.87129],[32.85057,39.8712],[32.85125,39.87111],[32.85172,39.87104],[32.85184,39.87035],[32.85016,39.87027],[32.84999,39.87049],[32.84993,39.87072],[32.84996,39.87099],[32.85006,39.87121],[32.85011,39.87129]]]}}]}