{"type":"FeatureCollection","features":[{"type":"Feature","properties":{},"geometry":{"type":"Polygon","coordinates":[[[32.84382,39.87044],[32.84447,39.8704],[32.84449,39.86995],[32.84445,39.86983],[32.84436,39.8698],[32.84365,39.86989],[32.8434,39.86992],[32.8435,39.87014],[32.84371,39.87012],[32.84382,39.87044]]]}},{"type":"Feature","properties":{},"geometry":{"type":"Polygon","coordinates":[[[32.85776,39.85037],[32.85766,39.85032],[32.85749,39.85024],[32.85657,39.84983],[32.85627,39.84969],[32.85598,39.84954],[32.85573,39.84939],[32.85555,39.84929],[32.85535,39.84915],[32.85517,39.84901],[32.85499,39.84886],[32.85496,39.84882],[32.85494,39.84878],[32.85493,39.84874],[32.85492,39.84872],[32.85491,39.8487],[32.85487,39.84868],[32.85482,39.84866],[32.85477,39.84866],[32.85463,39.84857],[32.85427,39.84829],[32.85377,39.84784],[32.85324,39.84733],[32.85244,39.84657],[32.85499,39.84511],[32.8553,39.84526],[32.85546,39.84532],[32.85583,39.84542],[32.85603,39.8455],[32.85624,39.84562],[32.8568,39.84605],[32.85697,39.84617],[32.85705,39.84625],[32.85708,39.84632],[32.85708,39.84642],[32.85704,39.84655],[32.85703,39.84673],[32.85707,39.84687],[32.85714,39.847],[32.8572,39.84709],[32.85732,39.84706],[32.8574,39.84706],[32.85744,39.84708],[32.85744,39.8471],[32.85742,39.84717],[32.85736,39.84722],[32.85758,39.84734],[32.85765,39.84741],[32.85776,39.84751],[32.85785,39.84756],[32.85793,39.84759],[32.85803,39.84759],[32.85819,39.84762],[32.85831,39.84766],[32.85841,39.84771],[32.8585,39.84777],[32.85859,39.84787],[32.85864,39.84795],[32.85869,39.84802],[32.85873,39.84812],[32.85878,39.84821],[32.85884,39.84825],[32.85893,39.84832],[32.85905,39.84838],[32.85916,39.84841],[32.85925,39.84842],[32.85947,39.84867],[32.85977,39.84894],[32.86006,39.84917],[32.86019,39.84929],[32.86025,39.84934],[32.85913,39.84993],[32.85881,39.84994],[32.85846,39.84993],[32.85776,39.85037]]]}},{"type":"Feature","properties":{},"geometry":{"type":"Polygon","coordinates":[[[32.82513,39.87134],[32.82428,39.87063],[32.82425,39.87044],[32.82545,39.86925],[32.82648,39.86969],[32.82662,39.86978],[32.82665,39.86987],[32.82668,39.86997],[32.8263,39.87036],[32.82599,39.87019],[32.82592,39.87027],[32.82586,39.87023],[32.82555,39.87055],[32.82594,39.87074],[32.82513,39.87134]]]}},{"type":"Feature","properties":{},"geometry":{"type":"Polygon","coordinates":[[[32.81882,39.85971],[32.81925,39.85932],[32.82028,39.85972],[32.8197,39.86028],[32.81882,39.85971]]]}},{"type":"Feature","properties":{},"geometry":{"type":"Polygon","coordinates":[[[32.82746,39.87057],[32.82753,39.87048],[32.82773,39.87023],[32.82902,39.87094],[32.82877,39.87117],[32.82868,39.87125],[32.82746,39.87057]]]}},{"type":"Feature","properties":{},"geometry":{"type":"Polygon","coordinates":[[[32.84069,39.84868],[32.84082,39.84826],[32.84083,39.84817],[32.84084,39.84811],[32.84083,39.84806],[32.84081,39.848],[32.84078,39.84794],[32.84077,39.84793],[32.84048,39.84778],[32.84017,39.84805],[32.83973,39.84845],[32.83983,39.84865],[32.84069,39.84868]]]}},{"type":"Feature","properties":{},"geometry":{"type":"Polygon","coordinates":[[[32.84281,39.85029],[32.84325,39.8505],[32.84341,39.85058],[32.84348,39.85061],[32.84428,39.84964],[32.84322,39.84911],[32.84305,39.84934],[32.84236,39.85025],[32.84256,39.85024],[32.8427,39.85026],[32.84281,39.85029]]]}},{"type":"Feature","properties":{},"geometry":{"type":"Polygon","coordinates":[[[32.84139,39.85112],[32.84163,39.85082],[32.84105,39.85052],[32.84035,39.85034],[32.84029,39.85084],[32.84129,39.8511],[32.84139,39.85112]]]}},{"type":"Feature","properties":{},"geometry":{"type":"Polygon","coordinates":[[[32.83983,39.84865],[32.84069,39.84868],[32.84048,39.84957],[32.84001,39.8495],[32.83989,39.84887],[32.83983,39.84865]]]}},{"type":"Feature","properties":{},"geometry":{"type":"Polygon","coordinates":[[[32.82283,39.84854],[32.82318,39.84846],[32.82363,39.84835],[32.82442,39.84806],[32.82463,39.848],[32.82462,39.84818],[32.82464,39.84831],[32.82466,39.84846],[32.82468,39.84856],[32.82469,39.84865],[32.82534,39.84827],[32.82563,39.84812],[32.82585,39.84802],[32.82639,39.8484],[32.82592,39.84874],[32.82566,39.84866],[32.82529,39.8494],[32.82518,39.8496],[32.82575,39.84978],[32.82626,39.84995],[32.82608,39.8501],[32.82584,39.85001],[32.82572,39.84998],[32.82563,39.84998],[32.82552,39.84998],[32.82537,39.85],[32.82483,39.85017],[32.82315,39.85079],[32.82261,39.8499],[32.82291,39.84971],[32.82314,39.84956],[32.82357,39.84932],[32.82331,39.84893],[32.82326,39.84895],[32.82319,39.84885],[32.82306,39.8489],[32.82283,39.84854]]]}},{"type":"Feature","properties":{},"geometry":{"type":"Polygon","coordinates":[[[32.82582,39.84704],[32.82556,39.84805],[32.82563,39.84812],[32.82585,39.84802],[32.82593,39.84799],[32.82615,39.8479],[32.82629,39.84783],[32.82648,39.84773],[32.82667,39.84763],[32.82657,39.84752],[32.82638,39.84733],[32.82644,39.84736],[32.82677,39.847],[32.8268,39.84697],[32.8257,39.8464],[32.82583,39.84606],[32.82589,39.84597],[32.82592,39.84592],[32.82595,39.8459],[32.82597,39.84589],[32.826,39.8459],[32.82606,39.84594],[32.82651,39.84619],[32.82685,39.84586],[32.82579,39.84516],[32.82571,39.84519],[32.82561,39.84527],[32.82485,39.8467],[32.82492,39.84684],[32.82501,39.84683],[32.8251,39.84682],[32.82524,39.84682],[32.82538,39.84685],[32.82551,39.84689],[32.82582,39.84704]]]}},{"type":"Feature","properties":{},"geometry":{"type":"Polygon","coordinates":[[[32.8469,39.85263],[32.84751,39.85258],[32.84756,39.85284],[32.84766,39.85336],[32.84771,39.85365],[32.84759,39.85366],[32.84755,39.85367],[32.84707,39.85371],[32.84698,39.8531],[32.84695,39.85291],[32.8469,39.85263]]]}},{"type":"Feature","properties":{},"geometry":{"type":"Polygon","coordinates":[[[32.84198,39.85129],[32.84176,39.85175],[32.84181,39.85184],[32.84172,39.85201],[32.84163,39.85205],[32.84153,39.85224],[32.84161,39.85238],[32.84193,39.85247],[32.84177,39.85278],[32.84142,39.85268],[32.84141,39.85267],[32.84108,39.85256],[32.84084,39.85246],[32.84069,39.85237],[32.84059,39.8523],[32.84049,39.85221],[32.84046,39.85218],[32.84123,39.85156],[32.8412,39.85155],[32.84117,39.85152],[32.84117,39.8515],[32.84139,39.85112],[32.84198,39.85129]]]}},{"type":"Feature","properties":{},"geometry":{"type":"Polygon","coordinates":[[[32.84246,39.8524],[32.84209,39.8523],[32.84212,39.85222],[32.84247,39.85143],[32.84275,39.85151],[32.84287,39.85155],[32.84269,39.85193],[32.84253,39.85226],[32.84246,39.8524]]]}},{"type":"Feature","properties":{},"geometry":{"type":"Polygon","coordinates":[[[32.84239,39.85255],[32.8422,39.85255],[32.84216,39.85273],[32.84242,39.85281],[32.84243,39.85298],[32.84254,39.85299],[32.84277,39.85293],[32.84293,39.85287],[32.84302,39.85285],[32.84308,39.85284],[32.84323,39.85282],[32.84339,39.85282],[32.84347,39.85282],[32.8435,39.85281],[32.84367,39.85278],[32.84415,39.85262],[32.84428,39.85258],[32.84506,39.85245],[32.84494,39.85215],[32.84588,39.85197],[32.84577,39.85161],[32.84572,39.85162],[32.84559,39.8516],[32.84452,39.85179],[32.84414,39.85169],[32.84398,39.85201],[32.84396,39.85197],[32.84393,39.85191],[32.84391,39.85189],[32.84389,39.85186],[32.84386,39.85184],[32.84381,39.85182],[32.84355,39.85174],[32.84308,39.85273],[32.84239,39.85255]]]}},{"type":"Feature","properties":{},"geometry":{"type":"Polygon","coordinates":[[[32.84512,39.85136],[32.84544,39.85148],[32.8455,39.8515],[32.84565,39.85154],[32.84586,39.85159],[32.84611,39.85166],[32.84618,39.85168],[32.84645,39.85178],[32.84652,39.85182],[32.84661,39.85186],[32.84595,39.85196],[32.84604,39.85232],[32.84684,39.85224],[32.84744,39.85219],[32.84768,39.85218],[32.8478,39.85212],[32.84786,39.85209],[32.84792,39.85203],[32.84795,39.85197],[32.84798,39.85188],[32.84799,39.85177],[32.84797,39.85169],[32.84791,39.85164],[32.84771,39.85147],[32.84751,39.85133],[32.84725,39.85116],[32.84712,39.85128],[32.84677,39.85136],[32.84561,39.85078],[32.84512,39.85136]]]}},{"type":"Feature","properties":{},"geometry":{"type":"Polygon","coordinates":[[[32.84254,39.85067],[32.84281,39.85029],[32.8427,39.85026],[32.84256,39.85024],[32.84236,39.85025],[32.84226,39.85028],[32.84218,39.85031],[32.84213,39.85035],[32.84209,39.85038],[32.84205,39.85042],[32.842,39.85045],[32.84254,39.85067]]]}},{"type":"Feature","properties":{},"geometry":{"type":"Polygon","coordinates":[[[32.84646,39.8549],[32.84632,39.85541],[32.84698,39.85553],[32.84702,39.85554],[32.8474,39.85568],[32.84753,39.85509],[32.84748,39.85508],[32.84702,39.85499],[32.84646,39.8549]]]}},{"type":"Feature","properties":{},"geometry":{"type":"Polygon","coordinates":[[[32.85597,39.85674],[32.856,39.85651],[32.85629,39.85654],[32.85633,39.8563],[32.8568,39.85635],[32.85684,39.85636],[32.85687,39.85617],[32.85722,39.85621],[32.85724,39.8564],[32.85725,39.8565],[32.85726,39.85662],[32.85698,39.85659],[32.85693,39.85684],[32.85722,39.85687],[32.85718,39.85697],[32.85699,39.85743],[32.85688,39.85768],[32.85684,39.85772],[32.85487,39.85753],[32.85472,39.85751],[32.85468,39.85751],[32.85475,39.85703],[32.85496,39.85705],[32.85517,39.85708],[32.85592,39.85716],[32.85607,39.85717],[32.85622,39.85718],[32.8564,39.85717],[32.85661,39.85714],[32.85664,39.85713],[32.85665,39.85681],[32.85597,39.85674]]]}},{"type":"Feature","properties":{},"geometry":{"type":"Polygon","coordinates":[[[32.85528,39.85575],[32.85532,39.85557],[32.85539,39.85527],[32.85549,39.85485],[32.85652,39.85502],[32.85646,39.85523],[32.85644,39.85523],[32.8564,39.85539],[32.85674,39.85544],[32.85667,39.85572],[32.85677,39.85573],[32.85672,39.85594],[32.8568,39.85595],[32.85676,39.85615],[32.85628,39.8561],[32.85624,39.85629],[32.85597,39.85627],[32.856,39.85607],[32.85623,39.85609],[32.85628,39.85588],[32.85528,39.85575]]]}},{"type":"Feature","properties":{},"geometry":{"type":"Polygon","coordinates":[[[32.85532,39.85557],[32.85528,39.85575],[32.85517,39.85618],[32.85591,39.85626],[32.85581,39.85673],[32.85578,39.85672],[32.85576,39.85689],[32.8561,39.85692],[32.85607,39.85717],[32.85592,39.85716],[32.85517,39.85708],[32.85496,39.85705],[32.85475,39.85703],[32.85468,39.85751],[32.85472,39.85751],[32.85487,39.85753],[32.8552,39.85765],[32.85532,39.8577],[32.85541,39.85776],[32.85545,39.85783],[32.85532,39.85781],[32.85529,39.8578],[32.85512,39.85776],[32.8548,39.85767],[32.85467,39.85763],[32.85429,39.85751],[32.85335,39.85723],[32.85301,39.85714],[32.85278,39.85712],[32.85273,39.85712],[32.85274,39.85689],[32.85266,39.85695],[32.85258,39.85699],[32.85246,39.85705],[32.85234,39.85663],[32.85216,39.85611],[32.85204,39.85581],[32.85203,39.85579],[32.85259,39.85566],[32.85249,39.85595],[32.85252,39.85603],[32.8526,39.85602],[32.85313,39.85611],[32.8532,39.85596],[32.85336,39.85545],[32.85346,39.85547],[32.8546,39.85564],[32.85487,39.85568],[32.85491,39.85552],[32.85532,39.85557]]]}},{"type":"Feature","properties":{},"geometry":{"type":"Polygon","coordinates":[[[32.85456,39.85304],[32.85443,39.85372],[32.8538,39.85365],[32.85387,39.85331],[32.85316,39.85323],[32.85311,39.85349],[32.85303,39.85357],[32.85297,39.85404],[32.85294,39.85421],[32.8533,39.85425],[32.85326,39.8545],[32.85308,39.85448],[32.85303,39.85474],[32.85355,39.85481],[32.8536,39.85459],[32.85536,39.85483],[32.85548,39.8544],[32.85518,39.85436],[32.85528,39.85403],[32.85542,39.85403],[32.85542,39.85377],[32.85498,39.85375],[32.85504,39.85309],[32.85456,39.85304]]]}},{"type":"Feature","properties":{},"geometry":{"type":"Polygon","coordinates":[[[32.85402,39.85251],[32.8541,39.85206],[32.85371,39.85202],[32.85368,39.85214],[32.85337,39.85212],[32.85332,39.85235],[32.8533,39.85244],[32.85402,39.85251]]]}},{"type":"Feature","properties":{},"geometry":{"type":"Polygon","coordinates":[[[32.85768,39.85231],[32.85771,39.85218],[32.85772,39.85209],[32.85774,39.85201],[32.85776,39.85191],[32.85782,39.85184],[32.85765,39.85174],[32.85757,39.85182],[32.85746,39.85183],[32.85743,39.8518],[32.85746,39.85176],[32.85746,39.85172],[32.85745,39.85168],[32.85719,39.85148],[32.85737,39.85135],[32.85723,39.85123],[32.85705,39.85137],[32.85679,39.85117],[32.85699,39.85103],[32.85666,39.85077],[32.85647,39.85091],[32.85641,39.85086],[32.8566,39.85072],[32.85646,39.85061],[32.85626,39.85075],[32.85613,39.85065],[32.85633,39.85051],[32.85593,39.85019],[32.85588,39.85027],[32.85567,39.85061],[32.85555,39.85078],[32.85582,39.85096],[32.85576,39.85104],[32.85545,39.85094],[32.85542,39.85098],[32.8551,39.85089],[32.85503,39.85103],[32.85471,39.85169],[32.85414,39.85164],[32.8541,39.85206],[32.85402,39.85251],[32.85401,39.85257],[32.854,39.85263],[32.85462,39.8527],[32.85467,39.85247],[32.8551,39.85251],[32.85507,39.85283],[32.85568,39.85286],[32.85565,39.8535],[32.85561,39.85377],[32.85623,39.8538],[32.85624,39.8536],[32.85625,39.85342],[32.85627,39.85329],[32.85631,39.85238],[32.8557,39.85208],[32.85558,39.85202],[32.85582,39.85138],[32.8567,39.85196],[32.85695,39.85179],[32.85707,39.85189],[32.85706,39.85212],[32.85717,39.85214],[32.85715,39.85234],[32.85739,39.85235],[32.85743,39.85231],[32.85768,39.85231]]]}},{"type":"Feature","properties":{},"geometry":{"type":"Polygon","coordinates":[[[32.8565,39.8504],[32.85595,39.85016],[32.85593,39.85019],[32.85574,39.85011],[32.85559,39.85007],[32.85544,39.85004],[32.85528,39.85008],[32.85518,39.85016],[32.8551,39.85027],[32.85493,39.8508],[32.85446,39.85043],[32.85442,39.85023],[32.85455,39.8499],[32.8547,39.84978],[32.85479,39.84966],[32.85493,39.84943],[32.85512,39.84948],[32.85552,39.84959],[32.85601,39.84973],[32.85635,39.84989],[32.85672,39.85006],[32.8565,39.8504]]]}},{"type":"Feature","properties":{},"geometry":{"type":"Polygon","coordinates":[[[32.84911,39.86466],[32.84937,39.86446],[32.8498,39.86478],[32.85008,39.86455],[32.85043,39.86484],[32.84977,39.86535],[32.85013,39.86564],[32.85051,39.86534],[32.85088,39.86562],[32.85013,39.86616],[32.84959,39.86654],[32.84941,39.86665],[32.84922,39.86676],[32.84902,39.86686],[32.84876,39.86696],[32.84845,39.86706],[32.84827,39.86711],[32.84808,39.8671],[32.84791,39.86704],[32.84778,39.86697],[32.84766,39.86688],[32.84763,39.86683],[32.8476,39.8668],[32.84756,39.8667],[32.84754,39.86658],[32.84755,39.86647],[32.84757,39.86633],[32.84761,39.86619],[32.84766,39.86609],[32.84775,39.86598],[32.84786,39.86584],[32.84792,39.86577],[32.84755,39.86554],[32.84785,39.86521],[32.84826,39.86545],[32.84862,39.86513],[32.84824,39.86491],[32.84862,39.86454],[32.849,39.86477],[32.84869,39.86506],[32.84943,39.86562],[32.84966,39.86544],[32.84932,39.86518],[32.84954,39.86501],[32.84911,39.86466]]]}},{"type":"Feature","properties":{},"geometry":{"type":"Polygon","coordinates":[[[32.85299,39.86287],[32.8529,39.86275],[32.85223,39.86303],[32.85154,39.86334],[32.85159,39.86344],[32.85169,39.86359],[32.85183,39.86374],[32.85198,39.86386],[32.85156,39.86404],[32.85134,39.86416],[32.8511,39.86432],[32.85107,39.86435],[32.85145,39.86466],[32.8512,39.86489],[32.85157,39.86512],[32.85207,39.86472],[32.85258,39.86431],[32.85317,39.86392],[32.85324,39.86388],[32.85376,39.8635],[32.85349,39.86312],[32.85344,39.86315],[32.85319,39.86278],[32.85299,39.86287]]]}},{"type":"Feature","properties":{},"geometry":{"type":"Polygon","coordinates":[[[32.85404,39.86217],[32.85399,39.8621],[32.85386,39.86188],[32.85377,39.8617],[32.85366,39.86143],[32.8512,39.86187],[32.85136,39.86278],[32.85308,39.8624],[32.85294,39.86204],[32.85339,39.86194],[32.85347,39.86216],[32.85351,39.86219],[32.85364,39.86222],[32.85377,39.86223],[32.85404,39.86217]]]}},{"type":"Feature","properties":{},"geometry":{"type":"Polygon","coordinates":[[[32.85986,39.86633],[32.86049,39.867],[32.86065,39.86695],[32.86077,39.86687],[32.8612,39.8666],[32.8612,39.86655],[32.8612,39.86651],[32.86122,39.86648],[32.86142,39.86604],[32.86092,39.86577],[32.86077,39.86569],[32.86066,39.86576],[32.86022,39.86608],[32.86007,39.86619],[32.85986,39.86633]]]}},{"type":"Feature","properties":{},"geometry":{"type":"Polygon","coordinates":[[[32.85822,39.86253],[32.8585,39.86223],[32.85936,39.86269],[32.85906,39.86302],[32.85923,39.86311],[32.85953,39.86278],[32.86154,39.86383],[32.8615,39.86386],[32.86262,39.86444],[32.86228,39.86466],[32.86112,39.8641],[32.86045,39.86454],[32.86079,39.86474],[32.86118,39.86496],[32.86154,39.86517],[32.86107,39.86549],[32.86099,39.86554],[32.86087,39.86562],[32.86077,39.86569],[32.86066,39.86576],[32.86022,39.86608],[32.86007,39.86619],[32.85986,39.86633],[32.85981,39.86637],[32.85961,39.86651],[32.85935,39.86619],[32.85934,39.86618],[32.85872,39.86659],[32.85836,39.86589],[32.85816,39.86557],[32.858,39.86536],[32.85783,39.86517],[32.85763,39.86497],[32.85732,39.86473],[32.857,39.86447],[32.85676,39.86428],[32.85742,39.86337],[32.85766,39.86306],[32.85822,39.86253]]]}},{"type":"Feature","properties":{},"geometry":{"type":"Polygon","coordinates":[[[32.86079,39.86474],[32.86045,39.86454],[32.86112,39.8641],[32.86228,39.86466],[32.86181,39.86498],[32.86154,39.86517],[32.86118,39.86496],[32.8615,39.8647],[32.86119,39.86448],[32.86079,39.86474]]]}},{"type":"Feature","properties":{},"geometry":{"type":"Polygon","coordinates":[[[32.85425,39.86029],[32.85401,39.86048],[32.8542,39.86063],[32.85393,39.86083],[32.85408,39.86094],[32.85454,39.86128],[32.85599,39.8623],[32.85613,39.86216],[32.85766,39.86306],[32.85822,39.86253],[32.8585,39.86223],[32.8575,39.86169],[32.85751,39.86166],[32.85578,39.86077],[32.85566,39.86072],[32.85567,39.86071],[32.85533,39.86056],[32.855,39.86085],[32.85481,39.86071],[32.85516,39.86042],[32.85482,39.86018],[32.85484,39.86017],[32.85399,39.85957],[32.85356,39.85989],[32.85389,39.86006],[32.85425,39.86029]]]}},{"type":"Feature","properties":{},"geometry":{"type":"Polygon","coordinates":[[[32.82753,39.8473],[32.82735,39.84738],[32.8273,39.84731],[32.82708,39.84699],[32.82707,39.84696],[32.82748,39.8468],[32.82753,39.84678],[32.82769,39.84688],[32.82787,39.84668],[32.82835,39.84693],[32.82805,39.84707],[32.82753,39.8473]]]}},{"type":"Feature","properties":{},"geometry":{"type":"Polygon","coordinates":[[[32.85249,39.87263],[32.85244,39.87264],[32.85246,39.87321],[32.85356,39.87316],[32.85442,39.87312],[32.85442,39.87306],[32.8546,39.87306],[32.85461,39.87262],[32.85427,39.87263],[32.85366,39.87262],[32.85249,39.87263]]]}},{"type":"Feature","properties":{},"geometry":{"type":"Polygon","coordinates":[[[32.85344,39.86994],[32.85382,39.87019],[32.85368,39.87038],[32.85353,39.87062],[32.85345,39.87074],[32.85386,39.87088],[32.85407,39.87045],[32.85413,39.87035],[32.85427,39.87039],[32.85474,39.87052],[32.85452,39.87113],[32.85552,39.87122],[32.85548,39.8715],[32.85526,39.87262],[32.85461,39.87262],[32.85427,39.87263],[32.85428,39.8724],[32.8543,39.8721],[32.85358,39.87211],[32.85358,39.87214],[32.85366,39.87262],[32.85249,39.87263],[32.85236,39.8726],[32.85236,39.87244],[32.85235,39.8723],[32.85234,39.87211],[32.85232,39.87183],[32.85231,39.87167],[32.8523,39.87159],[32.85231,39.87146],[32.85254,39.87109],[32.85278,39.87065],[32.85285,39.87054],[32.85291,39.87047],[32.85315,39.87023],[32.85344,39.86994]]]}},{"type":"Feature","properties":{},"geometry":{"type":"Polygon","coordinates":[[[32.85563,39.86871],[32.8558,39.86873],[32.85586,39.86875],[32.85594,39.86877],[32.85599,39.86879],[32.85607,39.86883],[32.85613,39.86879],[32.85622,39.86874],[32.85634,39.8687],[32.85652,39.86859],[32.85679,39.86841],[32.85699,39.86828],[32.85704,39.86821],[32.85715,39.86814],[32.85718,39.86812],[32.85726,39.86807],[32.8572,39.86796],[32.85717,39.86791],[32.85702,39.86766],[32.85683,39.86724],[32.8567,39.86694],[32.85567,39.86718],[32.85574,39.86739],[32.85576,39.8675],[32.85525,39.8676],[32.85532,39.86787],[32.85483,39.86799],[32.85499,39.86837],[32.85506,39.86847],[32.85517,39.86854],[32.85546,39.86865],[32.85563,39.86871]]]}},{"type":"Feature","properties":{},"geometry":{"type":"Polygon","coordinates":[[[32.85629,39.86601],[32.85627,39.86598],[32.8562,39.86581],[32.85572,39.86596],[32.85556,39.86567],[32.85518,39.86591],[32.85484,39.86612],[32.85465,39.86625],[32.85446,39.86639],[32.85417,39.86667],[32.854,39.86686],[32.85374,39.86724],[32.85348,39.86762],[32.85341,39.86778],[32.8533,39.868],[32.85329,39.86805],[32.85363,39.86811],[32.85356,39.86843],[32.85361,39.86864],[32.85348,39.86868],[32.85312,39.86878],[32.85305,39.86933],[32.85306,39.86943],[32.85309,39.86953],[32.85315,39.86964],[32.85321,39.86971],[32.85326,39.86978],[32.85344,39.86994],[32.85382,39.87019],[32.85413,39.87035],[32.85432,39.86996],[32.85451,39.86953],[32.8557,39.86974],[32.85574,39.86952],[32.8558,39.86933],[32.85585,39.86919],[32.85586,39.86916],[32.8548,39.86882],[32.85483,39.86876],[32.85451,39.86835],[32.85448,39.8679],[32.85404,39.86784],[32.85407,39.86779],[32.85446,39.86731],[32.85459,39.86724],[32.85486,39.86718],[32.85531,39.86706],[32.8556,39.86698],[32.85656,39.8666],[32.85638,39.86622],[32.8559,39.86637],[32.85594,39.86645],[32.85548,39.86659],[32.85543,39.86645],[32.8554,39.8664],[32.85584,39.86624],[32.85581,39.86617],[32.85629,39.86601]]]}},{"type":"Feature","properties":{},"geometry":{"type":"Polygon","coordinates":[[[32.85627,39.86598],[32.85629,39.86601],[32.85638,39.86622],[32.85656,39.8666],[32.85709,39.8664],[32.8571,39.86642],[32.85719,39.86661],[32.8572,39.86664],[32.85723,39.86673],[32.85721,39.8668],[32.85683,39.86724],[32.85702,39.86766],[32.85767,39.86716],[32.85777,39.86703],[32.85784,39.86688],[32.85776,39.86651],[32.85838,39.86636],[32.85822,39.86602],[32.85789,39.86607],[32.85697,39.86616],[32.8568,39.86581],[32.85627,39.86598]]]}},{"type":"Feature","properties":{},"geometry":{"type":"Polygon","coordinates":[[[32.85701,39.86553],[32.85725,39.8658],[32.85787,39.86548],[32.85784,39.86545],[32.85769,39.86527],[32.8575,39.86507],[32.85728,39.86488],[32.85723,39.86511],[32.85714,39.86535],[32.85708,39.86544],[32.85701,39.86553]]]}},{"type":"Feature","properties":{},"geometry":{"type":"Polygon","coordinates":[[[32.84975,39.87088],[32.84942,39.87021],[32.84941,39.87013],[32.84962,39.86984],[32.84932,39.8697],[32.84993,39.86888],[32.85002,39.86891],[32.85007,39.86885],[32.85042,39.86836],[32.8506,39.86823],[32.85079,39.86814],[32.85098,39.86809],[32.84993,39.86763],[32.84991,39.86759],[32.84999,39.86751],[32.85083,39.86681],[32.85124,39.86709],[32.85074,39.86751],[32.85115,39.86771],[32.8514,39.86734],[32.85189,39.86755],[32.85215,39.86716],[32.85113,39.86656],[32.85132,39.8664],[32.85138,39.86634],[32.85187,39.86591],[32.85232,39.86619],[32.85257,39.86584],[32.85268,39.86592],[32.85281,39.86599],[32.85293,39.86606],[32.85333,39.86555],[32.85294,39.86537],[32.85277,39.86558],[32.85242,39.86539],[32.85265,39.86515],[32.85334,39.86444],[32.85344,39.86439],[32.85356,39.86435],[32.85367,39.86434],[32.85375,39.86434],[32.85412,39.86451],[32.85442,39.86411],[32.85452,39.86405],[32.85472,39.86388],[32.85478,39.86384],[32.85486,39.86378],[32.855,39.8637],[32.85515,39.86364],[32.85538,39.86362],[32.8556,39.86364],[32.856,39.86393],[32.85646,39.86428],[32.85703,39.86469],[32.85573,39.86556],[32.85556,39.86567],[32.85518,39.86591],[32.85484,39.86612],[32.85465,39.86625],[32.85446,39.86639],[32.85417,39.86667],[32.85372,39.86643],[32.85348,39.86632],[32.85284,39.86719],[32.85305,39.86733],[32.85315,39.86723],[32.8534,39.86706],[32.85347,39.86713],[32.85374,39.86724],[32.85348,39.86762],[32.85321,39.86744],[32.85301,39.86775],[32.85296,39.86783],[32.8528,39.86807],[32.8527,39.86823],[32.85255,39.86845],[32.85248,39.86858],[32.85238,39.86872],[32.85206,39.86957],[32.8519,39.8703],[32.8512,39.87028],[32.85061,39.87026],[32.85003,39.87022],[32.84999,39.87026],[32.84991,39.87032],[32.84983,39.87043],[32.84977,39.87055],[32.84972,39.8707],[32.84975,39.87088]]]}},{"type":"Feature","properties":{},"geometry":{"type":"Polygon","coordinates":[[[32.85242,39.85369],[32.85232,39.85371],[32.85153,39.85387],[32.85121,39.8535],[32.85221,39.85318],[32.85242,39.85369]]]}},{"type":"Feature","properties":{},"geometry":{"type":"Polygon","coordinates":[[[32.85155,39.85302],[32.85207,39.85284],[32.85181,39.85209],[32.85179,39.8521],[32.85112,39.85233],[32.85155,39.85302]]]}}]}