{"type":"FeatureCollection","features":[{"type":"Feature","properties":{},"geometry":{"type":"Polygon","coordinates":[[[32.84053,39.8498],[32.84074,39.84886],[32.84084,39.84847],[32.84093,39.84817],[32.84096,39.84814],[32.84103,39.84813],[32.8411,39.84813],[32.84231,39.8487],[32.84147,39.84996],[32.84053,39.8498]]]}},{"type":"Feature","properties":{},"geometry":{"type":"Polygon","coordinates":[[[32.84378,39.85403],[32.84398,39.85385],[32.84429,39.8537],[32.84459,39.85369],[32.8458,39.85385],[32.84562,39.85512],[32.84381,39.85463],[32.84378,39.85403]]]}},{"type":"Feature","properties":{},"geometry":{"type":"Polygon","coordinates":[[[32.84477,39.85359],[32.84447,39.85297],[32.8446,39.85253],[32.84685,39.85225],[32.847,39.85358],[32.84622,39.85369],[32.84628,39.85356],[32.8453,39.85323],[32.84477,39.85359]]]}},{"type":"Feature","properties":{},"geometry":{"type":"Polygon","coordinates":[[[32.84875,39.85483],[32.84758,39.85459],[32.8475,39.85406],[32.84759,39.85369],[32.84831,39.85365],[32.84875,39.85483]]]}},{"type":"Feature","properties":{},"geometry":{"type":"Polygon","coordinates":[[[32.85244,39.85357],[32.85203,39.85256],[32.85215,39.85237],[32.85217,39.85208],[32.85275,39.85187],[32.85278,39.85217],[32.85282,39.8523],[32.85255,39.85248],[32.85295,39.85347],[32.85244,39.85357]]]}},{"type":"Feature","properties":{},"geometry":{"type":"Polygon","coordinates":[[[32.84933,39.85288],[32.85414,39.85116],[32.85443,39.84912],[32.85472,39.84861],[32.85443,39.84762],[32.85313,39.84658],[32.85216,39.84606],[32.8516,39.84565],[32.849,39.84459],[32.84581,39.8447],[32.84415,39.84772],[32.84337,39.84893],[32.84578,39.85014],[32.84755,39.85105],[32.84826,39.85155],[32.849,39.85245],[32.84933,39.85288]]]}},{"type":"Feature","properties":{},"geometry":{"type":"Polygon","coordinates":[[[32.84151,39.84999],[32.84216,39.85023],[32.84237,39.85013],[32.84314,39.84915],[32.84237,39.84874],[32.84151,39.84999]]]}},{"type":"Feature","properties":{},"geometry":{"type":"Polygon","coordinates":[[[32.82916,39.84696],[32.82948,39.84724],[32.83001,39.84754],[32.83051,39.84751],[32.83085,39.84734],[32.83129,39.84686],[32.83199,39.84672],[32.8342,39.84752],[32.83452,39.84787],[32.83433,39.84797],[32.8348,39.8488],[32.83505,39.84881],[32.83643,39.84846],[32.83684,39.8482],[32.83681,39.84795],[32.83671,39.84773],[32.836,39.84611],[32.83409,39.84568],[32.83286,39.84538],[32.83188,39.84534],[32.83076,39.8454],[32.82988,39.84557],[32.82939,39.84617],[32.82916,39.84696]]]}},{"type":"Feature","properties":{},"geometry":{"type":"Polygon","coordinates":[[[32.85155,39.86831],[32.85196,39.8685],[32.85211,39.8683],[32.85168,39.86812],[32.85155,39.86831]]]}}]}