{"type":"FeatureCollection","features":[{"type":"Feature","properties":{},"geometry":{"type":"Polygon","coordinates":[[[32.84507,39.85229],[32.84502,39.85211],[32.84583,39.85198],[32.84593,39.85221],[32.84507,39.85229]]]}},{"type":"Feature","properties":{},"geometry":{"type":"Polygon","coordinates":[[[32.84287,39.85144],[32.8431,39.85094],[32.84369,39.85113],[32.84341,39.8516],[32.84287,39.85144]]]}},{"type":"Feature","properties":{},"geometry":{"type":"Polygon","coordinates":[[[32.84485,39.85359],[32.84527,39.85329],[32.84622,39.85358],[32.84614,39.8537],[32.84593,39.85373],[32.84485,39.85359]]]}},{"type":"Feature","properties":{},"geometry":{"type":"Polygon","coordinates":[[[32.84907,39.85612],[32.84904,39.85555],[32.8491,39.85546],[32.84942,39.8555],[32.84945,39.85551],[32.84974,39.85555],[32.84977,39.85599],[32.84974,39.856],[32.84911,39.85612],[32.84907,39.85612]]]}},{"type":"Feature","properties":{},"geometry":{"type":"Polygon","coordinates":[[[32.80431,39.84109],[32.80486,39.84143],[32.80523,39.84159],[32.8055,39.84158],[32.80608,39.84149],[32.8063,39.8415],[32.8065,39.84156],[32.8069,39.84171],[32.80705,39.84176],[32.80721,39.84178],[32.80771,39.8417],[32.80789,39.84168],[32.80895,39.84163],[32.8138,39.84234],[32.81992,39.84321],[32.82276,39.84366],[32.82542,39.84441],[32.82972,39.84479],[32.83205,39.84485],[32.83319,39.84496],[32.83739,39.84602],[32.84048,39.84733],[32.83902,39.84524],[32.8381,39.84346],[32.83775,39.84228],[32.83821,39.84095],[32.83855,39.83971],[32.83844,39.83797],[32.83933,39.83574],[32.84172,39.83407],[32.84327,39.83346],[32.84405,39.83241],[32.84501,39.83051],[32.84581,39.82894],[32.84386,39.83084],[32.84217,39.83146],[32.84088,39.83106],[32.83931,39.83028],[32.8377,39.83063],[32.83605,39.83042],[32.83407,39.83133],[32.83279,39.83219],[32.83229,39.83207],[32.83141,39.83191],[32.8308,39.83207],[32.83015,39.83234],[32.82941,39.83221],[32.82926,39.83182],[32.82872,39.83129],[32.82667,39.82987],[32.82661,39.82914],[32.8271,39.82839],[32.82797,39.8277],[32.82981,39.82688],[32.83091,39.82632],[32.83104,39.82554],[32.83061,39.82518],[32.82969,39.82506],[32.82774,39.82569],[32.8263,39.82594],[32.82574,39.826],[32.82485,39.8259],[32.82386,39.8256],[32.82299,39.8256],[32.82206,39.82523],[32.8213,39.82466],[32.81925,39.8243],[32.81648,39.82301],[32.8158,39.82239],[32.81577,39.82129],[32.81639,39.82023],[32.81639,39.81774],[32.81663,39.81585],[32.81766,39.81499],[32.81937,39.81466],[32.8204,39.81519],[32.82073,39.81402],[32.81829,39.81445],[32.81529,39.81511],[32.81211,39.81502],[32.80875,39.81439],[32.80608,39.8134],[32.80248,39.81184],[32.80175,39.81289],[32.80256,39.81416],[32.80243,39.81566],[32.79954,39.81543],[32.79837,39.81712],[32.79747,39.81951],[32.79639,39.82655],[32.7964,39.82717],[32.79652,39.82775],[32.79673,39.82843],[32.79807,39.831],[32.79818,39.83164],[32.79805,39.83256],[32.79777,39.8339],[32.79756,39.83484],[32.79774,39.83545],[32.79798,39.83597],[32.79857,39.83652],[32.79944,39.83723],[32.79976,39.83736],[32.80147,39.83909],[32.80299,39.84024],[32.80431,39.84109]]]}},{"type":"Feature","properties":{},"geometry":{"type":"Polygon","coordinates":[[[32.81126,39.84865],[32.81109,39.84786],[32.81089,39.84714],[32.8106,39.84656],[32.8103,39.84603],[32.80989,39.84549],[32.80943,39.84501],[32.80868,39.84438],[32.80783,39.84364],[32.80788,39.84352],[32.8084,39.84349],[32.80839,39.84316],[32.80762,39.84323],[32.80788,39.84239],[32.80801,39.84223],[32.8082,39.84213],[32.80851,39.84205],[32.80887,39.84202],[32.80926,39.84203],[32.82092,39.84369],[32.82241,39.84398],[32.82347,39.84426],[32.82489,39.84468],[32.82586,39.84482],[32.82485,39.84668],[32.82356,39.84644],[32.82255,39.84636],[32.82123,39.84642],[32.81803,39.84654],[32.81709,39.84667],[32.81544,39.84718],[32.81463,39.84731],[32.81446,39.84741],[32.8139,39.84801],[32.81344,39.84854],[32.81299,39.84905],[32.81291,39.84952],[32.81316,39.84953],[32.81309,39.84993],[32.81246,39.84973],[32.81213,39.84901],[32.81166,39.84925],[32.81126,39.84865]]]}}]}