{"type":"FeatureCollection","features":[{"type":"Feature","properties":{"name":"Hilâl","place":"suburb"},"geometry":{"type":"Point","coordinates":[32.85604,39.86887]}},{"type":"Feature","properties":{"name":"İlkbahar","place":"suburb"},"geometry":{"type":"Point","coordinates":[32.85859,39.86216]}},{"type":"Feature","properties":{"name":"Malazgirt","place":"suburb"},"geometry":{"type":"Point","coordinates":[32.8301,39.87025]}},{"type":"Feature","properties":{"name":"Keklik Pınarı","place":"suburb"},"geometry":{"type":"Point","coordinates":[32.82304,39.86678]}},{"type":"Feature","properties":{"name":"Mürsel Uluç","place":"suburb"},"geometry":{"type":"Point","coordinates":[32.83303,39.86388]}},{"type":"Feature","properties":{"name":"Metin Akkuş","place":"suburb"},"geometry":{"type":"Point","coordinates":[32.84343,39.86975]}},{"type":"Feature","properties":{"name":"İlker","place":"suburb"},"geometry":{"type":"Point","coordinates":[32.83752,39.86362]}},{"type":"Feature","properties":{"name":"Sakarya","place":"suburb"},"geometry":{"type":"Point","coordinates":[32.84566,39.85531]}},{"type":"Feature","properties":{"name":"Dumlupınar","place":"suburb"},"geometry":{"type":"Point","coordinates":[32.85209,39.85206]}},{"type":"Feature","properties":{"name":"Or-An","place":"suburb"},"geometry":{"type":"Point","coordinates":[32.8216,39.84878]}},{"type":"Feature","properties":{"name":"Dikmenköy","place":"quarter"},"geometry":{"type":"Point","coordinates":[32.84225,39.85412]}}]}