{"type":"FeatureCollection","features":[{"type":"Feature","properties":{},"geometry":{"type":"LineString","coordinates":[[32.85478,39.85969],[32.8553,39.85999],[32.85578,39.86031],[32.85631,39.86061],[32.85685,39.8609],[32.85838,39.86172],[32.86696,39.86626],[32.8691,39.86741],[32.86945,39.86759],[32.86953,39.86763],[32.86985,39.86777],[32.8703,39.86806],[32.87277,39.86964],[32.8738,39.87049],[32.87471,39.87134],[32.87542,39.87202],[32.87701,39.87345],[32.87714,39.87357],[32.87979,39.87597],[32.88632,39.88209],[32.88671,39.88246],[32.88681,39.88254],[32.88711,39.88282],[32.88938,39.88487],[32.88996,39.88541],[32.89068,39.88591],[32.89193,39.88647],[32.89257,39.88665],[32.89366,39.88688],[32.89434,39.88706],[32.89494,39.88726],[32.89551,39.8875],[32.89606,39.88782],[32.89636,39.88801],[32.89665,39.88822],[32.89778,39.88913],[32.89834,39.88952],[32.89884,39.88978],[32.89937,39.89],[32.90018,39.8902],[32.90092,39.89031],[32.90152,39.89032],[32.90224,39.8903],[32.90264,39.89024],[32.90539,39.88971],[32.91059,39.88848],[32.91128,39.88828],[32.91189,39.88807],[32.91242,39.88783],[32.91298,39.88754],[32.91349,39.88722],[32.91396,39.88687],[32.9144,39.88655],[32.91486,39.88623],[32.91527,39.88593],[32.91555,39.88575],[32.91589,39.88555],[32.91619,39.88539],[32.91654,39.88521],[32.91684,39.8851],[32.91718,39.88497],[32.91757,39.88485],[32.91806,39.88474],[32.91855,39.88464],[32.91904,39.88456],[32.91951,39.88452],[32.92007,39.88451],[32.92078,39.88454],[32.92116,39.88458],[32.92154,39.88464],[32.92192,39.88471],[32.92274,39.88493],[32.92347,39.88522],[32.92562,39.8862],[32.92737,39.88697],[32.92932,39.88788],[32.93012,39.88825],[32.93182,39.88905],[32.93228,39.88926],[32.93265,39.88944],[32.93299,39.88967],[32.93339,39.89006],[32.93361,39.8904],[32.93387,39.89083],[32.93446,39.8921],[32.935,39.89314],[32.93558,39.89435],[32.93584,39.89501],[32.93597,39.89568],[32.93614,39.89696],[32.93626,39.89733],[32.93639,39.89766],[32.93672,39.89839],[32.93742,39.89997],[32.93792,39.90109],[32.93804,39.90153],[32.93817,39.90262],[32.93826,39.90334],[32.93824,39.90384],[32.93814,39.90438],[32.93798,39.90498],[32.93716,39.90772],[32.93713,39.90815],[32.93718,39.90891],[32.93727,39.90915],[32.93742,39.90941],[32.93811,39.91033],[32.93824,39.91059],[32.93866,39.9125],[32.93872,39.913],[32.93872,39.91352],[32.93866,39.91439],[32.93866,39.91458],[32.93881,39.91479],[32.93912,39.91514],[32.93917,39.91529],[32.93916,39.91546],[32.93914,39.91558],[32.9392,39.91581],[32.93929,39.91602],[32.93948,39.91641],[32.93954,39.91654]]}},{"type":"Feature","properties":{},"geometry":{"type":"LineString","coordinates":[[32.8405,39.84776],[32.83863,39.84685],[32.83803,39.84658],[32.83738,39.84633],[32.83683,39.84615],[32.83644,39.84602],[32.83555,39.8458],[32.83366,39.8453],[32.83244,39.84511],[32.83157,39.84507],[32.83096,39.84511],[32.83057,39.8451],[32.83052,39.8451],[32.82977,39.84509]]}},{"type":"Feature","properties":{},"geometry":{"type":"LineString","coordinates":[[32.84085,39.84798],[32.84067,39.84786],[32.8405,39.84776]]}},{"type":"Feature","properties":{},"geometry":{"type":"LineString","coordinates":[[32.85906,39.87078],[32.85902,39.87079],[32.85753,39.87083],[32.85703,39.87084],[32.85656,39.87083],[32.85592,39.87077],[32.8556,39.87073],[32.85515,39.87063],[32.8541,39.87032],[32.85344,39.86995],[32.85323,39.86974],[32.85311,39.86952],[32.85304,39.86935],[32.85309,39.86867],[32.8532,39.86815],[32.85348,39.86762],[32.85395,39.86677],[32.85417,39.86667],[32.85484,39.86612],[32.85573,39.86556]]}},{"type":"Feature","properties":{},"geometry":{"type":"LineString","coordinates":[[32.84095,39.84802],[32.84089,39.84819]]}},{"type":"Feature","properties":{},"geometry":{"type":"LineString","coordinates":[[32.84054,39.84953],[32.84051,39.84956],[32.84049,39.84957],[32.84041,39.84956],[32.83997,39.8495],[32.83979,39.84855],[32.83977,39.84848],[32.83957,39.84822],[32.83908,39.84792],[32.83829,39.84784],[32.83795,39.848],[32.83735,39.84846],[32.83731,39.84875],[32.83763,39.84928],[32.83812,39.84953],[32.83881,39.84949],[32.839,39.84951],[32.83913,39.84952],[32.8395,39.8495],[32.83997,39.8495]]}},{"type":"Feature","properties":{},"geometry":{"type":"LineString","coordinates":[[32.85849,39.86851],[32.85922,39.86993],[32.85979,39.87097],[32.86022,39.87179],[32.86036,39.87236],[32.86039,39.87243],[32.86052,39.87315],[32.86059,39.87338],[32.86072,39.87343],[32.86091,39.87336],[32.86088,39.87326],[32.86039,39.87243]]}},{"type":"Feature","properties":{},"geometry":{"type":"Polygon","coordinates":[[[32.85886,39.8669],[32.85892,39.86702],[32.85898,39.86732],[32.85889,39.86739],[32.85875,39.86739],[32.8586,39.86705],[32.85869,39.86692],[32.85886,39.8669]]]}},{"type":"Feature","properties":{},"geometry":{"type":"Polygon","coordinates":[[[32.84101,39.848],[32.84095,39.84802],[32.8409,39.84801],[32.84085,39.84798],[32.84084,39.84793],[32.84084,39.84785],[32.84087,39.84778],[32.84095,39.84774],[32.841,39.84777],[32.84106,39.84779],[32.84107,39.84787],[32.84107,39.84794],[32.84101,39.848]]]}},{"type":"Feature","properties":{},"geometry":{"type":"LineString","coordinates":[[32.82977,39.84509],[32.82963,39.84541],[32.82948,39.84571],[32.82939,39.84586],[32.82932,39.84598],[32.8292,39.84622],[32.82908,39.84645],[32.82895,39.84668],[32.82885,39.84678],[32.82872,39.8469],[32.82865,39.84694],[32.82758,39.84738],[32.8272,39.84755],[32.82706,39.84766],[32.82698,39.8477]]}},{"type":"Feature","properties":{},"geometry":{"type":"Polygon","coordinates":[[[32.82979,39.84494],[32.82982,39.84502],[32.82977,39.84509],[32.82967,39.8451],[32.82961,39.84509],[32.82956,39.84501],[32.82961,39.84493],[32.8297,39.8449],[32.82979,39.84494]]]}},{"type":"Feature","properties":{},"geometry":{"type":"LineString","coordinates":[[32.82961,39.84509],[32.82909,39.84503],[32.82846,39.84495],[32.82608,39.84472],[32.82524,39.84461],[32.82484,39.84453],[32.82337,39.8441],[32.82234,39.84384],[32.82082,39.84356],[32.81137,39.84223],[32.80981,39.84198],[32.80933,39.84191],[32.80909,39.84188],[32.80876,39.84187],[32.80815,39.8419],[32.80759,39.842]]}},{"type":"Feature","properties":{},"geometry":{"type":"LineString","coordinates":[[32.82979,39.84494],[32.83046,39.8449],[32.8305,39.84489],[32.83169,39.84492],[32.83248,39.84497],[32.83307,39.84504],[32.83403,39.84524],[32.83579,39.84569],[32.83615,39.84579],[32.83677,39.84596],[32.83741,39.84618],[32.83794,39.84638],[32.83852,39.84664],[32.83923,39.84698],[32.83982,39.84726],[32.84006,39.84736],[32.8402,39.84742],[32.84043,39.84752],[32.84072,39.84764],[32.84095,39.84774]]}},{"type":"Feature","properties":{},"geometry":{"type":"LineString","coordinates":[[32.82686,39.84753],[32.82708,39.84747],[32.82718,39.84744],[32.82861,39.84686],[32.82875,39.84675],[32.82884,39.84664],[32.82896,39.84643],[32.82912,39.84614],[32.82927,39.84578],[32.82936,39.8456],[32.82944,39.84546],[32.82961,39.84509]]}},{"type":"Feature","properties":{},"geometry":{"type":"LineString","coordinates":[[32.85875,39.86739],[32.8586,39.86738],[32.85835,39.86743]]}},{"type":"Feature","properties":{},"geometry":{"type":"LineString","coordinates":[[32.85886,39.8669],[32.85892,39.86702],[32.85898,39.86732]]}},{"type":"Feature","properties":{},"geometry":{"type":"LineString","coordinates":[[32.85898,39.86732],[32.85918,39.86778],[32.8595,39.86861],[32.86002,39.86967],[32.86029,39.87008],[32.86063,39.87066],[32.86109,39.87134],[32.86154,39.87209],[32.86163,39.87224],[32.86224,39.87333],[32.86277,39.87422],[32.86322,39.87501],[32.86331,39.8752],[32.86367,39.87591],[32.86418,39.87696],[32.8645,39.87749]]}},{"type":"Feature","properties":{},"geometry":{"type":"LineString","coordinates":[[32.84846,39.85213],[32.84786,39.85208],[32.84749,39.85212],[32.84691,39.85219],[32.84702,39.853],[32.84709,39.85364],[32.8477,39.85359],[32.84838,39.85358],[32.84884,39.85468],[32.84892,39.8553],[32.84895,39.85625],[32.84701,39.85549],[32.84704,39.85495],[32.84892,39.8553]]}},{"type":"Feature","properties":{},"geometry":{"type":"LineString","coordinates":[[32.84106,39.84779],[32.84118,39.84784],[32.84145,39.848],[32.84172,39.84819],[32.84228,39.84848],[32.84274,39.8487],[32.84379,39.84922],[32.84465,39.84965],[32.84574,39.85019],[32.84638,39.8505],[32.84683,39.85073],[32.8474,39.85105],[32.84795,39.85142],[32.84833,39.85177],[32.84874,39.85221],[32.84925,39.85292],[32.84927,39.85295],[32.84965,39.85355],[32.85043,39.85475],[32.85075,39.85526],[32.85152,39.8565],[32.85181,39.85694],[32.85192,39.85709],[32.85206,39.85725]]}},{"type":"Feature","properties":{},"geometry":{"type":"LineString","coordinates":[[32.84089,39.84819],[32.84081,39.84846],[32.84062,39.84927],[32.84055,39.8495],[32.84054,39.84953],[32.84053,39.84958],[32.84045,39.84983],[32.84036,39.85032],[32.84028,39.85075],[32.84022,39.85151],[32.84021,39.85165]]}},{"type":"Feature","properties":{},"geometry":{"type":"LineString","coordinates":[[32.81172,39.84949],[32.81189,39.8497],[32.81205,39.84995],[32.81211,39.85011],[32.81214,39.85026],[32.81214,39.85029],[32.81213,39.85036],[32.81212,39.85046],[32.81208,39.85058],[32.81203,39.85072],[32.81199,39.85084],[32.81183,39.85114],[32.81175,39.85128],[32.81172,39.85132],[32.81166,39.85143],[32.81161,39.85151],[32.8115,39.85168],[32.81121,39.85211],[32.81104,39.85266],[32.81103,39.85277],[32.81109,39.85298],[32.8112,39.85319],[32.81181,39.85396],[32.81207,39.85425],[32.81744,39.86228],[32.8178,39.86283],[32.81828,39.86335],[32.81884,39.86389],[32.8192,39.86451],[32.81961,39.86549],[32.81995,39.86599],[32.82004,39.86607],[32.82025,39.86621],[32.82241,39.86733],[32.82248,39.86736],[32.8228,39.86756],[32.8232,39.86786],[32.82363,39.86818],[32.82407,39.86845],[32.82432,39.86864],[32.82468,39.86879],[32.82655,39.86952],[32.82696,39.86973],[32.82869,39.87056],[32.82917,39.87085],[32.82945,39.87102],[32.83001,39.87134],[32.83149,39.87193],[32.83231,39.87251],[32.83347,39.87331],[32.83361,39.87342],[32.8339,39.87394],[32.83424,39.87452],[32.83463,39.87505],[32.83664,39.87729],[32.83746,39.87821],[32.83823,39.87916],[32.83842,39.87939],[32.83851,39.87957],[32.83863,39.87981],[32.83923,39.88105],[32.83949,39.88208],[32.83956,39.88293],[32.83961,39.88454],[32.83966,39.8849],[32.83977,39.88528],[32.84,39.88593],[32.84007,39.88627],[32.84012,39.8877],[32.84029,39.88842],[32.84132,39.89022],[32.8414,39.89096],[32.84148,39.89316],[32.84149,39.89345],[32.84157,39.89381],[32.84202,39.89606]]}},{"type":"Feature","properties":{},"geometry":{"type":"LineString","coordinates":[[32.82155,39.84688],[32.82163,39.84706],[32.82173,39.84725],[32.82182,39.84738]]}},{"type":"Feature","properties":{},"geometry":{"type":"LineString","coordinates":[[32.85231,39.87146],[32.85254,39.87109],[32.85279,39.87066],[32.85344,39.86995],[32.85437,39.869]]}},{"type":"Feature","properties":{},"geometry":{"type":"LineString","coordinates":[[32.85406,39.86779],[32.85394,39.86811],[32.85393,39.8683],[32.85396,39.86845],[32.85405,39.86863],[32.85437,39.869],[32.85465,39.86918],[32.85577,39.86935],[32.85731,39.86924],[32.85737,39.86924],[32.85757,39.86919],[32.85777,39.86914],[32.8579,39.86909],[32.85803,39.86904],[32.8581,39.86902]]}},{"type":"Feature","properties":{},"geometry":{"type":"LineString","coordinates":[[32.85602,39.86229],[32.85613,39.86216],[32.8566,39.86168],[32.85822,39.86253],[32.85773,39.86307],[32.85742,39.86335],[32.85731,39.86347],[32.85676,39.86421],[32.85673,39.86427]]}},{"type":"Feature","properties":{},"geometry":{"type":"LineString","coordinates":[[32.85655,39.86663],[32.85578,39.86692],[32.8556,39.86697],[32.85513,39.86721]]}},{"type":"Feature","properties":{},"geometry":{"type":"LineString","coordinates":[[32.8556,39.86697],[32.8556,39.86698],[32.85563,39.86713],[32.85589,39.86798],[32.85594,39.86805],[32.85602,39.86812],[32.85637,39.86825],[32.85662,39.86833],[32.85672,39.86837],[32.8568,39.86842]]}},{"type":"Feature","properties":{},"geometry":{"type":"LineString","coordinates":[[32.85465,39.86918],[32.8549,39.86849],[32.85497,39.86842]]}},{"type":"Feature","properties":{},"geometry":{"type":"LineString","coordinates":[[32.8643,39.87763],[32.86423,39.87743],[32.86419,39.87733],[32.86412,39.87718],[32.86405,39.87703],[32.86324,39.8753],[32.86305,39.87487],[32.8621,39.87334],[32.86176,39.87277],[32.86134,39.8721],[32.86049,39.87071],[32.85986,39.86973],[32.85932,39.86865],[32.85895,39.86769],[32.85875,39.86739]]}},{"type":"Feature","properties":{},"geometry":{"type":"LineString","coordinates":[[32.85892,39.86702],[32.85907,39.86689],[32.85961,39.86651],[32.86022,39.86608],[32.86077,39.86569],[32.86231,39.86464],[32.8627,39.86434]]}},{"type":"Feature","properties":{},"geometry":{"type":"LineString","coordinates":[[32.82625,39.84721],[32.82668,39.84743],[32.8268,39.84746],[32.82708,39.84747]]}},{"type":"Feature","properties":{},"geometry":{"type":"LineString","coordinates":[[32.85323,39.86742],[32.8524,39.86872],[32.85206,39.86957],[32.85188,39.87032],[32.85192,39.87045],[32.85219,39.87091],[32.85254,39.87109]]}},{"type":"Feature","properties":{},"geometry":{"type":"Polygon","coordinates":[[[32.85176,39.85746],[32.85177,39.8574],[32.85178,39.85738],[32.85186,39.85734],[32.85194,39.85731],[32.85206,39.85725],[32.85213,39.85737],[32.85216,39.85742],[32.85216,39.85747],[32.85214,39.85752],[32.85212,39.85755],[32.85205,39.8576],[32.85198,39.85761],[32.85191,39.85761],[32.85187,39.85759],[32.85181,39.85756],[32.85179,39.85754],[32.85176,39.85749],[32.85176,39.85746]]]}},{"type":"Feature","properties":{},"geometry":{"type":"LineString","coordinates":[[32.85019,39.87019],[32.85084,39.86928],[32.8514,39.8683],[32.85241,39.86689],[32.85292,39.86607],[32.85368,39.86509],[32.8546,39.86397]]}},{"type":"Feature","properties":{},"geometry":{"type":"LineString","coordinates":[[32.85206,39.86957],[32.85084,39.86928]]}},{"type":"Feature","properties":{},"geometry":{"type":"LineString","coordinates":[[32.85254,39.87109],[32.85352,39.87141],[32.85548,39.8715]]}},{"type":"Feature","properties":{},"geometry":{"type":"LineString","coordinates":[[32.85178,39.85738],[32.85158,39.85707],[32.85081,39.85571],[32.85077,39.85563],[32.84931,39.85329],[32.8488,39.85251],[32.84843,39.85206],[32.84807,39.85171],[32.84796,39.8516],[32.84784,39.85151],[32.84741,39.85117],[32.8471,39.85099],[32.84672,39.85078],[32.84637,39.85062],[32.84602,39.85046],[32.84122,39.8481],[32.84106,39.84804],[32.84095,39.84802]]}},{"type":"Feature","properties":{},"geometry":{"type":"LineString","coordinates":[[32.85216,39.85747],[32.85224,39.85761],[32.85262,39.85832],[32.85319,39.85946],[32.85335,39.85987],[32.85345,39.86012],[32.85356,39.8605],[32.85366,39.86079],[32.85382,39.86134],[32.85404,39.86183],[32.85431,39.86223],[32.85473,39.86271],[32.85522,39.86314],[32.85579,39.86359],[32.85673,39.86427],[32.857,39.86447],[32.85744,39.86478],[32.85785,39.86514],[32.85827,39.8657],[32.85878,39.86667],[32.85886,39.8669]]}},{"type":"Feature","properties":{},"geometry":{"type":"LineString","coordinates":[[32.83644,39.84602],[32.83623,39.84607],[32.83619,39.84608],[32.83612,39.84611],[32.8361,39.84614],[32.83609,39.8462],[32.83609,39.84625]]}},{"type":"Feature","properties":{},"geometry":{"type":"Polygon","coordinates":[[[32.83096,39.84819],[32.83091,39.84815],[32.83089,39.84811],[32.83091,39.84807],[32.83091,39.84806],[32.83093,39.84804],[32.83099,39.84803],[32.83104,39.84807],[32.83105,39.8481],[32.83105,39.84813],[32.83103,39.84816],[32.831,39.84818],[32.83096,39.84819]]]}},{"type":"Feature","properties":{},"geometry":{"type":"LineString","coordinates":[[32.8312,39.8481],[32.83139,39.84806],[32.8314,39.84805],[32.83141,39.84803],[32.83145,39.84798],[32.83152,39.84784],[32.8316,39.84749]]}},{"type":"Feature","properties":{},"geometry":{"type":"LineString","coordinates":[[32.83602,39.84625],[32.83597,39.84613],[32.8359,39.84604],[32.83581,39.84597],[32.83555,39.8458]]}},{"type":"Feature","properties":{},"geometry":{"type":"LineString","coordinates":[[32.8556,39.86363],[32.85538,39.86361],[32.85514,39.86365],[32.85485,39.8638],[32.8546,39.86397]]}},{"type":"Feature","properties":{},"geometry":{"type":"LineString","coordinates":[[32.8524,39.86872],[32.8514,39.8683]]}},{"type":"Feature","properties":{},"geometry":{"type":"LineString","coordinates":[[32.85019,39.87019],[32.85029,39.87023],[32.85188,39.87032]]}},{"type":"Feature","properties":{},"geometry":{"type":"LineString","coordinates":[[32.85573,39.86556],[32.85604,39.86568],[32.85621,39.86582],[32.85655,39.86663],[32.85702,39.86766],[32.85718,39.86791],[32.85736,39.86807]]}},{"type":"Feature","properties":{},"geometry":{"type":"LineString","coordinates":[[32.8546,39.86397],[32.8546,39.86301],[32.85464,39.86289]]}},{"type":"Feature","properties":{},"geometry":{"type":"LineString","coordinates":[[32.85292,39.86607],[32.85197,39.86555],[32.85152,39.86518],[32.8512,39.86492],[32.85108,39.86482],[32.85071,39.86457]]}},{"type":"Feature","properties":{},"geometry":{"type":"LineString","coordinates":[[32.85508,39.87423],[32.85508,39.87396],[32.85511,39.87367],[32.85512,39.87347],[32.85522,39.87299],[32.85525,39.87281],[32.85526,39.87263],[32.85548,39.8715],[32.8556,39.87073],[32.8557,39.86993],[32.85577,39.86935],[32.85588,39.86877]]}},{"type":"Feature","properties":{},"geometry":{"type":"LineString","coordinates":[[32.84061,39.84733],[32.84064,39.84737],[32.84071,39.84747],[32.84076,39.84752],[32.8408,39.84758],[32.84086,39.84765],[32.84095,39.84774]]}},{"type":"Feature","properties":{},"geometry":{"type":"LineString","coordinates":[[32.93954,39.91654],[32.93917,39.91605],[32.93891,39.91545],[32.93887,39.91537],[32.93884,39.91528],[32.93874,39.91502],[32.93855,39.91465],[32.93849,39.91443],[32.93856,39.91342],[32.93854,39.91288],[32.93845,39.91233],[32.93807,39.91063],[32.93798,39.91042],[32.93716,39.90931],[32.93704,39.90907],[32.93695,39.90816],[32.93699,39.90773],[32.93783,39.90494],[32.93795,39.90454],[32.93805,39.90397],[32.93807,39.90344],[32.938,39.90263],[32.93787,39.9015],[32.93778,39.9012],[32.93761,39.90088],[32.93746,39.90048],[32.93703,39.8995],[32.93652,39.89838],[32.93622,39.89769],[32.93605,39.89725],[32.93594,39.89676],[32.93578,39.89546],[32.93561,39.89483],[32.93481,39.89318],[32.9344,39.89252],[32.93415,39.8921],[32.93403,39.89163],[32.93351,39.89056],[32.93321,39.89012],[32.93294,39.88985],[32.93261,39.8896],[32.93215,39.88934],[32.93179,39.88917],[32.92999,39.88845],[32.92918,39.88802],[32.9275,39.88722],[32.92555,39.88632],[32.9234,39.88532],[32.9227,39.88504],[32.92187,39.88482],[32.92152,39.88474],[32.92116,39.88468],[32.92075,39.88465],[32.92006,39.88464],[32.9195,39.88465],[32.91906,39.88468],[32.91859,39.88474],[32.91809,39.88485],[32.91765,39.88495],[32.91719,39.8851],[32.9169,39.8852],[32.91658,39.88535],[32.91626,39.88549],[32.91596,39.88564],[32.91563,39.88584],[32.91535,39.88601],[32.91497,39.8863],[32.91451,39.88665],[32.91408,39.88699],[32.91358,39.88736],[32.91309,39.88766],[32.9125,39.88795],[32.91197,39.88818],[32.91134,39.88838],[32.91067,39.88857],[32.90539,39.88985],[32.90265,39.89041],[32.90229,39.89047],[32.90151,39.89052],[32.90089,39.89052],[32.90011,39.8904],[32.8993,39.89015],[32.89871,39.88991],[32.89821,39.88961],[32.89762,39.88922],[32.89622,39.88812],[32.89597,39.88796],[32.8954,39.88764],[32.89486,39.8874],[32.89427,39.8872],[32.89361,39.88705],[32.89251,39.88683],[32.8918,39.88662],[32.89054,39.88602],[32.88983,39.8855],[32.8892,39.88497],[32.88699,39.88288],[32.8867,39.88261],[32.88662,39.88253],[32.88624,39.88216],[32.88294,39.87906],[32.88292,39.87904],[32.88172,39.878],[32.87747,39.87405],[32.87701,39.87364],[32.87646,39.87315],[32.87532,39.87207],[32.87387,39.8707],[32.87342,39.87031],[32.87322,39.87013],[32.87252,39.86959],[32.86973,39.86793],[32.86949,39.86779],[32.86944,39.86776],[32.86937,39.86772],[32.86925,39.86766],[32.8691,39.86758],[32.86705,39.86648],[32.86683,39.86636],[32.8666,39.86624],[32.86263,39.86409],[32.8618,39.86366],[32.85645,39.86088],[32.85566,39.86046],[32.8551,39.86009]]}},{"type":"Feature","properties":{},"geometry":{"type":"LineString","coordinates":[[32.82758,39.84738],[32.82728,39.84756],[32.82722,39.84761],[32.82719,39.84767],[32.82718,39.84774],[32.8272,39.8478],[32.82723,39.84786],[32.82727,39.84792],[32.82845,39.84875],[32.82895,39.84894],[32.82904,39.84896],[32.8294,39.84902]]}},{"type":"Feature","properties":{},"geometry":{"type":"LineString","coordinates":[[32.82718,39.84791],[32.8269,39.84778],[32.82684,39.84775]]}},{"type":"Feature","properties":{},"geometry":{"type":"LineString","coordinates":[[32.8402,39.84742],[32.84028,39.84744],[32.84053,39.8475],[32.84059,39.8475],[32.84064,39.84744],[32.84062,39.84737],[32.84061,39.84733]]}},{"type":"Feature","properties":{},"geometry":{"type":"LineString","coordinates":[[32.8294,39.84902],[32.82971,39.84907],[32.83079,39.84907],[32.83109,39.84919],[32.83205,39.84992],[32.83216,39.85012],[32.83222,39.85076],[32.8323,39.85097]]}},{"type":"Feature","properties":{},"geometry":{"type":"Polygon","coordinates":[[[32.82893,39.84901],[32.82904,39.84896],[32.82912,39.84899],[32.82917,39.84902],[32.82919,39.84907],[32.82918,39.84912],[32.82914,39.84917],[32.82907,39.84919],[32.82898,39.84919],[32.82893,39.84915],[32.82891,39.84909],[32.82893,39.84901]]]}},{"type":"Feature","properties":{},"geometry":{"type":"LineString","coordinates":[[32.83216,39.85101],[32.83208,39.85091],[32.83205,39.85076],[32.832,39.85013],[32.83191,39.84996],[32.83092,39.84925],[32.83074,39.84918],[32.8291,39.8492],[32.82898,39.84919],[32.82889,39.84916],[32.8288,39.84911],[32.82834,39.84878],[32.82718,39.84791]]}},{"type":"Feature","properties":{},"geometry":{"type":"LineString","coordinates":[[32.82672,39.84761],[32.82662,39.84752],[32.82625,39.84721]]}},{"type":"Feature","properties":{},"geometry":{"type":"Polygon","coordinates":[[[32.82684,39.84775],[32.82678,39.84774],[32.82673,39.8477],[32.82672,39.84766],[32.82672,39.84761],[32.82677,39.84755],[32.82686,39.84753],[32.82695,39.84756],[32.827,39.84761],[32.827,39.84765],[32.82698,39.8477],[32.82691,39.84775],[32.82684,39.84775]]]}},{"type":"Feature","properties":{},"geometry":{"type":"LineString","coordinates":[[32.82622,39.84794],[32.82631,39.84786],[32.8265,39.84774],[32.82672,39.84761]]}},{"type":"Feature","properties":{},"geometry":{"type":"LineString","coordinates":[[32.82124,39.8508],[32.82109,39.8508],[32.82099,39.85076]]}},{"type":"Feature","properties":{},"geometry":{"type":"Polygon","coordinates":[[[32.83427,39.85087],[32.83436,39.85091],[32.83438,39.85098],[32.83436,39.85101],[32.83426,39.85103],[32.83421,39.85098],[32.8342,39.85092],[32.83427,39.85087]]]}},{"type":"Feature","properties":{},"geometry":{"type":"LineString","coordinates":[[32.83436,39.85091],[32.83461,39.85108],[32.83517,39.85143],[32.83535,39.85157],[32.83572,39.85183],[32.83574,39.85186],[32.83571,39.85192],[32.83533,39.85223],[32.83529,39.85224],[32.83521,39.85217],[32.83522,39.85212],[32.83552,39.85183],[32.83554,39.85173],[32.83535,39.85157],[32.83535,39.85139],[32.8353,39.85124],[32.83445,39.8501],[32.83429,39.84983],[32.83408,39.84937],[32.83399,39.84927],[32.83394,39.84922]]}},{"type":"Feature","properties":{},"geometry":{"type":"LineString","coordinates":[[32.83609,39.84625],[32.83613,39.84637],[32.83632,39.84686],[32.83655,39.84739],[32.83674,39.84785],[32.83678,39.8482],[32.83674,39.84826],[32.83669,39.84831],[32.83661,39.84836],[32.83641,39.84845],[32.83618,39.84852],[32.83571,39.84865],[32.8352,39.84879],[32.83493,39.8489],[32.83484,39.84898],[32.83463,39.84914],[32.83447,39.8492],[32.83432,39.84922],[32.83416,39.84924],[32.83394,39.84922],[32.83375,39.8492],[32.83361,39.84916],[32.83321,39.84903],[32.83287,39.8489],[32.83236,39.84869],[32.8312,39.84827],[32.83111,39.84824],[32.83096,39.84819],[32.83085,39.84813],[32.83042,39.84799],[32.82895,39.8472],[32.82861,39.84694]]}},{"type":"Feature","properties":{},"geometry":{"type":"Polygon","coordinates":[[[32.82865,39.84694],[32.82861,39.84694],[32.82858,39.84691],[32.82861,39.84686],[32.82865,39.84686],[32.82868,39.84689],[32.82865,39.84694]]]}},{"type":"Feature","properties":{},"geometry":{"type":"LineString","coordinates":[[32.82936,39.8456],[32.8294,39.84547],[32.82942,39.84535],[32.82937,39.84522],[32.82922,39.84512],[32.82909,39.84503]]}},{"type":"Feature","properties":{},"geometry":{"type":"LineString","coordinates":[[32.85753,39.87016],[32.85746,39.86976],[32.85732,39.86926],[32.85731,39.86924]]}},{"type":"Feature","properties":{},"geometry":{"type":"LineString","coordinates":[[32.85465,39.86918],[32.85434,39.86983],[32.8541,39.87032],[32.85401,39.87049]]}},{"type":"Feature","properties":{},"geometry":{"type":"LineString","coordinates":[[32.85406,39.86779],[32.85348,39.86762],[32.85323,39.86742],[32.85241,39.86689]]}},{"type":"Feature","properties":{},"geometry":{"type":"LineString","coordinates":[[32.85406,39.86779],[32.85454,39.86722]]}},{"type":"Feature","properties":{},"geometry":{"type":"LineString","coordinates":[[32.8551,39.86009],[32.8546,39.85979],[32.85376,39.85923],[32.85359,39.85914],[32.8534,39.85915],[32.85328,39.85923],[32.85322,39.85932],[32.85319,39.85946]]}},{"type":"Feature","properties":{},"geometry":{"type":"LineString","coordinates":[[32.8407,39.84979],[32.84097,39.84869],[32.841,39.84859]]}},{"type":"Feature","properties":{},"geometry":{"type":"LineString","coordinates":[[32.84087,39.84851],[32.841,39.84859],[32.84128,39.84871],[32.84199,39.84908]]}},{"type":"Feature","properties":{},"geometry":{"type":"LineString","coordinates":[[32.84082,39.84823],[32.84084,39.84815],[32.84085,39.84807],[32.84085,39.84798]]}},{"type":"Feature","properties":{},"geometry":{"type":"LineString","coordinates":[[32.84122,39.8481],[32.84102,39.84808],[32.84096,39.84811],[32.84092,39.84815],[32.84089,39.84819]]}},{"type":"Feature","properties":{},"geometry":{"type":"LineString","coordinates":[[32.83881,39.84949],[32.83926,39.84898],[32.83977,39.84848]]}},{"type":"Feature","properties":{},"geometry":{"type":"LineString","coordinates":[[32.85224,39.85761],[32.85248,39.85793],[32.85258,39.85804],[32.85282,39.85827],[32.85313,39.85852],[32.85349,39.85879],[32.85389,39.85908],[32.8541,39.85923],[32.85454,39.85955],[32.85478,39.85969]]}},{"type":"Feature","properties":{},"geometry":{"type":"LineString","coordinates":[[32.82684,39.84775],[32.82666,39.84784],[32.82634,39.84792],[32.82622,39.84794]]}},{"type":"Feature","properties":{},"geometry":{"type":"LineString","coordinates":[[32.82622,39.84794],[32.82413,39.84904],[32.82203,39.85027]]}},{"type":"Feature","properties":{},"geometry":{"type":"LineString","coordinates":[[32.82895,39.84668],[32.82893,39.84684],[32.82894,39.84699],[32.82903,39.84715],[32.82919,39.84731],[32.83,39.84771],[32.8305,39.8479],[32.83099,39.84803],[32.83113,39.84808],[32.8312,39.8481],[32.83154,39.84825],[32.83245,39.84857],[32.83254,39.84861],[32.83296,39.84876],[32.83371,39.84904],[32.83419,39.84908],[32.83424,39.84907],[32.83457,39.84902],[32.83476,39.8489],[32.83494,39.84876],[32.83522,39.84868],[32.83574,39.84855],[32.83619,39.8484],[32.83642,39.84834],[32.83658,39.84827],[32.8367,39.84814],[32.83667,39.84787],[32.83648,39.84744],[32.83626,39.84688],[32.83606,39.84638],[32.83602,39.84625]]}},{"type":"Feature","properties":{},"geometry":{"type":"LineString","coordinates":[[32.83057,39.8451],[32.83016,39.84513],[32.82988,39.84519],[32.82963,39.84541]]}},{"type":"Feature","properties":{},"geometry":{"type":"LineString","coordinates":[[32.85152,39.86518],[32.8518,39.86495],[32.85248,39.86439],[32.85258,39.86429],[32.85387,39.86303],[32.85411,39.86276]]}},{"type":"Feature","properties":{},"geometry":{"type":"LineString","coordinates":[[32.8518,39.86495],[32.85161,39.86501],[32.85154,39.86501],[32.85119,39.86489],[32.85108,39.86482]]}},{"type":"Feature","properties":{},"geometry":{"type":"LineString","coordinates":[[32.85071,39.86457],[32.85006,39.86513],[32.84945,39.86559],[32.84919,39.86576],[32.84818,39.86644],[32.84772,39.86676],[32.84765,39.8668]]}},{"type":"Feature","properties":{},"geometry":{"type":"LineString","coordinates":[[32.84765,39.8668],[32.84769,39.86686],[32.84793,39.86703],[32.84803,39.86706],[32.84827,39.86707],[32.8485,39.86701],[32.84956,39.86661],[32.84965,39.86655],[32.84976,39.8664],[32.84981,39.86628],[32.84982,39.86595],[32.84972,39.86578],[32.84945,39.86559]]}},{"type":"Feature","properties":{},"geometry":{"type":"LineString","coordinates":[[32.85136,39.86285],[32.85152,39.86332],[32.85167,39.8636],[32.85195,39.86386],[32.85206,39.86393],[32.85258,39.86429]]}},{"type":"Feature","properties":{},"geometry":{"type":"LineString","coordinates":[[32.85437,39.8626],[32.85429,39.86266],[32.85411,39.86276],[32.85389,39.86289],[32.85204,39.86378],[32.85195,39.86386]]}},{"type":"Feature","properties":{},"geometry":{"type":"LineString","coordinates":[[32.85395,39.86677],[32.85394,39.86663],[32.8538,39.86647]]}},{"type":"Feature","properties":{},"geometry":{"type":"LineString","coordinates":[[32.8408,39.8483],[32.84078,39.84806],[32.84074,39.84797],[32.84067,39.84786]]}},{"type":"Feature","properties":{},"geometry":{"type":"LineString","coordinates":[[32.83823,39.85284],[32.83825,39.85268],[32.83826,39.85258]]}},{"type":"Feature","properties":{},"geometry":{"type":"LineString","coordinates":[[32.83823,39.85284],[32.83793,39.85366],[32.8379,39.85387],[32.83796,39.85416],[32.83802,39.85429]]}},{"type":"Feature","properties":{},"geometry":{"type":"LineString","coordinates":[[32.84021,39.85165],[32.83966,39.85201],[32.83838,39.85268],[32.83831,39.8527],[32.83828,39.85269],[32.83827,39.85266],[32.83826,39.85258],[32.83828,39.85231],[32.8386,39.85108],[32.83913,39.84952]]}},{"type":"Feature","properties":{},"geometry":{"type":"LineString","coordinates":[[32.83838,39.85268],[32.8383,39.85273],[32.83823,39.85284]]}},{"type":"Feature","properties":{},"geometry":{"type":"Polygon","coordinates":[[[32.83457,39.84902],[32.83465,39.84903],[32.83468,39.84907],[32.83463,39.84914],[32.83455,39.84913],[32.83452,39.84908],[32.83457,39.84902]]]}},{"type":"Feature","properties":{},"geometry":{"type":"LineString","coordinates":[[32.85464,39.86289],[32.85459,39.86293],[32.85453,39.8629],[32.85429,39.86266]]}},{"type":"Feature","properties":{},"geometry":{"type":"LineString","coordinates":[[32.8586,39.86705],[32.85845,39.86653],[32.85826,39.86607],[32.85803,39.86563],[32.85768,39.86521],[32.85727,39.86485],[32.8556,39.86363],[32.85503,39.8632],[32.8548,39.86304],[32.85464,39.86289],[32.85437,39.8626],[32.85427,39.86248],[32.85403,39.86211],[32.8538,39.8617],[32.85359,39.86121],[32.85345,39.86083],[32.85327,39.86017],[32.85304,39.85953],[32.85274,39.85893],[32.85232,39.85821],[32.8519,39.85765],[32.85187,39.85759]]}},{"type":"Feature","properties":{},"geometry":{"type":"LineString","coordinates":[[32.85411,39.86276],[32.8539,39.86252],[32.85365,39.86229]]}},{"type":"Feature","properties":{},"geometry":{"type":"LineString","coordinates":[[32.85365,39.86229],[32.85361,39.8623],[32.85339,39.86232],[32.8522,39.86259],[32.85163,39.86274],[32.85136,39.86285]]}},{"type":"Feature","properties":{},"geometry":{"type":"LineString","coordinates":[[32.80746,39.84193],[32.80784,39.8418],[32.80846,39.84173],[32.80909,39.84178],[32.81007,39.84189],[32.81159,39.84212],[32.81369,39.84243],[32.81511,39.84262],[32.81696,39.84288],[32.81877,39.84314],[32.82048,39.84338],[32.82168,39.84356],[32.82269,39.84376],[32.82369,39.84403],[32.82488,39.84438],[32.82567,39.84455],[32.82687,39.84468],[32.82811,39.84479],[32.82905,39.84489],[32.82961,39.84493]]}},{"type":"Feature","properties":{},"geometry":{"type":"LineString","coordinates":[[32.85835,39.86743],[32.85849,39.86723],[32.8586,39.86705]]}},{"type":"Feature","properties":{},"geometry":{"type":"LineString","coordinates":[[32.8398,39.84717],[32.83943,39.84698],[32.8381,39.84637],[32.83747,39.84612],[32.83695,39.84595],[32.83347,39.84506],[32.8329,39.84496],[32.83229,39.8449],[32.82929,39.8448],[32.82697,39.84461],[32.82559,39.84446],[32.82514,39.84438],[32.82467,39.84426],[32.8233,39.84384],[32.82247,39.84364],[32.82168,39.84348],[32.8107,39.8419],[32.80923,39.84171]]}},{"type":"Feature","properties":{},"geometry":{"type":"LineString","coordinates":[[32.85118,39.85619],[32.851,39.8559],[32.85077,39.85563]]}},{"type":"Feature","properties":{},"geometry":{"type":"LineString","coordinates":[[32.8551,39.86009],[32.8547,39.85981],[32.85363,39.85902],[32.85259,39.85815],[32.85181,39.85722],[32.85139,39.85658],[32.85118,39.85619]]}},{"type":"Feature","properties":{},"geometry":{"type":"Polygon","coordinates":[[[32.84704,39.85495],[32.84709,39.85364],[32.84592,39.8538],[32.84578,39.85477],[32.84704,39.85495]]]}},{"type":"Feature","properties":{},"geometry":{"type":"LineString","coordinates":[[32.84786,39.85208],[32.84807,39.85171]]}},{"type":"Feature","properties":{},"geometry":{"type":"LineString","coordinates":[[32.8477,39.85359],[32.84749,39.85212]]}},{"type":"Feature","properties":{},"geometry":{"type":"LineString","coordinates":[[32.84578,39.85477],[32.84568,39.85522],[32.84701,39.85549]]}},{"type":"Feature","properties":{},"geometry":{"type":"LineString","coordinates":[[32.84838,39.85358],[32.84931,39.85329]]}},{"type":"Feature","properties":{},"geometry":{"type":"LineString","coordinates":[[32.84895,39.85625],[32.85126,39.85725]]}},{"type":"Feature","properties":{},"geometry":{"type":"LineString","coordinates":[[32.85126,39.85725],[32.8514,39.85722],[32.85151,39.85717],[32.85158,39.85707]]}},{"type":"Feature","properties":{},"geometry":{"type":"LineString","coordinates":[[32.84568,39.85522],[32.84373,39.85468]]}},{"type":"Feature","properties":{},"geometry":{"type":"LineString","coordinates":[[32.84373,39.85468],[32.84372,39.85399],[32.84393,39.8538],[32.84426,39.85364],[32.84462,39.85362],[32.8452,39.85369],[32.84592,39.8538]]}},{"type":"Feature","properties":{},"geometry":{"type":"LineString","coordinates":[[32.84691,39.85219],[32.8468,39.8519],[32.84647,39.85171],[32.8459,39.85153],[32.84659,39.85137],[32.8468,39.8519]]}},{"type":"Feature","properties":{},"geometry":{"type":"LineString","coordinates":[[32.84659,39.85137],[32.84709,39.85119]]}},{"type":"Feature","properties":{},"geometry":{"type":"LineString","coordinates":[[32.84691,39.85219],[32.84429,39.85257],[32.84409,39.85265],[32.84354,39.85283],[32.84304,39.85289],[32.84245,39.85302],[32.84105,39.85257],[32.84066,39.85237],[32.84041,39.85218],[32.84028,39.8519],[32.84024,39.85174],[32.84021,39.85165],[32.84017,39.85151],[32.84023,39.85072],[32.84031,39.8503],[32.84041,39.84981],[32.84049,39.84957],[32.8405,39.84952],[32.8408,39.8483],[32.84082,39.84823]]}},{"type":"Feature","properties":{},"geometry":{"type":"LineString","coordinates":[[32.84308,39.85088],[32.84326,39.85047],[32.84398,39.85079],[32.8438,39.85112]]}},{"type":"Feature","properties":{},"geometry":{"type":"LineString","coordinates":[[32.84148,39.85109],[32.84225,39.85132],[32.84278,39.85147]]}},{"type":"Feature","properties":{},"geometry":{"type":"LineString","coordinates":[[32.84326,39.85047],[32.84277,39.85021],[32.84239,39.85021],[32.842,39.85043],[32.84148,39.85109],[32.84028,39.85075]]}},{"type":"Feature","properties":{},"geometry":{"type":"LineString","coordinates":[[32.84702,39.853],[32.84681,39.85306],[32.84686,39.85335],[32.84687,39.85353]]}},{"type":"Feature","properties":{},"geometry":{"type":"LineString","coordinates":[[32.84681,39.85306],[32.84676,39.85274],[32.84623,39.8526],[32.846,39.85289],[32.84542,39.8527],[32.84623,39.8526]]}},{"type":"Feature","properties":{},"geometry":{"type":"Polygon","coordinates":[[[32.84542,39.8527],[32.84519,39.85287],[32.8449,39.85281],[32.84542,39.8527]]]}},{"type":"Feature","properties":{},"geometry":{"type":"LineString","coordinates":[[32.8449,39.85281],[32.84468,39.8531],[32.84473,39.85329]]}},{"type":"Feature","properties":{},"geometry":{"type":"LineString","coordinates":[[32.85507,39.85658],[32.85306,39.85639]]}},{"type":"Feature","properties":{},"geometry":{"type":"LineString","coordinates":[[32.85177,39.855],[32.85222,39.85612],[32.8526,39.85602],[32.85316,39.85609]]}},{"type":"Feature","properties":{},"geometry":{"type":"LineString","coordinates":[[32.85356,39.85481],[32.85359,39.85468],[32.85368,39.85427],[32.85369,39.85418],[32.8538,39.85365],[32.85447,39.85374],[32.85503,39.85376],[32.85564,39.85378],[32.85623,39.85378],[32.85634,39.85238],[32.85579,39.85211],[32.8552,39.85187],[32.85502,39.85179],[32.85565,39.85067],[32.8566,39.85135],[32.85712,39.85173]]}},{"type":"Feature","properties":{},"geometry":{"type":"LineString","coordinates":[[32.85155,39.85383],[32.85044,39.85252],[32.84927,39.85295]]}},{"type":"Feature","properties":{},"geometry":{"type":"LineString","coordinates":[[32.85044,39.85252],[32.85213,39.85194],[32.85274,39.85172],[32.85347,39.85146],[32.85352,39.85144],[32.85425,39.85119],[32.85417,39.85163],[32.8538,39.85365]]}},{"type":"Feature","properties":{},"geometry":{"type":"LineString","coordinates":[[32.85307,39.85357],[32.85265,39.85246],[32.85291,39.85232],[32.85274,39.85172]]}},{"type":"Feature","properties":{},"geometry":{"type":"LineString","coordinates":[[32.85425,39.85119],[32.8544,39.85006],[32.85454,39.84897],[32.85348,39.84904],[32.85337,39.85062],[32.85185,39.85112],[32.85213,39.85194]]}},{"type":"Feature","properties":{},"geometry":{"type":"LineString","coordinates":[[32.85851,39.86404],[32.85782,39.86439]]}},{"type":"Feature","properties":{},"geometry":{"type":"LineString","coordinates":[[32.85885,39.86558],[32.85961,39.86651]]}},{"type":"Feature","properties":{},"geometry":{"type":"LineString","coordinates":[[32.85773,39.86307],[32.85613,39.86216]]}},{"type":"Feature","properties":{},"geometry":{"type":"LineString","coordinates":[[32.8566,39.86168],[32.855,39.86085],[32.85396,39.86009],[32.85335,39.85987]]}},{"type":"Feature","properties":{},"geometry":{"type":"LineString","coordinates":[[32.855,39.86085],[32.85458,39.86124]]}},{"type":"Feature","properties":{},"geometry":{"type":"LineString","coordinates":[[32.85822,39.86253],[32.85893,39.86287],[32.85977,39.86331],[32.86042,39.86365],[32.86119,39.86406],[32.86231,39.86464]]}},{"type":"Feature","properties":{},"geometry":{"type":"LineString","coordinates":[[32.85893,39.86287],[32.85796,39.86368]]}},{"type":"Feature","properties":{},"geometry":{"type":"LineString","coordinates":[[32.85977,39.86331],[32.85851,39.86404]]}},{"type":"Feature","properties":{},"geometry":{"type":"LineString","coordinates":[[32.86042,39.86365],[32.8591,39.8645]]}},{"type":"Feature","properties":{},"geometry":{"type":"LineString","coordinates":[[32.86119,39.86406],[32.85974,39.86501]]}},{"type":"Feature","properties":{},"geometry":{"type":"LineString","coordinates":[[32.86119,39.86406],[32.8618,39.86366]]}},{"type":"Feature","properties":{},"geometry":{"type":"LineString","coordinates":[[32.82889,39.84916],[32.82802,39.8499],[32.82638,39.85127],[32.82501,39.85244],[32.82595,39.85312],[32.82658,39.85259],[32.829,39.85058],[32.82802,39.8499]]}},{"type":"Feature","properties":{},"geometry":{"type":"LineString","coordinates":[[32.829,39.85058],[32.8301,39.85141],[32.82864,39.85262],[32.82682,39.85271],[32.82658,39.85259]]}},{"type":"Feature","properties":{},"geometry":{"type":"LineString","coordinates":[[32.82595,39.85312],[32.82663,39.85359],[32.82944,39.85348],[32.83113,39.85205],[32.83213,39.85117]]}},{"type":"Feature","properties":{},"geometry":{"type":"LineString","coordinates":[[32.83113,39.85205],[32.8301,39.85141]]}},{"type":"Feature","properties":{},"geometry":{"type":"LineString","coordinates":[[32.84429,39.85257],[32.84398,39.85188],[32.84393,39.85184],[32.8438,39.85178],[32.84343,39.85166],[32.84278,39.85147],[32.84308,39.85088],[32.8438,39.85112],[32.84343,39.85166]]}},{"type":"Feature","properties":{},"geometry":{"type":"LineString","coordinates":[[32.81887,39.87051],[32.81944,39.86985],[32.81964,39.86966],[32.8197,39.8696],[32.81979,39.86954],[32.81984,39.86951],[32.8208,39.86892],[32.82116,39.86862],[32.82158,39.8682],[32.82199,39.86774],[32.82236,39.86738],[32.82241,39.86733],[32.82293,39.86683],[32.82299,39.86682],[32.82323,39.8669],[32.82329,39.8669],[32.82343,39.86684]]}},{"type":"Feature","properties":{},"geometry":{"type":"LineString","coordinates":[[32.82347,39.86692],[32.82297,39.86697],[32.82282,39.86702],[32.82248,39.86736],[32.82242,39.86741],[32.82196,39.86789],[32.82132,39.86861],[32.82079,39.86903],[32.81991,39.86957],[32.8196,39.86982],[32.81904,39.87048],[32.81894,39.87055]]}},{"type":"Feature","properties":{},"geometry":{"type":"LineString","coordinates":[[32.84602,39.85046],[32.84393,39.85184]]}},{"type":"Feature","properties":{},"geometry":{"type":"LineString","coordinates":[[32.8471,39.85099],[32.84691,39.85109],[32.84679,39.85117],[32.8464,39.85099],[32.84637,39.85062]]}},{"type":"Feature","properties":{},"geometry":{"type":"LineString","coordinates":[[32.83052,39.8451],[32.83045,39.84505],[32.83041,39.84498],[32.83042,39.84492],[32.83046,39.8449]]}},{"type":"Feature","properties":{},"geometry":{"type":"LineString","coordinates":[[32.83227,39.83862],[32.83162,39.83878],[32.8315,39.83897],[32.83151,39.83914],[32.83164,39.8393],[32.83196,39.83958],[32.83213,39.83984],[32.83273,39.8403],[32.83313,39.84056],[32.83331,39.84081],[32.83334,39.84106],[32.83313,39.84211],[32.83314,39.84246],[32.83308,39.84263]]}},{"type":"Feature","properties":{},"geometry":{"type":"LineString","coordinates":[[32.81746,39.84156],[32.81852,39.84205],[32.81894,39.84229],[32.81948,39.8427],[32.81983,39.84301],[32.82007,39.84314],[32.82033,39.84315],[32.82075,39.8431],[32.82138,39.84317],[32.82205,39.84325],[32.8228,39.84336],[32.82347,39.84354],[32.82489,39.84376],[32.82533,39.84383],[32.82586,39.844],[32.82621,39.84411],[32.82687,39.8441],[32.8277,39.84402],[32.82831,39.84418],[32.82864,39.84418],[32.82905,39.84438],[32.82932,39.84439],[32.82959,39.84446],[32.82979,39.8444],[32.83,39.84411],[32.83034,39.84398],[32.83067,39.84383],[32.83154,39.84331],[32.83192,39.84323],[32.83243,39.84295],[32.83308,39.84263]]}},{"type":"Feature","properties":{},"geometry":{"type":"LineString","coordinates":[[32.82592,39.84338],[32.82573,39.84307],[32.82533,39.84258],[32.82474,39.84202],[32.82407,39.8414],[32.82334,39.84077],[32.82301,39.84059],[32.82242,39.84039],[32.82208,39.84037],[32.82182,39.84052],[32.82175,39.84079],[32.82182,39.84113],[32.82233,39.842],[32.82261,39.84259],[32.8228,39.84336]]}},{"type":"Feature","properties":{},"geometry":{"type":"LineString","coordinates":[[32.8228,39.84336],[32.822,39.84302],[32.82184,39.84295],[32.82103,39.8422],[32.82038,39.84124],[32.82031,39.84069],[32.82032,39.84012],[32.82046,39.83989],[32.82075,39.83969],[32.82087,39.8395],[32.82088,39.83934],[32.82075,39.83899],[32.82073,39.83867],[32.82083,39.83841],[32.82111,39.83829],[32.82145,39.83823],[32.82185,39.83823],[32.82244,39.83846],[32.82294,39.83886],[32.82329,39.83894],[32.82358,39.83906],[32.82395,39.83934],[32.82428,39.83971],[32.82447,39.84011],[32.82474,39.84037],[32.82513,39.84062],[32.82551,39.84082],[32.82584,39.84137],[32.82638,39.84188],[32.8266,39.84214],[32.8266,39.84232],[32.82625,39.84277],[32.82612,39.84302],[32.82592,39.84338],[32.82584,39.84369],[32.82586,39.844]]}},{"type":"Feature","properties":{},"geometry":{"type":"LineString","coordinates":[[32.83308,39.84263],[32.83412,39.84218],[32.83442,39.84212],[32.83476,39.84235],[32.83503,39.84239],[32.83542,39.84254],[32.8358,39.84262],[32.83603,39.84274],[32.8363,39.84279],[32.83658,39.84267],[32.83678,39.84261],[32.83665,39.84228],[32.83653,39.84214],[32.83645,39.84178],[32.83635,39.84159],[32.83554,39.84116],[32.83497,39.8409],[32.83445,39.8407],[32.83421,39.8406],[32.83403,39.83992],[32.83397,39.83957],[32.83399,39.8393],[32.83409,39.83905],[32.83409,39.83889],[32.83406,39.83874],[32.83389,39.83862],[32.83363,39.83851],[32.83317,39.83845],[32.83269,39.83851],[32.83227,39.83862]]}},{"type":"Feature","properties":{},"geometry":{"type":"LineString","coordinates":[[32.83665,39.84228],[32.83718,39.84264],[32.83795,39.84324],[32.83815,39.84336],[32.83826,39.84354]]}},{"type":"Feature","properties":{},"geometry":{"type":"LineString","coordinates":[[32.83432,39.84857],[32.83419,39.84882],[32.83424,39.84907]]}},{"type":"Feature","properties":{},"geometry":{"type":"LineString","coordinates":[[32.83254,39.84861],[32.83279,39.84806]]}},{"type":"Feature","properties":{},"geometry":{"type":"LineString","coordinates":[[32.81847,39.84922],[32.81862,39.84917],[32.81881,39.84909],[32.81931,39.84889],[32.81988,39.84866],[32.82026,39.84854],[32.82038,39.84849],[32.82057,39.8484],[32.82068,39.8483],[32.8208,39.84813],[32.82087,39.84804],[32.82098,39.84785],[32.82106,39.84772],[32.82117,39.84763],[32.82132,39.84752],[32.8215,39.84745],[32.82164,39.84742],[32.82182,39.84738],[32.82203,39.84735],[32.82477,39.84686],[32.82481,39.84684],[32.82494,39.84681],[32.82508,39.84679],[32.82523,39.84681],[32.82538,39.84683],[32.82565,39.84694],[32.82592,39.84707],[32.82625,39.84721]]}},{"type":"Feature","properties":{},"geometry":{"type":"LineString","coordinates":[[32.83475,39.87355],[32.83545,39.87403],[32.83591,39.87431],[32.83622,39.87446],[32.83671,39.87465],[32.83701,39.87473],[32.8375,39.87481],[32.83791,39.87484],[32.8384,39.87483],[32.83888,39.87477],[32.83949,39.87463],[32.83964,39.87461],[32.83983,39.87456],[32.83998,39.87448],[32.84096,39.87409],[32.8422,39.87361],[32.84328,39.8732],[32.84345,39.87307],[32.84351,39.87303],[32.84376,39.87275],[32.84383,39.87259],[32.8439,39.87258],[32.84427,39.87269],[32.84626,39.87342],[32.84652,39.87356],[32.84719,39.87413],[32.84774,39.87476],[32.8478,39.87485],[32.84788,39.87498],[32.84797,39.87518],[32.84801,39.8755],[32.84799,39.87561],[32.8479,39.87573],[32.84741,39.87617],[32.84718,39.8763],[32.847,39.87635],[32.84574,39.87648],[32.84376,39.87667],[32.84354,39.87673],[32.84333,39.87683],[32.84316,39.87697],[32.84305,39.87712],[32.84302,39.87721],[32.843,39.87727],[32.84299,39.8775],[32.84297,39.87782],[32.84297,39.87845],[32.84295,39.87854],[32.8429,39.87878],[32.8428,39.87892],[32.84264,39.87904],[32.84242,39.87912],[32.84216,39.87917],[32.84118,39.87929],[32.8402,39.8794],[32.8395,39.87953],[32.83898,39.87965],[32.83863,39.87981]]}},{"type":"Feature","properties":{},"geometry":{"type":"LineString","coordinates":[[32.82123,39.85066],[32.82184,39.85036],[32.82203,39.85027]]}},{"type":"Feature","properties":{},"geometry":{"type":"LineString","coordinates":[[32.82376,39.85427],[32.82239,39.85318],[32.82148,39.85251],[32.82106,39.85224],[32.82083,39.85213],[32.82031,39.85196],[32.81914,39.85168],[32.81713,39.85127],[32.81689,39.85123],[32.81646,39.85115],[32.81562,39.85108],[32.81478,39.85107],[32.81385,39.85112],[32.81303,39.85109],[32.8128,39.85111],[32.8126,39.85116],[32.81223,39.85133],[32.81186,39.85146],[32.81174,39.85149]]}},{"type":"Feature","properties":{},"geometry":{"type":"LineString","coordinates":[[32.8312,39.84827],[32.83117,39.84839],[32.83118,39.84908],[32.8311,39.84913],[32.83109,39.84919]]}},{"type":"Feature","properties":{},"geometry":{"type":"LineString","coordinates":[[32.82424,39.85437],[32.8244,39.85429],[32.82445,39.85427],[32.82459,39.85429]]}},{"type":"Feature","properties":{},"geometry":{"type":"LineString","coordinates":[[32.82203,39.85027],[32.82158,39.85057],[32.82146,39.85065],[32.82137,39.85072],[32.82134,39.85074],[32.82124,39.8508]]}},{"type":"Feature","properties":{},"geometry":{"type":"LineString","coordinates":[[32.8323,39.85097],[32.83227,39.85102],[32.83216,39.85101]]}},{"type":"Feature","properties":{},"geometry":{"type":"LineString","coordinates":[[32.82203,39.85027],[32.82197,39.85016],[32.82157,39.84952],[32.8215,39.84944],[32.82139,39.84943],[32.82034,39.84979],[32.81964,39.85008],[32.81892,39.85033],[32.81885,39.85033]]}},{"type":"Feature","properties":{},"geometry":{"type":"LineString","coordinates":[[32.82482,39.84935],[32.82491,39.84945],[32.82502,39.84951],[32.82508,39.8496],[32.82508,39.84979],[32.82491,39.85014],[32.82486,39.85018],[32.82483,39.85022],[32.82475,39.85026]]}},{"type":"Feature","properties":{},"geometry":{"type":"LineString","coordinates":[[32.82486,39.85018],[32.82482,39.84935],[32.82484,39.8491],[32.82474,39.84875],[32.82468,39.84856],[32.8246,39.84828],[32.82462,39.848],[32.82481,39.84684]]}},{"type":"Feature","properties":{},"geometry":{"type":"LineString","coordinates":[[32.82134,39.85074],[32.82131,39.85081],[32.82131,39.85092],[32.82144,39.85116],[32.82281,39.85265],[32.82356,39.85338],[32.82406,39.85378],[32.82449,39.85418],[32.82459,39.85429]]}},{"type":"Feature","properties":{},"geometry":{"type":"LineString","coordinates":[[32.82099,39.85076],[32.81912,39.85056],[32.819,39.8505],[32.81894,39.85044],[32.81889,39.85039],[32.81885,39.85033],[32.81873,39.85016],[32.81839,39.84957],[32.81837,39.84943],[32.81847,39.84922]]}},{"type":"Feature","properties":{},"geometry":{"type":"LineString","coordinates":[[32.82459,39.85429],[32.82432,39.85407],[32.82422,39.85397],[32.82411,39.85386],[32.82377,39.8536],[32.82347,39.85333],[32.82315,39.85304],[32.82281,39.85272],[32.82246,39.85237],[32.82215,39.85202],[32.82187,39.85168],[32.82167,39.85147],[32.82148,39.85128],[32.82135,39.85112],[32.82126,39.85101],[32.82115,39.85087],[32.82109,39.8508]]}},{"type":"Feature","properties":{},"geometry":{"type":"LineString","coordinates":[[32.82459,39.85429],[32.82498,39.85453],[32.82514,39.85468],[32.82526,39.85486],[32.82547,39.8554],[32.82566,39.85566],[32.82676,39.85638],[32.82717,39.8567],[32.82735,39.85687],[32.82893,39.85813],[32.82926,39.85844],[32.82956,39.85879],[32.83069,39.86032],[32.83143,39.86122],[32.83247,39.8626],[32.83265,39.86292],[32.83389,39.86578],[32.83425,39.86629],[32.83502,39.86694],[32.83586,39.86761],[32.83628,39.8681],[32.83634,39.86824],[32.83634,39.8684],[32.8361,39.86944],[32.83601,39.86964],[32.83589,39.8698],[32.83493,39.87072],[32.83363,39.8716],[32.83231,39.87251]]}},{"type":"Feature","properties":{},"geometry":{"type":"LineString","coordinates":[[32.82126,39.85101],[32.82114,39.85082],[32.82114,39.85073],[32.82123,39.85066]]}},{"type":"Feature","properties":{},"geometry":{"type":"LineString","coordinates":[[32.82376,39.85427],[32.82395,39.8544],[32.82406,39.85443],[32.82424,39.85437],[32.82431,39.85428],[32.82434,39.85416],[32.82432,39.85407]]}},{"type":"Feature","properties":{},"geometry":{"type":"LineString","coordinates":[[32.82459,39.85429],[32.82452,39.85444],[32.82442,39.85453],[32.82435,39.85454],[32.82396,39.85446],[32.82376,39.85427]]}},{"type":"Feature","properties":{},"geometry":{"type":"LineString","coordinates":[[32.83079,39.84907],[32.83123,39.84915],[32.83144,39.84926],[32.83207,39.84971],[32.83227,39.84992],[32.83233,39.85003],[32.83248,39.85049],[32.83253,39.85058],[32.83269,39.85072],[32.83291,39.8508],[32.83316,39.85083],[32.83427,39.85087]]}},{"type":"Feature","properties":{},"geometry":{"type":"LineString","coordinates":[[32.82696,39.86973],[32.82691,39.86978],[32.82646,39.8703],[32.82582,39.87091],[32.82552,39.87112],[32.82482,39.87164],[32.8242,39.87285],[32.82372,39.87351],[32.82337,39.87392],[32.82333,39.87414],[32.82323,39.875],[32.82325,39.87545],[32.82299,39.87644],[32.823,39.87685],[32.82305,39.87801],[32.82315,39.87852],[32.82325,39.87906],[32.82323,39.88002],[32.82329,39.8802],[32.82365,39.88143],[32.82367,39.88216],[32.8237,39.88316],[32.82378,39.88478],[32.82378,39.88497]]}},{"type":"Feature","properties":{},"geometry":{"type":"LineString","coordinates":[[32.83363,39.8716],[32.83555,39.87316],[32.83581,39.87337],[32.83694,39.87395],[32.83777,39.8741],[32.83853,39.87404],[32.83932,39.87387],[32.83967,39.87374],[32.84046,39.87345],[32.84161,39.87292],[32.84301,39.87228]]}},{"type":"Feature","properties":{},"geometry":{"type":"LineString","coordinates":[[32.83921,39.8697],[32.84015,39.87097],[32.8411,39.87224],[32.84161,39.87292],[32.8422,39.87361],[32.84271,39.87423],[32.84317,39.8748],[32.84358,39.8753],[32.84401,39.87582]]}},{"type":"Feature","properties":{},"geometry":{"type":"LineString","coordinates":[[32.84719,39.87413],[32.8465,39.87449],[32.84501,39.87529],[32.84492,39.87534],[32.84401,39.87582],[32.8435,39.87603],[32.84285,39.8762],[32.84188,39.87623]]}},{"type":"Feature","properties":{},"geometry":{"type":"LineString","coordinates":[[32.84345,39.87307],[32.8443,39.87342],[32.84502,39.87372],[32.84519,39.87379],[32.84579,39.87407],[32.84615,39.87424],[32.8465,39.87449]]}},{"type":"Feature","properties":{},"geometry":{"type":"LineString","coordinates":[[32.8443,39.87342],[32.84271,39.87423],[32.84202,39.87464],[32.84198,39.87506],[32.84201,39.87568],[32.84202,39.87582],[32.84188,39.87623],[32.84141,39.87694],[32.8414,39.87702],[32.84128,39.87845],[32.84126,39.87865],[32.84118,39.87929],[32.84177,39.88134]]}},{"type":"Feature","properties":{},"geometry":{"type":"LineString","coordinates":[[32.83815,39.87186],[32.8387,39.8723],[32.83926,39.87303],[32.83931,39.8731],[32.83967,39.87374],[32.83983,39.87456],[32.83982,39.87547],[32.8395,39.87579],[32.83928,39.87591],[32.83822,39.87646],[32.83664,39.87729]]}},{"type":"Feature","properties":{},"geometry":{"type":"LineString","coordinates":[[32.83472,39.85773],[32.83553,39.85964],[32.83565,39.86062],[32.83601,39.86193],[32.83623,39.8628],[32.83622,39.86372],[32.83636,39.86429],[32.83682,39.86492],[32.83718,39.86576],[32.83784,39.86621],[32.8389,39.86685],[32.83949,39.86761],[32.84076,39.86916],[32.84165,39.87036],[32.8423,39.87124],[32.84257,39.87163],[32.84301,39.87228],[32.84383,39.87259]]}},{"type":"Feature","properties":{},"geometry":{"type":"LineString","coordinates":[[32.84257,39.87163],[32.8411,39.87224],[32.83926,39.87303],[32.83848,39.87329],[32.83769,39.87334],[32.83713,39.8732]]}},{"type":"Feature","properties":{},"geometry":{"type":"LineString","coordinates":[[32.84165,39.87036],[32.84015,39.87097],[32.83815,39.87186],[32.83555,39.87316],[32.83475,39.87355]]}},{"type":"Feature","properties":{},"geometry":{"type":"LineString","coordinates":[[32.84579,39.87407],[32.84465,39.87475],[32.84358,39.8753],[32.84297,39.87557],[32.84201,39.87568],[32.84088,39.87557],[32.83982,39.87547]]}},{"type":"Feature","properties":{},"geometry":{"type":"LineString","coordinates":[[32.84502,39.87372],[32.84317,39.8748]]}},{"type":"Feature","properties":{},"geometry":{"type":"LineString","coordinates":[[32.84465,39.87475],[32.84501,39.87529]]}},{"type":"Feature","properties":{},"geometry":{"type":"LineString","coordinates":[[32.84096,39.87409],[32.84096,39.87524],[32.84088,39.87557],[32.84047,39.87628],[32.83996,39.87685]]}},{"type":"Feature","properties":{},"geometry":{"type":"LineString","coordinates":[[32.85526,39.87263],[32.85263,39.87262]]}},{"type":"Feature","properties":{},"geometry":{"type":"LineString","coordinates":[[32.84188,39.89708],[32.84188,39.89697],[32.84186,39.8967],[32.84185,39.8961],[32.84175,39.89551],[32.84151,39.8941],[32.84146,39.89384],[32.84139,39.89345],[32.84135,39.89322],[32.8413,39.89098],[32.8412,39.89027],[32.8408,39.88955],[32.84046,39.88895],[32.84016,39.88843],[32.84002,39.88772],[32.83996,39.8863],[32.83989,39.88595],[32.83965,39.88528],[32.83953,39.88494],[32.83949,39.88456],[32.83935,39.88208],[32.83912,39.88106],[32.8384,39.87947],[32.83742,39.87827],[32.83451,39.875],[32.83423,39.87464],[32.83383,39.87397],[32.83353,39.87343],[32.83342,39.87335],[32.83142,39.87201],[32.82995,39.8714],[32.82944,39.87108],[32.82913,39.87089],[32.82869,39.87062],[32.82691,39.86978],[32.82648,39.86955],[32.82464,39.86882],[32.8243,39.86868],[32.82403,39.86849],[32.82358,39.86821],[32.82314,39.8679],[32.82242,39.86741],[32.82236,39.86738],[32.82168,39.86703],[32.82014,39.86625],[32.81956,39.86566],[32.81891,39.86418],[32.81873,39.86393],[32.81836,39.86357],[32.81803,39.86323],[32.81771,39.86287],[32.81741,39.86244],[32.81712,39.86196],[32.81197,39.85429],[32.81128,39.85347],[32.81104,39.85314],[32.81091,39.8528],[32.81106,39.85214],[32.8113,39.85175],[32.81135,39.85166],[32.81139,39.85162],[32.81154,39.85144],[32.81159,39.85136],[32.81174,39.85108],[32.81184,39.85089],[32.81193,39.85072],[32.81197,39.85052],[32.81198,39.8503],[32.81199,39.85024],[32.81193,39.85],[32.81177,39.84973],[32.81152,39.84945]]}},{"type":"Feature","properties":{},"geometry":{"type":"LineString","coordinates":[[32.83154,39.87382],[32.82877,39.87252],[32.82795,39.87194]]}},{"type":"Feature","properties":{},"geometry":{"type":"LineString","coordinates":[[32.82847,39.87151],[32.82913,39.87089],[32.82917,39.87085]]}},{"type":"Feature","properties":{},"geometry":{"type":"LineString","coordinates":[[32.82646,39.8703],[32.82748,39.87086],[32.82847,39.87151],[32.82926,39.87202]]}},{"type":"Feature","properties":{},"geometry":{"type":"LineString","coordinates":[[32.82684,39.87797],[32.82763,39.87748],[32.82805,39.87729],[32.82834,39.87702],[32.82903,39.87663],[32.8292,39.87641],[32.82993,39.87552],[32.83043,39.87483],[32.83103,39.87423],[32.83154,39.87382],[32.83202,39.8734],[32.82926,39.87202]]}},{"type":"Feature","properties":{},"geometry":{"type":"LineString","coordinates":[[32.85783,39.86869],[32.85849,39.86851]]}},{"type":"Feature","properties":{},"geometry":{"type":"LineString","coordinates":[[32.82748,39.87086],[32.82644,39.87172],[32.82597,39.87212],[32.82597,39.87223],[32.82637,39.8725],[32.82737,39.87319],[32.82795,39.87351],[32.82862,39.87389],[32.83043,39.87483],[32.83094,39.87515],[32.83162,39.87535]]}},{"type":"Feature","properties":{},"geometry":{"type":"LineString","coordinates":[[32.82943,39.89362],[32.82942,39.89355],[32.82919,39.89204],[32.82907,39.8901],[32.82905,39.88959],[32.82904,39.88932],[32.82902,39.88892],[32.82899,39.88804],[32.82896,39.88734],[32.82889,39.88656],[32.82882,39.88605],[32.82877,39.8855],[32.82863,39.88509],[32.82849,39.8847],[32.8282,39.8839],[32.82779,39.88288],[32.82773,39.88246],[32.82773,39.88217],[32.82785,39.88158],[32.82795,39.88128],[32.82812,39.88088],[32.82814,39.88073],[32.82803,39.88042],[32.82773,39.87943],[32.82748,39.87893],[32.82721,39.8785],[32.82684,39.87797],[32.82595,39.87669],[32.82586,39.87645],[32.82586,39.87613],[32.8259,39.87592],[32.82605,39.87521],[32.8263,39.87474],[32.82659,39.87421],[32.82689,39.87367],[32.82737,39.87319],[32.82823,39.87289],[32.82877,39.87252],[32.82926,39.87202],[32.82995,39.8714]]}},{"type":"Feature","properties":{},"geometry":{"type":"LineString","coordinates":[[32.85885,39.86558],[32.85974,39.86501]]}},{"type":"Feature","properties":{},"geometry":{"type":"LineString","coordinates":[[32.85934,39.86526],[32.86022,39.86608]]}},{"type":"Feature","properties":{},"geometry":{"type":"LineString","coordinates":[[32.85782,39.86439],[32.85885,39.86558]]}},{"type":"Feature","properties":{},"geometry":{"type":"LineString","coordinates":[[32.81668,39.87067],[32.81742,39.87052],[32.81779,39.87029],[32.8179,39.86997],[32.81814,39.8696],[32.81831,39.86952],[32.81877,39.8694],[32.81943,39.86918],[32.82031,39.8685],[32.82106,39.86772],[32.82168,39.86703]]}},{"type":"Feature","properties":{},"geometry":{"type":"LineString","coordinates":[[32.84701,39.85549],[32.84704,39.85495],[32.84709,39.85364],[32.84691,39.85219]]}},{"type":"Feature","properties":{},"geometry":{"type":"LineString","coordinates":[[32.85554,39.85443],[32.85548,39.85464]]}},{"type":"Feature","properties":{},"geometry":{"type":"LineString","coordinates":[[32.85721,39.85601],[32.85724,39.8564],[32.85724,39.85668],[32.85716,39.85687],[32.85506,39.85665]]}},{"type":"Feature","properties":{},"geometry":{"type":"LineString","coordinates":[[32.85306,39.85639],[32.85316,39.85609],[32.85322,39.85597],[32.85517,39.85618],[32.85724,39.8564]]}},{"type":"Feature","properties":{},"geometry":{"type":"LineString","coordinates":[[32.85716,39.85687],[32.85704,39.85698],[32.85642,39.85717],[32.85496,39.85705]]}},{"type":"Feature","properties":{},"geometry":{"type":"LineString","coordinates":[[32.85699,39.85103],[32.85596,39.85022]]}},{"type":"Feature","properties":{},"geometry":{"type":"LineString","coordinates":[[32.8555,39.85485],[32.85359,39.85468]]}},{"type":"Feature","properties":{},"geometry":{"type":"LineString","coordinates":[[32.8552,39.85187],[32.85503,39.85376]]}},{"type":"Feature","properties":{},"geometry":{"type":"LineString","coordinates":[[32.85322,39.85597],[32.85336,39.85548],[32.85349,39.85503],[32.85356,39.85481],[32.85291,39.85473],[32.85228,39.85486],[32.85177,39.855],[32.85075,39.85526]]}},{"type":"Feature","properties":{},"geometry":{"type":"LineString","coordinates":[[32.85564,39.85378],[32.85554,39.85443],[32.85369,39.85418],[32.85368,39.85427]]}},{"type":"Feature","properties":{},"geometry":{"type":"LineString","coordinates":[[32.85349,39.85503],[32.8554,39.85527],[32.85693,39.85546],[32.85704,39.85552],[32.85716,39.85582]]}},{"type":"Feature","properties":{},"geometry":{"type":"LineString","coordinates":[[32.85716,39.85582],[32.85721,39.85601],[32.85528,39.85575],[32.85336,39.85548]]}},{"type":"Feature","properties":{},"geometry":{"type":"LineString","coordinates":[[32.85502,39.85179],[32.85484,39.8517],[32.85417,39.85163]]}},{"type":"Feature","properties":{},"geometry":{"type":"LineString","coordinates":[[32.85579,39.85211],[32.85564,39.85378]]}},{"type":"Feature","properties":{},"geometry":{"type":"LineString","coordinates":[[32.8566,39.85135],[32.85699,39.85103],[32.85775,39.85171],[32.85769,39.85212]]}},{"type":"Feature","properties":{},"geometry":{"type":"LineString","coordinates":[[32.8538,39.85365],[32.85307,39.85357],[32.85291,39.85473]]}},{"type":"Feature","properties":{},"geometry":{"type":"LineString","coordinates":[[32.85565,39.85067],[32.85596,39.85022],[32.85622,39.84984],[32.85612,39.84977],[32.85503,39.84945],[32.85497,39.84967],[32.85483,39.84987],[32.85458,39.85006],[32.8544,39.85006]]}},{"type":"Feature","properties":{},"geometry":{"type":"LineString","coordinates":[[32.85484,39.8517],[32.85447,39.85374]]}},{"type":"Feature","properties":{},"geometry":{"type":"LineString","coordinates":[[32.85281,39.85689],[32.85496,39.85705],[32.85506,39.85665],[32.85507,39.85658],[32.85517,39.85618],[32.85528,39.85575],[32.8554,39.85527],[32.8555,39.85485],[32.85652,39.85501],[32.85748,39.85525],[32.85753,39.85535],[32.85746,39.85553],[32.8572,39.85551],[32.85693,39.85546]]}},{"type":"Feature","properties":{},"geometry":{"type":"LineString","coordinates":[[32.85307,39.85357],[32.85352,39.85144]]}},{"type":"Feature","properties":{},"geometry":{"type":"LineString","coordinates":[[32.85307,39.85357],[32.85155,39.85383],[32.85228,39.85486]]}},{"type":"Feature","properties":{},"geometry":{"type":"LineString","coordinates":[[32.83383,39.87397],[32.8339,39.87394]]}},{"type":"Feature","properties":{},"geometry":{"type":"LineString","coordinates":[[32.83438,39.89637],[32.83447,39.89506],[32.83465,39.89383],[32.83481,39.89288],[32.83497,39.89209],[32.83511,39.89149],[32.83545,39.8906],[32.83612,39.88933],[32.83629,39.88902],[32.83661,39.8885],[32.83677,39.8878],[32.8368,39.88706],[32.83681,39.88696],[32.83706,39.885],[32.837,39.88439],[32.83671,39.88371],[32.83626,39.88286],[32.83597,39.88233],[32.83559,39.88162],[32.83458,39.88002],[32.83399,39.87944],[32.83299,39.87873],[32.83222,39.87802],[32.83153,39.87712],[32.83162,39.87535],[32.83177,39.87507],[32.83204,39.87486],[32.83292,39.87437],[32.83383,39.87397]]}},{"type":"Feature","properties":{},"geometry":{"type":"LineString","coordinates":[[32.86762,39.86967],[32.86704,39.86924],[32.86657,39.8689],[32.86622,39.86865],[32.86591,39.86844],[32.86513,39.86793],[32.86502,39.86783],[32.86411,39.86737],[32.86369,39.86716],[32.86342,39.86702],[32.86261,39.86661],[32.86142,39.86605],[32.86131,39.86599],[32.86077,39.86569],[32.85974,39.86501],[32.8591,39.8645],[32.85851,39.86404],[32.85796,39.86368],[32.85742,39.86335],[32.85602,39.86229],[32.85584,39.86216],[32.85458,39.86124],[32.85356,39.8605]]}},{"type":"Feature","properties":{},"geometry":{"type":"LineString","coordinates":[[32.85292,39.86607],[32.8538,39.86647],[32.85417,39.86667],[32.85441,39.86691],[32.85449,39.86707],[32.85454,39.86722],[32.85497,39.86842],[32.85511,39.86852],[32.85544,39.86868],[32.85588,39.86877],[32.85612,39.86875],[32.85634,39.8687],[32.85652,39.86859],[32.8568,39.86842],[32.85736,39.86807]]}},{"type":"Feature","properties":{},"geometry":{"type":"LineString","coordinates":[[32.85835,39.86743],[32.858,39.86765],[32.85777,39.8678],[32.85736,39.86807]]}},{"type":"Feature","properties":{},"geometry":{"type":"LineString","coordinates":[[32.85736,39.86807],[32.85767,39.86851],[32.85783,39.86869],[32.8581,39.86902],[32.85869,39.87009],[32.85906,39.87078],[32.85928,39.87117],[32.8595,39.87165],[32.8597,39.87225],[32.85974,39.8725],[32.8599,39.87347],[32.86004,39.87432],[32.86023,39.87509],[32.86047,39.87582],[32.86057,39.87607],[32.86065,39.87621],[32.86074,39.87641],[32.86085,39.87663],[32.86096,39.8771],[32.8611,39.8776],[32.86115,39.87783],[32.86118,39.87827],[32.86122,39.87863],[32.86126,39.87895],[32.86131,39.87914]]}},{"type":"Feature","properties":{},"geometry":{"type":"LineString","coordinates":[[32.85126,39.85725],[32.85178,39.85738]]}},{"type":"Feature","properties":{},"geometry":{"type":"LineString","coordinates":[[32.85179,39.85754],[32.85126,39.85725]]}},{"type":"Feature","properties":{},"geometry":{"type":"LineString","coordinates":[[32.85306,39.85639],[32.85281,39.85689],[32.85244,39.85708],[32.8523,39.85714]]}},{"type":"Feature","properties":{},"geometry":{"type":"LineString","coordinates":[[32.85206,39.85725],[32.85217,39.8572],[32.8523,39.85714],[32.85216,39.85742]]}},{"type":"Feature","properties":{},"geometry":{"type":"LineString","coordinates":[[32.85222,39.85612],[32.85244,39.85708]]}}]}