{"type":"FeatureCollection","features":[{"type":"Feature","properties":{},"geometry":{"type":"LineString","coordinates":[[32.8405,39.84776],[32.83863,39.84685],[32.83803,39.84658],[32.83738,39.84633],[32.83683,39.84615],[32.83644,39.84602],[32.83555,39.8458],[32.83366,39.8453],[32.83244,39.84511],[32.83157,39.84507],[32.83096,39.84511],[32.83057,39.8451],[32.83052,39.8451],[32.82977,39.84509]]}},{"type":"Feature","properties":{},"geometry":{"type":"LineString","coordinates":[[32.84085,39.84798],[32.84067,39.84786],[32.8405,39.84776]]}},{"type":"Feature","properties":{},"geometry":{"type":"LineString","coordinates":[[32.86213,39.87305],[32.86194,39.87314]]}},{"type":"Feature","properties":{},"geometry":{"type":"LineString","coordinates":[[32.85656,39.87083],[32.85651,39.87156],[32.85651,39.87162]]}},{"type":"Feature","properties":{},"geometry":{"type":"LineString","coordinates":[[32.85033,39.87615],[32.8504,39.87572],[32.85059,39.87523],[32.85087,39.87481],[32.85095,39.87472],[32.85124,39.8745],[32.85146,39.87437],[32.85178,39.87419],[32.85218,39.87406],[32.8526,39.87389],[32.85309,39.87379],[32.85351,39.87375],[32.85382,39.87367],[32.85404,39.87363],[32.85422,39.87349],[32.85445,39.87335],[32.85484,39.87308],[32.85525,39.87281],[32.85539,39.87279],[32.85576,39.87267],[32.85606,39.8726],[32.85764,39.87255],[32.85868,39.87252],[32.8597,39.87251],[32.85981,39.87249],[32.86036,39.87236],[32.86134,39.8721]]}},{"type":"Feature","properties":{},"geometry":{"type":"LineString","coordinates":[[32.84095,39.84802],[32.84089,39.84819]]}},{"type":"Feature","properties":{},"geometry":{"type":"LineString","coordinates":[[32.84054,39.84953],[32.84051,39.84956],[32.84049,39.84957],[32.84041,39.84956],[32.83997,39.8495],[32.83979,39.84855],[32.83977,39.84848],[32.83957,39.84822],[32.83908,39.84792],[32.83829,39.84784],[32.83795,39.848],[32.83735,39.84846],[32.83731,39.84875],[32.83763,39.84928],[32.83812,39.84953],[32.83881,39.84949],[32.839,39.84951],[32.83913,39.84952],[32.8395,39.8495],[32.83997,39.8495]]}},{"type":"Feature","properties":{},"geometry":{"type":"LineString","coordinates":[[32.86137,39.87353],[32.8614,39.87357],[32.86159,39.87392]]}},{"type":"Feature","properties":{},"geometry":{"type":"LineString","coordinates":[[32.86656,39.87121],[32.86576,39.87179],[32.8648,39.87244],[32.86443,39.87263],[32.8638,39.87298],[32.86316,39.87313],[32.86224,39.87333]]}},{"type":"Feature","properties":{},"geometry":{"type":"LineString","coordinates":[[32.86361,39.87478],[32.86366,39.87488],[32.86419,39.87574],[32.86422,39.8758]]}},{"type":"Feature","properties":{},"geometry":{"type":"LineString","coordinates":[[32.86322,39.87501],[32.86366,39.87488],[32.86423,39.87475],[32.86556,39.8745],[32.86591,39.87443]]}},{"type":"Feature","properties":{},"geometry":{"type":"LineString","coordinates":[[32.862,39.87041],[32.86225,39.87038]]}},{"type":"Feature","properties":{},"geometry":{"type":"LineString","coordinates":[[32.86633,39.87226],[32.86576,39.87179],[32.86538,39.87154],[32.86461,39.87088],[32.86422,39.87055],[32.86378,39.87019],[32.86306,39.86961]]}},{"type":"Feature","properties":{},"geometry":{"type":"LineString","coordinates":[[32.85891,39.86691],[32.85903,39.86733],[32.85894,39.8674],[32.8588,39.8674],[32.85865,39.86706],[32.85874,39.86693],[32.85891,39.86691]]}},{"type":"Feature","properties":{},"geometry":{"type":"LineString","coordinates":[[32.84101,39.848],[32.84095,39.84802],[32.8409,39.84801],[32.84085,39.84798],[32.84084,39.84793],[32.84084,39.84785],[32.84087,39.84778],[32.84095,39.84774],[32.841,39.84777],[32.84106,39.84779],[32.84107,39.84787],[32.84107,39.84794],[32.84101,39.848]]}},{"type":"Feature","properties":{},"geometry":{"type":"LineString","coordinates":[[32.82979,39.84494],[32.82982,39.84502],[32.82977,39.84509],[32.82967,39.8451],[32.82961,39.84509],[32.82956,39.84501],[32.82961,39.84493],[32.8297,39.8449],[32.82979,39.84494]]}},{"type":"Feature","properties":{},"geometry":{"type":"LineString","coordinates":[[32.8645,39.87749],[32.86484,39.87725],[32.86513,39.87702],[32.86542,39.87685],[32.86565,39.87642],[32.86573,39.87615],[32.86589,39.87577],[32.86593,39.87512],[32.86597,39.87482],[32.86597,39.8746],[32.86612,39.87379],[32.86615,39.873],[32.86628,39.87234],[32.86633,39.87226],[32.86687,39.87146],[32.8674,39.87067],[32.86746,39.87058],[32.86777,39.87011],[32.86789,39.86988],[32.86793,39.86984],[32.86834,39.8692],[32.86867,39.86877],[32.86902,39.86817],[32.86928,39.86779],[32.86937,39.86772]]}},{"type":"Feature","properties":{},"geometry":{"type":"LineString","coordinates":[[32.86367,39.87591],[32.86419,39.87574],[32.86466,39.87562],[32.86478,39.87558]]}},{"type":"Feature","properties":{},"geometry":{"type":"LineString","coordinates":[[32.8588,39.8674],[32.85855,39.8674]]}},{"type":"Feature","properties":{},"geometry":{"type":"LineString","coordinates":[[32.84846,39.85213],[32.84786,39.85208],[32.84749,39.85212],[32.84691,39.85219],[32.84702,39.853],[32.84709,39.85364],[32.8477,39.85359],[32.84838,39.85358],[32.84884,39.85468],[32.84892,39.8553],[32.84895,39.85625],[32.84701,39.85549],[32.84704,39.85495],[32.84892,39.8553]]}},{"type":"Feature","properties":{},"geometry":{"type":"LineString","coordinates":[[32.84089,39.84819],[32.84081,39.84846],[32.84062,39.84927],[32.84055,39.8495],[32.84054,39.84953],[32.84053,39.84958],[32.84045,39.84983],[32.84036,39.85032],[32.84028,39.85075],[32.84022,39.85151],[32.84021,39.85165]]}},{"type":"Feature","properties":{},"geometry":{"type":"LineString","coordinates":[[32.82155,39.84688],[32.82163,39.84706],[32.82173,39.84725],[32.82182,39.84738]]}},{"type":"Feature","properties":{},"geometry":{"type":"LineString","coordinates":[[32.86687,39.87146],[32.86656,39.87121],[32.86576,39.87054]]}},{"type":"Feature","properties":{},"geometry":{"type":"LineString","coordinates":[[32.86648,39.86637],[32.86575,39.86711],[32.86502,39.86783],[32.86436,39.86842],[32.86362,39.86912],[32.86306,39.86961],[32.86237,39.87013],[32.86216,39.87023]]}},{"type":"Feature","properties":{},"geometry":{"type":"LineString","coordinates":[[32.86142,39.86605],[32.86119,39.86655],[32.86141,39.8679],[32.86161,39.8691],[32.8617,39.86938],[32.86179,39.86959],[32.86216,39.87023],[32.86225,39.87038],[32.86251,39.87094],[32.8629,39.87177],[32.86307,39.87188],[32.86326,39.87228],[32.86344,39.87256],[32.86366,39.87288],[32.8638,39.87298],[32.86502,39.87482],[32.86573,39.87615]]}},{"type":"Feature","properties":{},"geometry":{"type":"LineString","coordinates":[[32.85602,39.86229],[32.85613,39.86216],[32.8566,39.86168],[32.85818,39.86248],[32.85767,39.86301],[32.85738,39.86331],[32.85731,39.86347],[32.85676,39.86421],[32.85673,39.86427]]}},{"type":"Feature","properties":{},"geometry":{"type":"LineString","coordinates":[[32.8556,39.86697],[32.8556,39.86698],[32.85563,39.86713],[32.85589,39.86798],[32.85594,39.86805],[32.85602,39.86812],[32.85637,39.86825],[32.85662,39.86833],[32.85672,39.86837],[32.8568,39.86842]]}},{"type":"Feature","properties":{},"geometry":{"type":"LineString","coordinates":[[32.8621,39.87334],[32.8614,39.87357],[32.86135,39.87359]]}},{"type":"Feature","properties":{},"geometry":{"type":"LineString","coordinates":[[32.8648,39.87244],[32.86485,39.8725],[32.86502,39.87271],[32.86505,39.87276],[32.8652,39.87303],[32.86531,39.87321],[32.86532,39.87324],[32.86542,39.87341],[32.86569,39.87377],[32.86591,39.87443],[32.86597,39.8746]]}},{"type":"Feature","properties":{},"geometry":{"type":"LineString","coordinates":[[32.85181,39.85741],[32.85183,39.85729],[32.85195,39.85726],[32.85205,39.85729],[32.8521,39.85737],[32.85204,39.85747],[32.85193,39.85753],[32.8519,39.8575],[32.85181,39.85741]]}},{"type":"Feature","properties":{},"geometry":{"type":"LineString","coordinates":[[32.85206,39.86957],[32.85084,39.86928]]}},{"type":"Feature","properties":{},"geometry":{"type":"LineString","coordinates":[[32.85254,39.87109],[32.85352,39.87141],[32.85548,39.8715]]}},{"type":"Feature","properties":{},"geometry":{"type":"LineString","coordinates":[[32.85181,39.85741],[32.85174,39.85731],[32.85155,39.85701],[32.85081,39.85571],[32.85029,39.85487],[32.84931,39.85329],[32.8488,39.85251],[32.84843,39.85206],[32.84807,39.85171],[32.84796,39.8516],[32.84784,39.85151],[32.84741,39.85117],[32.8471,39.85099],[32.84672,39.85078],[32.84637,39.85062],[32.84602,39.85046],[32.84122,39.8481],[32.84106,39.84804],[32.84095,39.84802]]}},{"type":"Feature","properties":{},"geometry":{"type":"LineString","coordinates":[[32.83644,39.84602],[32.83623,39.84607],[32.83619,39.84608],[32.83612,39.84611],[32.8361,39.84614],[32.83609,39.8462],[32.83609,39.84625]]}},{"type":"Feature","properties":{},"geometry":{"type":"LineString","coordinates":[[32.83096,39.84819],[32.83091,39.84815],[32.83089,39.84811],[32.83091,39.84807],[32.83091,39.84806],[32.83093,39.84804],[32.83099,39.84803],[32.83104,39.84807],[32.83105,39.8481],[32.83105,39.84813],[32.83103,39.84816],[32.831,39.84818],[32.83096,39.84819]]}},{"type":"Feature","properties":{},"geometry":{"type":"LineString","coordinates":[[32.8312,39.8481],[32.83139,39.84806],[32.8314,39.84805],[32.83141,39.84803],[32.83145,39.84798],[32.83152,39.84784],[32.8316,39.84749]]}},{"type":"Feature","properties":{},"geometry":{"type":"LineString","coordinates":[[32.83602,39.84625],[32.83597,39.84613],[32.8359,39.84604],[32.83581,39.84597],[32.83555,39.8458]]}},{"type":"Feature","properties":{},"geometry":{"type":"LineString","coordinates":[[32.8556,39.86363],[32.8554,39.86358],[32.85519,39.8636],[32.85483,39.86375],[32.85472,39.86381],[32.85455,39.86394],[32.85426,39.86419]]}},{"type":"Feature","properties":{},"geometry":{"type":"LineString","coordinates":[[32.85019,39.87019],[32.85029,39.87023],[32.85188,39.87032]]}},{"type":"Feature","properties":{},"geometry":{"type":"LineString","coordinates":[[32.85426,39.86419],[32.85455,39.86387],[32.85465,39.863],[32.85464,39.86289]]}},{"type":"Feature","properties":{},"geometry":{"type":"LineString","coordinates":[[32.81894,39.85044],[32.81853,39.85064],[32.81803,39.85061],[32.81791,39.85062]]}},{"type":"Feature","properties":{},"geometry":{"type":"LineString","coordinates":[[32.8402,39.84742],[32.84028,39.84744],[32.84053,39.8475],[32.84059,39.8475],[32.84064,39.84744],[32.84062,39.84737],[32.84061,39.84733]]}},{"type":"Feature","properties":{},"geometry":{"type":"LineString","coordinates":[[32.8294,39.84902],[32.82971,39.84907],[32.83079,39.84907],[32.83109,39.84919],[32.83205,39.84992],[32.83216,39.85012],[32.83222,39.85076],[32.8323,39.85097]]}},{"type":"Feature","properties":{},"geometry":{"type":"LineString","coordinates":[[32.82893,39.84901],[32.82904,39.84896],[32.82912,39.84899],[32.82917,39.84902],[32.82919,39.84907],[32.82918,39.84912],[32.82914,39.84917],[32.82907,39.84919],[32.82898,39.84919],[32.82893,39.84915],[32.82891,39.84909],[32.82893,39.84901]]}},{"type":"Feature","properties":{},"geometry":{"type":"LineString","coordinates":[[32.82124,39.8508],[32.82109,39.8508],[32.82099,39.85076]]}},{"type":"Feature","properties":{},"geometry":{"type":"LineString","coordinates":[[32.83427,39.85087],[32.83436,39.85091],[32.83438,39.85098],[32.83436,39.85101],[32.83426,39.85103],[32.83421,39.85098],[32.8342,39.85092],[32.83427,39.85087]]}},{"type":"Feature","properties":{},"geometry":{"type":"LineString","coordinates":[[32.82865,39.84694],[32.82861,39.84694],[32.82858,39.84691],[32.82861,39.84686],[32.82865,39.84686],[32.82868,39.84689],[32.82865,39.84694]]}},{"type":"Feature","properties":{},"geometry":{"type":"LineString","coordinates":[[32.82936,39.8456],[32.8294,39.84547],[32.82942,39.84535],[32.82937,39.84522],[32.82922,39.84512],[32.82909,39.84503]]}},{"type":"Feature","properties":{},"geometry":{"type":"LineString","coordinates":[[32.85753,39.87016],[32.85746,39.86976],[32.85732,39.86926],[32.85731,39.86924]]}},{"type":"Feature","properties":{},"geometry":{"type":"LineString","coordinates":[[32.85759,39.87155],[32.85758,39.87139],[32.85755,39.87092],[32.85753,39.87083],[32.85753,39.87016]]}},{"type":"Feature","properties":{},"geometry":{"type":"LineString","coordinates":[[32.85406,39.86779],[32.85454,39.86722]]}},{"type":"Feature","properties":{},"geometry":{"type":"LineString","coordinates":[[32.8551,39.86009],[32.8546,39.85979],[32.85361,39.85913],[32.8534,39.85907],[32.85331,39.85909],[32.85316,39.85918],[32.85315,39.85934],[32.85316,39.85939]]}},{"type":"Feature","properties":{},"geometry":{"type":"LineString","coordinates":[[32.8407,39.84979],[32.84097,39.84869],[32.841,39.84859]]}},{"type":"Feature","properties":{},"geometry":{"type":"LineString","coordinates":[[32.84087,39.84851],[32.841,39.84859],[32.84128,39.84871],[32.84199,39.84908]]}},{"type":"Feature","properties":{},"geometry":{"type":"LineString","coordinates":[[32.84082,39.84823],[32.84084,39.84815],[32.84085,39.84807],[32.84085,39.84798]]}},{"type":"Feature","properties":{},"geometry":{"type":"LineString","coordinates":[[32.84122,39.8481],[32.84102,39.84808],[32.84096,39.84811],[32.84092,39.84815],[32.84089,39.84819]]}},{"type":"Feature","properties":{},"geometry":{"type":"LineString","coordinates":[[32.83881,39.84949],[32.83926,39.84898],[32.83977,39.84848]]}},{"type":"Feature","properties":{},"geometry":{"type":"LineString","coordinates":[[32.82895,39.84668],[32.82893,39.84684],[32.82894,39.84699],[32.82903,39.84715],[32.82919,39.84731],[32.83,39.84771],[32.8305,39.8479],[32.83099,39.84803],[32.83113,39.84808],[32.8312,39.8481],[32.83154,39.84825],[32.83245,39.84857],[32.83254,39.84861],[32.83296,39.84876],[32.83371,39.84904],[32.83419,39.84908],[32.83424,39.84907],[32.83457,39.84902],[32.83476,39.8489],[32.83494,39.84876],[32.83522,39.84868],[32.83574,39.84855],[32.83619,39.8484],[32.83642,39.84834],[32.83658,39.84827],[32.8367,39.84814],[32.83667,39.84787],[32.83648,39.84744],[32.83626,39.84688],[32.83606,39.84638],[32.83602,39.84625]]}},{"type":"Feature","properties":{},"geometry":{"type":"LineString","coordinates":[[32.83057,39.8451],[32.83016,39.84513],[32.82988,39.84519],[32.82963,39.84541]]}},{"type":"Feature","properties":{},"geometry":{"type":"LineString","coordinates":[[32.85553,39.87708],[32.85566,39.8771],[32.85573,39.87708],[32.85577,39.87703],[32.85571,39.87679],[32.85555,39.87644],[32.85521,39.87606],[32.85511,39.87589],[32.85507,39.87569],[32.85509,39.87525],[32.85505,39.87424],[32.85505,39.87417]]}},{"type":"Feature","properties":{},"geometry":{"type":"LineString","coordinates":[[32.85152,39.86518],[32.8518,39.86495],[32.85248,39.86439],[32.85258,39.86429],[32.85387,39.86303],[32.85411,39.86276]]}},{"type":"Feature","properties":{},"geometry":{"type":"LineString","coordinates":[[32.8518,39.86495],[32.85161,39.86501],[32.85154,39.86501],[32.85119,39.86489],[32.85108,39.86482]]}},{"type":"Feature","properties":{},"geometry":{"type":"LineString","coordinates":[[32.85071,39.86457],[32.85006,39.86513],[32.84945,39.86559],[32.84919,39.86576],[32.84818,39.86644],[32.84772,39.86676],[32.84765,39.8668]]}},{"type":"Feature","properties":{},"geometry":{"type":"LineString","coordinates":[[32.84765,39.8668],[32.84769,39.86686],[32.84793,39.86703],[32.84803,39.86706],[32.84827,39.86707],[32.8485,39.86701],[32.84956,39.86661],[32.84965,39.86655],[32.84976,39.8664],[32.84981,39.86628],[32.84982,39.86595],[32.84972,39.86578],[32.84945,39.86559]]}},{"type":"Feature","properties":{},"geometry":{"type":"LineString","coordinates":[[32.85136,39.86285],[32.85152,39.86332],[32.85167,39.8636],[32.85195,39.86386],[32.85206,39.86393],[32.85258,39.86429]]}},{"type":"Feature","properties":{},"geometry":{"type":"LineString","coordinates":[[32.85437,39.8626],[32.85429,39.86266],[32.85411,39.86276],[32.85389,39.86289],[32.85204,39.86378],[32.85195,39.86386]]}},{"type":"Feature","properties":{},"geometry":{"type":"LineString","coordinates":[[32.85395,39.86677],[32.85394,39.86663],[32.8538,39.86647]]}},{"type":"Feature","properties":{},"geometry":{"type":"LineString","coordinates":[[32.8408,39.8483],[32.84078,39.84806],[32.84074,39.84797],[32.84067,39.84786]]}},{"type":"Feature","properties":{},"geometry":{"type":"LineString","coordinates":[[32.83823,39.85284],[32.83825,39.85268],[32.83826,39.85258]]}},{"type":"Feature","properties":{},"geometry":{"type":"LineString","coordinates":[[32.83823,39.85284],[32.83793,39.85366],[32.8379,39.85387],[32.83796,39.85416],[32.83802,39.85429]]}},{"type":"Feature","properties":{},"geometry":{"type":"LineString","coordinates":[[32.84021,39.85165],[32.83966,39.85201],[32.83838,39.85268],[32.83831,39.8527],[32.83828,39.85269],[32.83827,39.85266],[32.83826,39.85258],[32.83828,39.85231],[32.8386,39.85108],[32.83913,39.84952]]}},{"type":"Feature","properties":{},"geometry":{"type":"LineString","coordinates":[[32.83838,39.85268],[32.8383,39.85273],[32.83823,39.85284]]}},{"type":"Feature","properties":{},"geometry":{"type":"LineString","coordinates":[[32.83457,39.84902],[32.83465,39.84903],[32.83468,39.84907],[32.83463,39.84914],[32.83455,39.84913],[32.83452,39.84908],[32.83457,39.84902]]}},{"type":"Feature","properties":{},"geometry":{"type":"LineString","coordinates":[[32.85464,39.86289],[32.85459,39.86293],[32.85453,39.8629],[32.85429,39.86266]]}},{"type":"Feature","properties":{},"geometry":{"type":"LineString","coordinates":[[32.85865,39.86706],[32.85845,39.86653],[32.85826,39.86607],[32.85803,39.86563],[32.85768,39.86521],[32.85727,39.86485],[32.8556,39.86363],[32.85503,39.8632],[32.8548,39.86304],[32.85464,39.86289],[32.85437,39.8626],[32.85427,39.86248],[32.85403,39.86211],[32.8538,39.8617],[32.85359,39.86121],[32.85345,39.86083],[32.85327,39.86017],[32.85304,39.85953],[32.85274,39.85893],[32.85232,39.85821],[32.85196,39.85765],[32.8519,39.8575]]}},{"type":"Feature","properties":{},"geometry":{"type":"LineString","coordinates":[[32.85411,39.86276],[32.8539,39.86252],[32.85365,39.86229]]}},{"type":"Feature","properties":{},"geometry":{"type":"LineString","coordinates":[[32.85365,39.86229],[32.85361,39.8623],[32.85339,39.86232],[32.8522,39.86259],[32.85163,39.86274],[32.85136,39.86285]]}},{"type":"Feature","properties":{},"geometry":{"type":"LineString","coordinates":[[32.86109,39.87134],[32.86145,39.87149],[32.86172,39.8716],[32.86156,39.87189],[32.86154,39.87209]]}},{"type":"Feature","properties":{},"geometry":{"type":"LineString","coordinates":[[32.80746,39.84193],[32.80784,39.8418],[32.80846,39.84173],[32.80909,39.84178],[32.81007,39.84189],[32.81159,39.84212],[32.81369,39.84243],[32.81511,39.84262],[32.81696,39.84288],[32.81877,39.84314],[32.82048,39.84338],[32.82168,39.84356],[32.82269,39.84376],[32.82369,39.84403],[32.82488,39.84438],[32.82567,39.84455],[32.82687,39.84468],[32.82811,39.84479],[32.82905,39.84489],[32.82961,39.84493]]}},{"type":"Feature","properties":{},"geometry":{"type":"LineString","coordinates":[[32.86793,39.86984],[32.868,39.8699],[32.86798,39.87003]]}},{"type":"Feature","properties":{},"geometry":{"type":"LineString","coordinates":[[32.85854,39.86724],[32.85865,39.86706]]}},{"type":"Feature","properties":{},"geometry":{"type":"LineString","coordinates":[[32.8674,39.87067],[32.86633,39.86993]]}},{"type":"Feature","properties":{},"geometry":{"type":"LineString","coordinates":[[32.84704,39.85495],[32.84709,39.85364],[32.84592,39.8538],[32.84578,39.85477],[32.84704,39.85495]]}},{"type":"Feature","properties":{},"geometry":{"type":"LineString","coordinates":[[32.84786,39.85208],[32.84807,39.85171]]}},{"type":"Feature","properties":{},"geometry":{"type":"LineString","coordinates":[[32.8477,39.85359],[32.84749,39.85212]]}},{"type":"Feature","properties":{},"geometry":{"type":"LineString","coordinates":[[32.84578,39.85477],[32.84568,39.85522],[32.84701,39.85549]]}},{"type":"Feature","properties":{},"geometry":{"type":"LineString","coordinates":[[32.84838,39.85358],[32.84931,39.85329]]}},{"type":"Feature","properties":{},"geometry":{"type":"LineString","coordinates":[[32.84895,39.85625],[32.85141,39.85726],[32.85196,39.85765]]}},{"type":"Feature","properties":{},"geometry":{"type":"LineString","coordinates":[[32.85155,39.85701],[32.85141,39.85726],[32.85174,39.85731]]}},{"type":"Feature","properties":{},"geometry":{"type":"LineString","coordinates":[[32.84568,39.85522],[32.84373,39.85468]]}},{"type":"Feature","properties":{},"geometry":{"type":"LineString","coordinates":[[32.84373,39.85468],[32.84372,39.85399],[32.84393,39.8538],[32.84426,39.85364],[32.84462,39.85362],[32.8452,39.85369],[32.84592,39.8538]]}},{"type":"Feature","properties":{},"geometry":{"type":"LineString","coordinates":[[32.84691,39.85219],[32.8468,39.8519],[32.84647,39.85171],[32.8459,39.85153],[32.84659,39.85137],[32.8468,39.8519]]}},{"type":"Feature","properties":{},"geometry":{"type":"LineString","coordinates":[[32.84659,39.85137],[32.84709,39.85119]]}},{"type":"Feature","properties":{},"geometry":{"type":"LineString","coordinates":[[32.84308,39.85088],[32.84326,39.85047],[32.84398,39.85079],[32.8438,39.85112]]}},{"type":"Feature","properties":{},"geometry":{"type":"LineString","coordinates":[[32.84148,39.85109],[32.84225,39.85132],[32.84278,39.85147]]}},{"type":"Feature","properties":{},"geometry":{"type":"LineString","coordinates":[[32.84326,39.85047],[32.84277,39.85021],[32.84239,39.85021],[32.842,39.85043],[32.84148,39.85109],[32.84028,39.85075]]}},{"type":"Feature","properties":{},"geometry":{"type":"LineString","coordinates":[[32.84702,39.853],[32.84681,39.85306],[32.84686,39.85335],[32.84687,39.85353]]}},{"type":"Feature","properties":{},"geometry":{"type":"LineString","coordinates":[[32.84681,39.85306],[32.84676,39.85274],[32.84623,39.8526],[32.846,39.85289],[32.84542,39.8527],[32.84623,39.8526]]}},{"type":"Feature","properties":{},"geometry":{"type":"LineString","coordinates":[[32.84542,39.8527],[32.84519,39.85287],[32.8449,39.85281],[32.84542,39.8527]]}},{"type":"Feature","properties":{},"geometry":{"type":"LineString","coordinates":[[32.8449,39.85281],[32.84468,39.8531],[32.84473,39.85329]]}},{"type":"Feature","properties":{},"geometry":{"type":"LineString","coordinates":[[32.85173,39.85495],[32.85221,39.85606],[32.8526,39.85598],[32.85314,39.85609]]}},{"type":"Feature","properties":{},"geometry":{"type":"LineString","coordinates":[[32.85155,39.85383],[32.85044,39.85252],[32.84927,39.85295]]}},{"type":"Feature","properties":{},"geometry":{"type":"LineString","coordinates":[[32.85307,39.85357],[32.85265,39.85246],[32.85291,39.85232],[32.85274,39.85172]]}},{"type":"Feature","properties":{},"geometry":{"type":"LineString","coordinates":[[32.85767,39.86301],[32.85613,39.86216]]}},{"type":"Feature","properties":{},"geometry":{"type":"LineString","coordinates":[[32.8566,39.86168],[32.85495,39.8608],[32.854,39.86007],[32.85329,39.85973]]}},{"type":"Feature","properties":{},"geometry":{"type":"LineString","coordinates":[[32.85495,39.8608],[32.85458,39.86124]]}},{"type":"Feature","properties":{},"geometry":{"type":"LineString","coordinates":[[32.85818,39.86248],[32.85893,39.86287],[32.85977,39.86331],[32.86042,39.86365],[32.86119,39.86406],[32.86231,39.86464]]}},{"type":"Feature","properties":{},"geometry":{"type":"LineString","coordinates":[[32.85893,39.86287],[32.85796,39.86368]]}},{"type":"Feature","properties":{},"geometry":{"type":"LineString","coordinates":[[32.85977,39.86331],[32.85851,39.86404]]}},{"type":"Feature","properties":{},"geometry":{"type":"LineString","coordinates":[[32.86042,39.86365],[32.8591,39.8645]]}},{"type":"Feature","properties":{},"geometry":{"type":"LineString","coordinates":[[32.86119,39.86406],[32.85974,39.86501]]}},{"type":"Feature","properties":{},"geometry":{"type":"LineString","coordinates":[[32.86119,39.86406],[32.8618,39.86366]]}},{"type":"Feature","properties":{},"geometry":{"type":"LineString","coordinates":[[32.82889,39.84916],[32.82802,39.8499],[32.82638,39.85127],[32.82501,39.85244],[32.82595,39.85312],[32.82658,39.85259],[32.829,39.85058],[32.82802,39.8499]]}},{"type":"Feature","properties":{},"geometry":{"type":"LineString","coordinates":[[32.829,39.85058],[32.8301,39.85141],[32.82864,39.85262],[32.82682,39.85271],[32.82658,39.85259]]}},{"type":"Feature","properties":{},"geometry":{"type":"LineString","coordinates":[[32.82595,39.85312],[32.82663,39.85359],[32.82944,39.85348],[32.83113,39.85205],[32.83213,39.85117]]}},{"type":"Feature","properties":{},"geometry":{"type":"LineString","coordinates":[[32.83113,39.85205],[32.8301,39.85141]]}},{"type":"Feature","properties":{},"geometry":{"type":"LineString","coordinates":[[32.84429,39.85257],[32.84398,39.85188],[32.84393,39.85184],[32.8438,39.85178],[32.84343,39.85166],[32.84278,39.85147],[32.84308,39.85088],[32.8438,39.85112],[32.84343,39.85166]]}},{"type":"Feature","properties":{},"geometry":{"type":"LineString","coordinates":[[32.81894,39.87055],[32.81887,39.87051]]}},{"type":"Feature","properties":{},"geometry":{"type":"LineString","coordinates":[[32.84602,39.85046],[32.84393,39.85184]]}},{"type":"Feature","properties":{},"geometry":{"type":"LineString","coordinates":[[32.8471,39.85099],[32.84691,39.85109],[32.84679,39.85117],[32.8464,39.85099],[32.84637,39.85062]]}},{"type":"Feature","properties":{},"geometry":{"type":"LineString","coordinates":[[32.83052,39.8451],[32.83045,39.84505],[32.83041,39.84498],[32.83042,39.84492],[32.83046,39.8449]]}},{"type":"Feature","properties":{},"geometry":{"type":"LineString","coordinates":[[32.83227,39.83862],[32.83162,39.83878],[32.8315,39.83897],[32.83151,39.83914],[32.83164,39.8393],[32.83196,39.83958],[32.83213,39.83984],[32.83273,39.8403],[32.83313,39.84056],[32.83331,39.84081],[32.83334,39.84106],[32.83313,39.84211],[32.83314,39.84246],[32.83308,39.84263]]}},{"type":"Feature","properties":{},"geometry":{"type":"LineString","coordinates":[[32.81746,39.84156],[32.81852,39.84205],[32.81894,39.84229],[32.81948,39.8427],[32.81983,39.84301],[32.82007,39.84314],[32.82033,39.84315],[32.82075,39.8431],[32.82138,39.84317],[32.82205,39.84325],[32.8228,39.84336],[32.82347,39.84354],[32.82489,39.84376],[32.82533,39.84383],[32.82586,39.844],[32.82621,39.84411],[32.82687,39.8441],[32.8277,39.84402],[32.82831,39.84418],[32.82864,39.84418],[32.82905,39.84438],[32.82932,39.84439],[32.82959,39.84446],[32.82979,39.8444],[32.83,39.84411],[32.83034,39.84398],[32.83067,39.84383],[32.83154,39.84331],[32.83192,39.84323],[32.83243,39.84295],[32.83308,39.84263]]}},{"type":"Feature","properties":{},"geometry":{"type":"LineString","coordinates":[[32.82592,39.84338],[32.82573,39.84307],[32.82533,39.84258],[32.82474,39.84202],[32.82407,39.8414],[32.82334,39.84077],[32.82301,39.84059],[32.82242,39.84039],[32.82208,39.84037],[32.82182,39.84052],[32.82175,39.84079],[32.82182,39.84113],[32.82233,39.842],[32.82261,39.84259],[32.8228,39.84336]]}},{"type":"Feature","properties":{},"geometry":{"type":"LineString","coordinates":[[32.8228,39.84336],[32.822,39.84302],[32.82184,39.84295],[32.82103,39.8422],[32.82038,39.84124],[32.82031,39.84069],[32.82032,39.84012],[32.82046,39.83989],[32.82075,39.83969],[32.82087,39.8395],[32.82088,39.83934],[32.82075,39.83899],[32.82073,39.83867],[32.82083,39.83841],[32.82111,39.83829],[32.82145,39.83823],[32.82185,39.83823],[32.82244,39.83846],[32.82294,39.83886],[32.82329,39.83894],[32.82358,39.83906],[32.82395,39.83934],[32.82428,39.83971],[32.82447,39.84011],[32.82474,39.84037],[32.82513,39.84062],[32.82551,39.84082],[32.82584,39.84137],[32.82638,39.84188],[32.8266,39.84214],[32.8266,39.84232],[32.82625,39.84277],[32.82612,39.84302],[32.82592,39.84338],[32.82584,39.84369],[32.82586,39.844]]}},{"type":"Feature","properties":{},"geometry":{"type":"LineString","coordinates":[[32.82612,39.84302],[32.82589,39.84275],[32.82556,39.84252],[32.82542,39.84232],[32.82519,39.84214],[32.82503,39.84193],[32.82468,39.84171],[32.82349,39.84056],[32.82336,39.84039],[32.82262,39.83978],[32.82242,39.83975],[32.82213,39.83975],[32.82188,39.83979],[32.82155,39.83994],[32.82123,39.84013],[32.82106,39.84029],[32.82096,39.84051],[32.82085,39.84107],[32.82089,39.84127],[32.821,39.8415],[32.82145,39.84197],[32.8217,39.84227],[32.82186,39.84255],[32.82198,39.84269],[32.82199,39.84282],[32.822,39.84302]]}},{"type":"Feature","properties":{},"geometry":{"type":"LineString","coordinates":[[32.83308,39.84263],[32.83412,39.84218],[32.83442,39.84212],[32.83476,39.84235],[32.83503,39.84239],[32.83542,39.84254],[32.8358,39.84262],[32.83603,39.84274],[32.8363,39.84279],[32.83658,39.84267],[32.83678,39.84261],[32.83665,39.84228],[32.83653,39.84214],[32.83645,39.84178],[32.83635,39.84159],[32.83554,39.84116],[32.83497,39.8409],[32.83445,39.8407],[32.83421,39.8406],[32.83403,39.83992],[32.83397,39.83957],[32.83399,39.8393],[32.83409,39.83905],[32.83409,39.83889],[32.83406,39.83874],[32.83389,39.83862],[32.83363,39.83851],[32.83317,39.83845],[32.83269,39.83851],[32.83227,39.83862]]}},{"type":"Feature","properties":{},"geometry":{"type":"LineString","coordinates":[[32.83665,39.84228],[32.83718,39.84264],[32.83795,39.84324],[32.83815,39.84336],[32.83826,39.84354]]}},{"type":"Feature","properties":{},"geometry":{"type":"LineString","coordinates":[[32.83432,39.84857],[32.83419,39.84882],[32.83424,39.84907]]}},{"type":"Feature","properties":{},"geometry":{"type":"LineString","coordinates":[[32.83254,39.84861],[32.83279,39.84806]]}},{"type":"Feature","properties":{},"geometry":{"type":"LineString","coordinates":[[32.81847,39.84922],[32.81862,39.84917],[32.81881,39.84909],[32.81931,39.84889],[32.81988,39.84866],[32.82026,39.84854],[32.82038,39.84849],[32.82057,39.8484],[32.82068,39.8483],[32.8208,39.84813],[32.82087,39.84804],[32.82098,39.84785],[32.82106,39.84772],[32.82117,39.84763],[32.82132,39.84752],[32.8215,39.84745],[32.82164,39.84742],[32.82182,39.84738],[32.82203,39.84735],[32.82477,39.84686],[32.82481,39.84684],[32.82494,39.84681],[32.82508,39.84679],[32.82523,39.84681],[32.82538,39.84683],[32.82565,39.84694],[32.82592,39.84707],[32.82625,39.84721]]}},{"type":"Feature","properties":{},"geometry":{"type":"LineString","coordinates":[[32.82123,39.85066],[32.82184,39.85036],[32.82203,39.85027]]}},{"type":"Feature","properties":{},"geometry":{"type":"LineString","coordinates":[[32.82376,39.85427],[32.82239,39.85318],[32.82148,39.85251],[32.82106,39.85224],[32.82083,39.85213],[32.82031,39.85196],[32.81914,39.85168],[32.81713,39.85127],[32.81689,39.85123],[32.81646,39.85115],[32.81562,39.85108],[32.81478,39.85107],[32.81385,39.85112],[32.81303,39.85109],[32.8128,39.85111],[32.8126,39.85116],[32.81223,39.85133],[32.81186,39.85146],[32.81174,39.85149]]}},{"type":"Feature","properties":{},"geometry":{"type":"LineString","coordinates":[[32.8312,39.84827],[32.83117,39.84839],[32.83118,39.84908],[32.8311,39.84913],[32.83109,39.84919]]}},{"type":"Feature","properties":{},"geometry":{"type":"LineString","coordinates":[[32.82424,39.85437],[32.8244,39.85429],[32.82445,39.85427],[32.82459,39.85429]]}},{"type":"Feature","properties":{},"geometry":{"type":"LineString","coordinates":[[32.82203,39.85027],[32.82158,39.85057],[32.82146,39.85065],[32.82137,39.85072],[32.82134,39.85074],[32.82124,39.8508]]}},{"type":"Feature","properties":{},"geometry":{"type":"LineString","coordinates":[[32.8323,39.85097],[32.83227,39.85102],[32.83216,39.85101]]}},{"type":"Feature","properties":{},"geometry":{"type":"LineString","coordinates":[[32.82203,39.85027],[32.82197,39.85016],[32.82157,39.84952],[32.8215,39.84944],[32.82139,39.84943],[32.82034,39.84979],[32.81964,39.85008],[32.81892,39.85033],[32.81885,39.85033]]}},{"type":"Feature","properties":{},"geometry":{"type":"LineString","coordinates":[[32.81847,39.84922],[32.81833,39.84898],[32.81823,39.84893],[32.81797,39.84891],[32.81785,39.84894],[32.81776,39.84901],[32.81728,39.84979],[32.81726,39.84992],[32.81729,39.85005],[32.81791,39.85062],[32.8179,39.85065],[32.81721,39.85117],[32.81716,39.85123],[32.81713,39.85127]]}},{"type":"Feature","properties":{},"geometry":{"type":"LineString","coordinates":[[32.82482,39.84935],[32.82491,39.84945],[32.82502,39.84951],[32.82508,39.8496],[32.82508,39.84979],[32.82491,39.85014],[32.82486,39.85018],[32.82483,39.85022],[32.82475,39.85026]]}},{"type":"Feature","properties":{},"geometry":{"type":"LineString","coordinates":[[32.82486,39.85018],[32.82482,39.84935],[32.82484,39.8491],[32.82474,39.84875],[32.82468,39.84856],[32.8246,39.84828],[32.82462,39.848],[32.82481,39.84684]]}},{"type":"Feature","properties":{},"geometry":{"type":"LineString","coordinates":[[32.82134,39.85074],[32.82131,39.85081],[32.82131,39.85092],[32.82144,39.85116],[32.82281,39.85265],[32.82356,39.85338],[32.82406,39.85378],[32.82449,39.85418],[32.82459,39.85429]]}},{"type":"Feature","properties":{},"geometry":{"type":"LineString","coordinates":[[32.82099,39.85076],[32.81912,39.85056],[32.819,39.8505],[32.81894,39.85044],[32.81889,39.85039],[32.81885,39.85033],[32.81873,39.85016],[32.81839,39.84957],[32.81837,39.84943],[32.81847,39.84922]]}},{"type":"Feature","properties":{},"geometry":{"type":"LineString","coordinates":[[32.82459,39.85429],[32.82432,39.85407],[32.82422,39.85397],[32.82411,39.85386],[32.82377,39.8536],[32.82347,39.85333],[32.82315,39.85304],[32.82281,39.85272],[32.82246,39.85237],[32.82215,39.85202],[32.82187,39.85168],[32.82167,39.85147],[32.82148,39.85128],[32.82135,39.85112],[32.82126,39.85101],[32.82115,39.85087],[32.82109,39.8508]]}},{"type":"Feature","properties":{},"geometry":{"type":"LineString","coordinates":[[32.82126,39.85101],[32.82114,39.85082],[32.82114,39.85073],[32.82123,39.85066]]}},{"type":"Feature","properties":{},"geometry":{"type":"LineString","coordinates":[[32.82376,39.85427],[32.82395,39.8544],[32.82406,39.85443],[32.82424,39.85437],[32.82431,39.85428],[32.82434,39.85416],[32.82432,39.85407]]}},{"type":"Feature","properties":{},"geometry":{"type":"LineString","coordinates":[[32.83079,39.84907],[32.83123,39.84915],[32.83144,39.84926],[32.83207,39.84971],[32.83227,39.84992],[32.83233,39.85003],[32.83248,39.85049],[32.83253,39.85058],[32.83269,39.85072],[32.83291,39.8508],[32.83316,39.85083],[32.83427,39.85087]]}},{"type":"Feature","properties":{},"geometry":{"type":"LineString","coordinates":[[32.86427,39.86658],[32.86324,39.86603],[32.86207,39.8654]]}},{"type":"Feature","properties":{},"geometry":{"type":"LineString","coordinates":[[32.86561,39.86922],[32.86436,39.86842]]}},{"type":"Feature","properties":{},"geometry":{"type":"LineString","coordinates":[[32.86411,39.86737],[32.86276,39.86858],[32.8617,39.86938]]}},{"type":"Feature","properties":{},"geometry":{"type":"LineString","coordinates":[[32.86834,39.8692],[32.86705,39.86841]]}},{"type":"Feature","properties":{},"geometry":{"type":"LineString","coordinates":[[32.86902,39.86817],[32.86785,39.86757]]}},{"type":"Feature","properties":{},"geometry":{"type":"LineString","coordinates":[[32.86732,39.86813],[32.86867,39.86877]]}},{"type":"Feature","properties":{},"geometry":{"type":"LineString","coordinates":[[32.86736,39.86686],[32.86591,39.86844]]}},{"type":"Feature","properties":{},"geometry":{"type":"LineString","coordinates":[[32.86811,39.8673],[32.86785,39.86757],[32.86732,39.86813],[32.86705,39.86841],[32.86657,39.8689]]}},{"type":"Feature","properties":{},"geometry":{"type":"LineString","coordinates":[[32.86659,39.86647],[32.86736,39.86686]]}},{"type":"Feature","properties":{},"geometry":{"type":"LineString","coordinates":[[32.86704,39.86924],[32.86633,39.86993],[32.86589,39.87043],[32.86576,39.87054],[32.865,39.87121],[32.8636,39.87214],[32.86326,39.87228]]}},{"type":"Feature","properties":{},"geometry":{"type":"LineString","coordinates":[[32.86622,39.86865],[32.86561,39.86922],[32.86495,39.86985],[32.86422,39.87055]]}},{"type":"Feature","properties":{},"geometry":{"type":"LineString","coordinates":[[32.86538,39.87154],[32.86439,39.87215],[32.86344,39.87256]]}},{"type":"Feature","properties":{},"geometry":{"type":"LineString","coordinates":[[32.86461,39.87088],[32.86338,39.87175],[32.86307,39.87188]]}},{"type":"Feature","properties":{},"geometry":{"type":"LineString","coordinates":[[32.86593,39.87512],[32.86578,39.8749],[32.86556,39.8745],[32.865,39.87354],[32.86443,39.87263]]}},{"type":"Feature","properties":{},"geometry":{"type":"LineString","coordinates":[[32.86378,39.87019],[32.86322,39.87058],[32.86251,39.87094]]}},{"type":"Feature","properties":{},"geometry":{"type":"LineString","coordinates":[[32.8648,39.86602],[32.8644,39.86645],[32.86427,39.86658],[32.86369,39.86716]]}},{"type":"Feature","properties":{},"geometry":{"type":"LineString","coordinates":[[32.8644,39.86645],[32.86575,39.86711]]}},{"type":"Feature","properties":{},"geometry":{"type":"LineString","coordinates":[[32.86262,39.86487],[32.86207,39.8654],[32.86131,39.86599]]}},{"type":"Feature","properties":{},"geometry":{"type":"LineString","coordinates":[[32.86377,39.86551],[32.86324,39.86603],[32.86261,39.86661]]}},{"type":"Feature","properties":{},"geometry":{"type":"LineString","coordinates":[[32.8648,39.86602],[32.86377,39.86551],[32.86262,39.86487],[32.86231,39.86464]]}},{"type":"Feature","properties":{},"geometry":{"type":"LineString","coordinates":[[32.86213,39.87305],[32.86227,39.87299]]}},{"type":"Feature","properties":{},"geometry":{"type":"LineString","coordinates":[[32.86194,39.87314],[32.86178,39.87321]]}}]}