{"type":"FeatureCollection","features":[{"type":"Feature","properties":{"oneway":"yes","highway":"secondary","osm_id":28967249},"geometry":{"type":"LineString","coordinates":[[32.8799635,39.933424],[32.8801605,39.9334174],[32.8803041,39.9333955],[32.8804241,39.9333599],[32.8820435,39.9328791],[32.883332,39.9324328],[32.88483,39.9319009],[32.8852012,39.9315016],[32.885314,39.9313503]]}},{"type":"Feature","properties":{"highway":"secondary","oneway":"yes","osm_id":32457016},"geometry":{"type":"LineString","coordinates":[[32.9008812,39.9197025],[32.9008679,39.9194908],[32.9008645,39.9194113],[32.900845,39.9192512]]}},{"type":"Feature","properties":{"highway":"tertiary","osm_id":32457017},"geometry":{"type":"LineString","coordinates":[[32.8993056,39.9183989],[32.8996628,39.9185448],[32.8997066,39.9185816],[32.8999505,39.9187441],[32.9006417,39.9194661]]}},{"type":"Feature","properties":{"highway":"residential","name":"502. Sokak","osm_id":32457018},"geometry":{"type":"LineString","coordinates":[[32.9019024,39.9209772],[32.9026967,39.9208411],[32.9027766,39.9208259],[32.9032775,39.9207693],[32.9040327,39.9206825]]}},{"type":"Feature","properties":{"highway":"residential","name":"497. Sokak","osm_id":32457022},"geometry":{"type":"LineString","coordinates":[[32.9010468,39.9196534],[32.9012514,39.9195486],[32.9018968,39.9194451],[32.9022115,39.9193409],[32.9026646,39.9190329],[32.9033704,39.9186002],[32.903933,39.9183069],[32.9044028,39.9181047],[32.9047978,39.9180603],[32.9055796,39.9179781]]}},{"type":"Feature","properties":{"highway":"residential","name":"490. Sokak","osm_id":32457060},"geometry":{"type":"LineString","coordinates":[[32.9004779,39.9185635],[32.9013042,39.9182928],[32.9017705,39.9181631],[32.9024024,39.9178469],[32.9025457,39.9178166],[32.9029596,39.9177292],[32.9032906,39.9176225],[32.9039381,39.9172386],[32.9046854,39.9166432],[32.9054489,39.9160556]]}},{"type":"Feature","properties":{"highway":"residential","name":"489. Sokak","osm_id":32457063},"geometry":{"type":"LineString","coordinates":[[32.900674,39.9168685],[32.9010467,39.9173512],[32.9012294,39.9175688],[32.9017705,39.9181631],[32.9022093,39.9186017],[32.9026646,39.9190329],[32.9027826,39.9190788],[32.902966,39.9192214],[32.903038,39.9193462],[32.9031099,39.9195411],[32.9032531,39.919773],[32.9033894,39.9199386],[32.9037783,39.9201631],[32.904139,39.920269]]}},{"type":"Feature","properties":{"highway":"residential","name":"500. Sokak","osm_id":32457064},"geometry":{"type":"LineString","coordinates":[[32.9017989,39.9207761],[32.9021418,39.9206025],[32.9024195,39.9203616],[32.9025191,39.9202554],[32.902766,39.9202052],[32.9031043,39.9201159],[32.9033894,39.9199386]]}},{"type":"Feature","properties":{"highway":"residential","osm_id":32457140},"geometry":{"type":"LineString","coordinates":[[32.8987903,39.9201666],[32.8992469,39.9197098],[32.8994844,39.9191208],[32.8997066,39.9185816]]}},{"type":"Feature","properties":{"highway":"residential","name":"334. Sokak","osm_id":32457141},"geometry":{"type":"LineString","coordinates":[[32.8999638,39.9209515],[32.9005538,39.9205856],[32.9012798,39.9201082]]}},{"type":"Feature","properties":{"highway":"residential","osm_id":32457142},"geometry":{"type":"LineString","coordinates":[[32.9020113,39.9212038],[32.9012284,39.9214335],[32.9005538,39.9205856],[32.9003022,39.9203626],[32.8998423,39.9200133],[32.8992469,39.9197098]]}},{"type":"Feature","properties":{"highway":"residential","osm_id":32457198},"geometry":{"type":"LineString","coordinates":[[32.8994844,39.9191208],[32.8992141,39.9190845],[32.8987239,39.9189977],[32.8983439,39.918947],[32.8976679,39.9189881],[32.8974841,39.9190358]]}},{"type":"Feature","properties":{"highway":"residential","name":"332. Sokak","osm_id":32457199},"geometry":{"type":"LineString","coordinates":[[32.896331,39.9222009],[32.8965843,39.9221231],[32.8967667,39.9218351],[32.8968742,39.9216549],[32.8970826,39.9212724],[32.8972281,39.9210617],[32.8973615,39.9208615],[32.8976797,39.920384],[32.8980327,39.9200825],[32.8984297,39.9200907],[32.8987903,39.9201666],[32.8992275,39.9204093],[32.8996063,39.920647],[32.8999638,39.9209515],[32.9006022,39.9217202],[32.9008481,39.922016],[32.9011094,39.9222607],[32.9015867,39.9227134]]}},{"type":"Feature","properties":{"oneway":"yes","highway":"secondary","osm_id":34281682},"geometry":{"type":"LineString","coordinates":[[32.885314,39.9313503],[32.8852368,39.9311717],[32.8850487,39.9308922],[32.8848061,39.9306128],[32.884443,39.9302852],[32.884175,39.9299682],[32.8839646,39.9297081],[32.8837571,39.929403],[32.8834693,39.9290483],[32.8833749,39.9289061],[32.883162,39.9285476],[32.8829827,39.9282306],[32.8829269,39.9281029],[32.8828916,39.9278438],[32.8828752,39.9277233],[32.8828945,39.9275903],[32.8829063,39.9275086],[32.8829254,39.9273762],[32.8829251,39.9270657],[32.8829291,39.9266007],[32.8829321,39.9264434],[32.8829479,39.9263839],[32.8830406,39.9262322],[32.8830782,39.9261706]]}},{"type":"Feature","properties":{"name":"Bağlarbaşı Cd.","highway":"tertiary","osm_id":34281702},"geometry":{"type":"LineString","coordinates":[[32.8830782,39.9261706],[32.8831752,39.9260797],[32.8832571,39.9260173],[32.8834324,39.9258275],[32.8837314,39.9256882],[32.8839808,39.9256385],[32.8843998,39.9255913],[32.8848558,39.9256716],[32.8855275,39.9258937],[32.8861875,39.9260968],[32.8866012,39.9261633],[32.8868968,39.9261607],[32.8872484,39.9260149],[32.8879999,39.9254005],[32.8881005,39.9253001],[32.8885218,39.925083],[32.889065,39.9250286],[32.8894083,39.9250483],[32.8899791,39.9251342],[32.8901931,39.9250823],[32.89103,39.9249203],[32.8917235,39.9246245],[32.8926919,39.9243704],[32.8930077,39.924342],[32.8933816,39.9243084],[32.8940915,39.9243587],[32.8945181,39.9244146],[32.8948492,39.9245017],[32.8950182,39.9245833]]}},{"type":"Feature","properties":{"name":"Asım Gündüz Cd.","highway":"tertiary","source":"Yahoo","osm_id":35209401},"geometry":{"type":"LineString","coordinates":[[32.8950003,39.93537],[32.8950276,39.9350192],[32.8951173,39.9348089],[32.8952626,39.9344682],[32.8953358,39.9341964],[32.8954195,39.9340459],[32.895596,39.9334912],[32.8958892,39.9328085],[32.8959341,39.9326765],[32.8961596,39.9318179],[32.8962308,39.9315049],[32.8963227,39.9311334],[32.8964353,39.930191],[32.8967091,39.9281577],[32.8967175,39.9280927],[32.8966746,39.9274871],[32.8966652,39.9274477],[32.896561,39.9270273],[32.896311,39.926528],[32.8961851,39.926255],[32.8960968,39.9261621],[32.8960423,39.9260821],[32.8960012,39.9260133],[32.8959171,39.9258705],[32.8957833,39.9256213],[32.8956958,39.9254582]]}},{"type":"Feature","properties":{"name":"Cami Sk.","highway":"residential","osm_id":35209428},"geometry":{"type":"LineString","coordinates":[[32.8966652,39.9274477],[32.8952069,39.9277043],[32.8942237,39.9279631],[32.8939814,39.9280179],[32.8936612,39.9280902],[32.8933864,39.9281737],[32.8925114,39.928532],[32.8906404,39.929435],[32.8898941,39.9298587],[32.8891796,39.9301814]]}},{"type":"Feature","properties":{"name":"Kaşif Hoca Sk.","highway":"residential","osm_id":35209429},"geometry":{"type":"LineString","coordinates":[[32.8925527,39.9355848],[32.8923638,39.9351623],[32.8921407,39.9346634],[32.8917392,39.9339525],[32.8913995,39.9334924],[32.890983,39.9327316],[32.8901517,39.9315493],[32.8898484,39.9311918],[32.8894331,39.9305887],[32.8891796,39.9301814],[32.8890583,39.9300102]]}},{"type":"Feature","properties":{"name":"Ekenler Sk.","highway":"residential","osm_id":35209430},"geometry":{"type":"LineString","coordinates":[[32.8943231,39.9269058],[32.8939043,39.9261748],[32.8935359,39.9255921],[32.8932775,39.9250253],[32.8930077,39.924342]]}},{"type":"Feature","properties":{"highway":"residential","source":"Yahoo","osm_id":35209431},"geometry":{"type":"LineString","coordinates":[[32.895701,39.9225316],[32.8954735,39.9229174],[32.8954182,39.9232656],[32.8954156,39.9238338],[32.8954145,39.924031]]}},{"type":"Feature","properties":{"name":"Tıp Fakültesi Cd.","oneway":"yes","highway":"secondary","osm_id":56695095},"geometry":{"type":"LineString","coordinates":[[32.8855244,39.9315284],[32.8853705,39.9316247],[32.8849903,39.9319249],[32.8841032,39.9322326],[32.8831438,39.9325958],[32.8829516,39.9326599],[32.880538,39.9334653],[32.8803725,39.9335243],[32.8802209,39.9335616],[32.879997,39.9335976]]}},{"type":"Feature","properties":{"highway":"secondary","osm_id":56695155},"geometry":{"type":"LineString","coordinates":[[32.8856277,39.9313721],[32.8855934,39.9314585],[32.8855244,39.9315284],[32.885314,39.9313503],[32.8853783,39.9312722],[32.8854715,39.9311758],[32.8855321,39.9312551],[32.8856277,39.9313721]]}},{"type":"Feature","properties":{"name":"Gömü Sk.","highway":"residential","osm_id":56696315},"geometry":{"type":"LineString","coordinates":[[32.8942237,39.9279631],[32.8942068,39.928926],[32.8942046,39.9300098]]}},{"type":"Feature","properties":{"name":"Çalıkavak Sk.","highway":"residential","osm_id":56696316},"geometry":{"type":"LineString","coordinates":[[32.8933864,39.9281737],[32.8932788,39.9289216],[32.8932268,39.9294759],[32.8932629,39.9297258],[32.8934089,39.9301309]]}},{"type":"Feature","properties":{"name":"Yıldız Sk.","highway":"residential","osm_id":56696317},"geometry":{"type":"LineString","coordinates":[[32.8932788,39.9289216],[32.8942068,39.928926],[32.8951467,39.9289162]]}},{"type":"Feature","properties":{"name":"Ortatepe Sk.","highway":"residential","osm_id":56696524},"geometry":{"type":"LineString","coordinates":[[32.894672,39.9268868],[32.8952069,39.9277043],[32.8951467,39.9289162],[32.8950773,39.9298968],[32.895054,39.9301013],[32.8949195,39.9305496],[32.8948566,39.9313241],[32.8946675,39.9319212],[32.8946233,39.9322125],[32.8945968,39.9327011],[32.8945616,39.9333496]]}},{"type":"Feature","properties":{"name":"Esenler Sk.","highway":"residential","osm_id":56696526},"geometry":{"type":"LineString","coordinates":[[32.8950773,39.9298968],[32.8942046,39.9300098],[32.893705,39.9300884],[32.8934089,39.9301309],[32.8928014,39.9302789],[32.8917132,39.930756],[32.8909098,39.9311261],[32.8901517,39.9315493],[32.8895466,39.9321718],[32.8893957,39.9322991],[32.8891739,39.9323869],[32.8886859,39.9324357],[32.8877328,39.9324611],[32.8864915,39.9325819]]}},{"type":"Feature","properties":{"name":"Çalıkavak Sk.","highway":"residential","osm_id":56696527},"geometry":{"type":"LineString","coordinates":[[32.893705,39.9300884],[32.894043,39.9307949],[32.8941539,39.9310566],[32.8941601,39.9313573],[32.8941072,39.9318047],[32.8941189,39.9319976]]}},{"type":"Feature","properties":{"name":"Sakinler Sk.","highway":"residential","osm_id":56696580},"geometry":{"type":"LineString","coordinates":[[32.8946675,39.9319212],[32.8941189,39.9319976],[32.8934996,39.9321457],[32.8926361,39.9323221],[32.8918322,39.9325318],[32.890983,39.9327316],[32.8904668,39.9328602],[32.89034,39.9329285],[32.8902386,39.932987],[32.8888015,39.9331231],[32.8880552,39.9332121],[32.8869728,39.9333508]]}},{"type":"Feature","properties":{"name":"Gaziler Sk.","oneway":"yes","highway":"tertiary","osm_id":56696850},"geometry":{"type":"LineString","coordinates":[[32.8869234,39.9348532],[32.8869379,39.934655],[32.8869312,39.9343118],[32.8867968,39.9337546],[32.8866041,39.9330712],[32.8865232,39.9328151],[32.8864915,39.9325819],[32.8863334,39.9321943],[32.8860254,39.9318203]]}},{"type":"Feature","properties":{"name":"Gaziler Sk.","highway":"secondary","oneway":"yes","osm_id":56696852},"geometry":{"type":"LineString","coordinates":[[32.8860254,39.9318203],[32.8857047,39.9316284],[32.8856115,39.9315767],[32.8855244,39.9315284]]}},{"type":"Feature","properties":{"name":"Gaziler Sk.","highway":"secondary","oneway":"yes","osm_id":56696853},"geometry":{"type":"LineString","coordinates":[[32.8856277,39.9313721],[32.8858005,39.9315426],[32.8860254,39.9318203]]}},{"type":"Feature","properties":{"name":"Görgülü Sk.","highway":"residential","osm_id":56697151},"geometry":{"type":"LineString","coordinates":[[32.8925122,39.9277361],[32.8925114,39.928532],[32.892624,39.9294337],[32.8928014,39.9302789],[32.8931969,39.9314057],[32.8934996,39.9321457],[32.8940498,39.9334481]]}},{"type":"Feature","properties":{"name":"Bucak Sk.","highway":"residential","osm_id":56729033},"geometry":{"type":"LineString","coordinates":[[32.8903036,39.9289035],[32.8906404,39.929435],[32.891162,39.9300774],[32.8917132,39.930756],[32.8922086,39.9315411],[32.8926361,39.9323221],[32.8932006,39.9336153],[32.8935869,39.9344053],[32.8938249,39.9348067],[32.893993,39.9352164]]}},{"type":"Feature","properties":{"name":"Saraycık Sk.","highway":"residential","osm_id":56730643},"geometry":{"type":"LineString","coordinates":[[32.8869974,39.9302164],[32.8872948,39.9306672],[32.8876465,39.9312014],[32.8879101,39.9315895],[32.888316,39.932074],[32.8883723,39.932129],[32.8886859,39.9324357],[32.8887619,39.9326066],[32.8888015,39.9331231]]}},{"type":"Feature","properties":{"name":"Bağlar Sk.","highway":"residential","osm_id":56730646},"geometry":{"type":"LineString","coordinates":[[32.886473,39.9305389],[32.8873925,39.9319173],[32.8877328,39.9324611]]}},{"type":"Feature","properties":{"name":"Aydık Sk.","highway":"residential","osm_id":56730650},"geometry":{"type":"LineString","coordinates":[[32.8898484,39.9311918],[32.8883723,39.932129]]}},{"type":"Feature","properties":{"name":"Gördük Sk.","highway":"residential","osm_id":56730651},"geometry":{"type":"LineString","coordinates":[[32.8894331,39.9305887],[32.8879101,39.9315895],[32.8873925,39.9319173]]}},{"type":"Feature","properties":{"name":"Çayırlık Sk.","highway":"residential","osm_id":56730659},"geometry":{"type":"LineString","coordinates":[[32.8890583,39.9300102],[32.8882816,39.9303575]]}},{"type":"Feature","properties":{"name":"Kaşif Hoca Sk.","highway":"residential","osm_id":56730827},"geometry":{"type":"LineString","coordinates":[[32.8897046,39.9290235],[32.8893316,39.9285855],[32.8891463,39.9280564]]}},{"type":"Feature","properties":{"name":"Şadırvan Sk.","highway":"residential","osm_id":56730836},"geometry":{"type":"LineString","coordinates":[[32.8901931,39.9250823],[32.8901656,39.9258793],[32.8900314,39.9266493],[32.890001,39.9277744],[32.8901303,39.9282196],[32.8901682,39.928341],[32.8903034,39.9287748],[32.8903036,39.9289035]]}},{"type":"Feature","properties":{"name":"Limonlu Sk.","highway":"residential","osm_id":56730837},"geometry":{"type":"LineString","coordinates":[[32.8879535,39.9259108],[32.8890006,39.925909],[32.8901656,39.9258793],[32.8905508,39.9258513],[32.8911418,39.9256961],[32.8917012,39.9254955],[32.8930216,39.9250029],[32.8932775,39.9250253],[32.8943156,39.9250874],[32.8944525,39.9251496],[32.8945781,39.9253615],[32.8948197,39.9257693]]}},{"type":"Feature","properties":{"name":"Bildik Sk.","highway":"residential","osm_id":56730938},"geometry":{"type":"LineString","coordinates":[[32.892624,39.9294337],[32.891162,39.9300774]]}},{"type":"Feature","properties":{"name":"Sancak Sk.","highway":"residential","osm_id":56730949},"geometry":{"type":"LineString","coordinates":[[32.8898941,39.9298587],[32.8909098,39.9311261],[32.8914178,39.9318198],[32.8918322,39.9325318],[32.8924508,39.9337851]]}},{"type":"Feature","properties":{"name":"Tıp Fakültesi Cd.","oneway":"yes","highway":"secondary","osm_id":56733354},"geometry":{"type":"LineString","coordinates":[[32.9035559,39.9251856],[32.9028753,39.92514],[32.9025976,39.9251294],[32.9012468,39.9251047],[32.9009934,39.9251105],[32.8998877,39.9250639],[32.8991141,39.9250533],[32.8988717,39.9250653],[32.8983137,39.9251354],[32.8980607,39.9252197],[32.8974797,39.9254981],[32.8970992,39.9256805],[32.8961957,39.9261229],[32.8960968,39.9261621],[32.8950624,39.926666],[32.894672,39.9268868],[32.8936278,39.9272974],[32.8925122,39.9277361],[32.8920425,39.9279334],[32.8903036,39.9289035],[32.8897878,39.9291263],[32.8887496,39.9295572],[32.8871383,39.9301634],[32.8869974,39.9302164],[32.886473,39.9305389],[32.8860871,39.9308013],[32.885764,39.9310951],[32.8856599,39.9312185],[32.8856277,39.9313721]]}},{"type":"Feature","properties":{"name":"Karaağaç Sk.","highway":"residential","osm_id":56735125},"geometry":{"type":"LineString","coordinates":[[32.8917012,39.9254955],[32.891944,39.926176],[32.8920747,39.9263919],[32.8922118,39.9269294]]}},{"type":"Feature","properties":{"name":"Küçükkuyu Sk.","highway":"residential","osm_id":56735127},"geometry":{"type":"LineString","coordinates":[[32.8900314,39.9266493],[32.8907195,39.9265043],[32.8907955,39.9264873],[32.891944,39.926176],[32.8935359,39.9255921]]}},{"type":"Feature","properties":{"highway":"residential","name":"Kınalıel Sokak","osm_id":56735136},"geometry":{"type":"LineString","coordinates":[[32.9030912,39.9239045],[32.9025247,39.9241773],[32.9019702,39.92432],[32.9009849,39.9242799],[32.8999532,39.9242624],[32.8991948,39.9242256],[32.89873,39.9242969],[32.8986164,39.9243144],[32.8982044,39.9243776],[32.8963357,39.9251826],[32.8960083,39.9253236],[32.8956958,39.9254582],[32.8948197,39.9257693],[32.8939043,39.9261748],[32.8922118,39.9269294]]}},{"type":"Feature","properties":{"name":"Kurucu Sk.","highway":"residential","osm_id":56735224},"geometry":{"type":"LineString","coordinates":[[32.8890006,39.925909],[32.8890786,39.9269607],[32.8891463,39.9280564]]}},{"type":"Feature","properties":{"name":"Kaynarca Sk.","highway":"residential","osm_id":56735232},"geometry":{"type":"LineString","coordinates":[[32.890001,39.9277744],[32.8891463,39.9280564],[32.8883173,39.92823],[32.887631,39.9282834],[32.8868933,39.9284547],[32.8856873,39.9290126],[32.8849422,39.9293982]]}},{"type":"Feature","properties":{"name":"Çeşitlitaş Sk.","highway":"residential","osm_id":56735535},"geometry":{"type":"LineString","coordinates":[[32.8884669,39.9288798],[32.886838,39.929376],[32.8862155,39.9296424],[32.8854697,39.9300527],[32.8847713,39.9304828]]}},{"type":"Feature","properties":{"name":"Gülistan Sk.","highway":"residential","osm_id":56735906},"geometry":{"type":"LineString","coordinates":[[32.8854697,39.9300527],[32.8849422,39.9293982],[32.8844648,39.9288118],[32.8841407,39.9282917],[32.8839854,39.9279833],[32.8839419,39.9278964],[32.8838502,39.9275303],[32.8837959,39.9271928],[32.8837989,39.9270277],[32.8838627,39.9267804],[32.8839671,39.9266236],[32.8841463,39.926474],[32.8843016,39.9263518],[32.8846953,39.9263265],[32.8850593,39.9263926],[32.8857383,39.9265777],[32.8861554,39.9266298]]}},{"type":"Feature","properties":{"name":"Şehit Osman Sk.","highway":"residential","osm_id":56736369},"geometry":{"type":"LineString","coordinates":[[32.8901931,39.9250823],[32.8893212,39.9245577],[32.8890601,39.9244181],[32.8888421,39.9243441],[32.888652,39.9243057],[32.8880013,39.9244763],[32.887445,39.924752],[32.8873978,39.9247719],[32.8873412,39.9248302],[32.886714,39.9254762],[32.8861875,39.9260968],[32.8861431,39.9263969],[32.8861554,39.9266298],[32.8864686,39.9272068],[32.886781,39.928001],[32.8868933,39.9284547],[32.886838,39.929376]]}},{"type":"Feature","properties":{"name":"Balaban Sk.","highway":"residential","osm_id":56736594},"geometry":{"type":"LineString","coordinates":[[32.8850593,39.9263926],[32.884878,39.9271921],[32.8848586,39.9274707],[32.8848807,39.9277604],[32.8849617,39.9279583],[32.8851583,39.9283171],[32.8856873,39.9290126]]}},{"type":"Feature","properties":{"name":"Güzeliş Sk.","highway":"residential","osm_id":56736883},"geometry":{"type":"LineString","coordinates":[[32.884878,39.9271921],[32.8856316,39.9272519],[32.885977,39.9272718],[32.8864686,39.9272068],[32.8871428,39.9269261],[32.8871983,39.9269023],[32.8880401,39.9266016]]}},{"type":"Feature","properties":{"name":"Gürlük Sk.","highway":"residential","osm_id":56737409},"geometry":{"type":"LineString","coordinates":[[32.887631,39.9282834],[32.8871983,39.9269023]]}},{"type":"Feature","properties":{"highway":"residential","osm_id":67510112},"geometry":{"type":"LineString","coordinates":[[32.8857102,39.9214329],[32.8858458,39.9214519],[32.8861662,39.9214614],[32.8866923,39.9213332],[32.8868416,39.921267],[32.8869966,39.9212354],[32.8873213,39.9211952]]}},{"type":"Feature","properties":{"highway":"residential","osm_id":67510114},"geometry":{"type":"LineString","coordinates":[[32.8903035,39.9201643],[32.8897501,39.9195888],[32.8895974,39.9194248],[32.8894282,39.9192432],[32.8892351,39.9189552],[32.8889669,39.9186425]]}},{"type":"Feature","properties":{"highway":"residential","osm_id":67510115},"geometry":{"type":"LineString","coordinates":[[32.8894282,39.9192432],[32.8897179,39.9190375],[32.8899861,39.9190951],[32.8905225,39.919309],[32.8909301,39.919462],[32.8912919,39.919564]]}},{"type":"Feature","properties":{"highway":"residential","osm_id":67512471},"geometry":{"type":"LineString","coordinates":[[32.8898924,39.9216239],[32.8905333,39.9214319],[32.8907881,39.921328],[32.8910829,39.9212147]]}},{"type":"Feature","properties":{"highway":"residential","name":"332. Sokak","osm_id":67512482},"geometry":{"type":"LineString","coordinates":[[32.8848546,39.9248291],[32.8852118,39.9245915],[32.8855765,39.9244105],[32.8859735,39.9241884],[32.8862095,39.9240567],[32.8863318,39.9239252]]}},{"type":"Feature","properties":{"highway":"residential","osm_id":67512491},"geometry":{"type":"LineString","coordinates":[[32.8923959,39.9186064],[32.8922821,39.9190869],[32.8922177,39.9195559]]}},{"type":"Feature","properties":{"highway":"residential","osm_id":67512494},"geometry":{"type":"LineString","coordinates":[[32.8916621,39.9185024],[32.8915847,39.9186178],[32.8913997,39.9189258],[32.8913423,39.9192757],[32.8912919,39.919564],[32.8913487,39.9197122]]}},{"type":"Feature","properties":{"name":"Kırkağaç Sokak","highway":"residential","osm_id":67512498},"geometry":{"type":"LineString","coordinates":[[32.8830909,39.9246836],[32.8831947,39.9247067],[32.8833477,39.924769],[32.8835864,39.9247735],[32.8843749,39.9247725],[32.8848546,39.9248291],[32.8849328,39.9248383],[32.8857943,39.9251477],[32.8864236,39.9253664],[32.886714,39.9254762]]}},{"type":"Feature","properties":{"name":"333. Sokak","highway":"residential","osm_id":67512500},"geometry":{"type":"LineString","coordinates":[[32.8881005,39.9253001],[32.8878135,39.9250481],[32.8873978,39.9247719]]}},{"type":"Feature","properties":{"highway":"residential","osm_id":67512515},"geometry":{"type":"LineString","coordinates":[[32.8908671,39.9208514],[32.8911019,39.9207408],[32.89181,39.9205186],[32.892443,39.9203787],[32.8930545,39.9204034],[32.8936554,39.9204034],[32.8941482,39.9204051],[32.8945608,39.9204212],[32.8949185,39.9206196],[32.8951516,39.9206722],[32.8955973,39.9206338],[32.895769,39.9205865]]}},{"type":"Feature","properties":{"highway":"residential","osm_id":67512519},"geometry":{"type":"LineString","coordinates":[[32.8976797,39.920384],[32.8972906,39.9201111],[32.8968138,39.9195548]]}},{"type":"Feature","properties":{"highway":"residential","osm_id":67512520},"geometry":{"type":"LineString","coordinates":[[32.8951151,39.9188517],[32.895093,39.9192597],[32.8950678,39.9194643],[32.8949997,39.919651],[32.8949509,39.919784],[32.8945608,39.9204212]]}},{"type":"Feature","properties":{"highway":"residential","osm_id":67512524},"geometry":{"type":"LineString","coordinates":[[32.8854931,39.9234781],[32.8863318,39.9239252],[32.886547,39.9240062],[32.8868866,39.9240328],[32.8871215,39.9240073],[32.8874636,39.9239028],[32.8877974,39.9237769],[32.8880978,39.9236453],[32.8884948,39.9234807],[32.8888274,39.9233162],[32.8891707,39.9231516],[32.8895569,39.9229953],[32.889652,39.9229467],[32.8897426,39.9229003],[32.8899432,39.9227978],[32.8903138,39.9226387],[32.8913355,39.9222918],[32.8919938,39.9220524]]}},{"type":"Feature","properties":{"highway":"residential","osm_id":67512528},"geometry":{"type":"LineString","coordinates":[[32.8903424,39.9126775],[32.8910118,39.9135666],[32.8913735,39.9140906],[32.8916511,39.9145238],[32.8919442,39.9148765],[32.8922473,39.9153812],[32.8926461,39.9161751],[32.8926979,39.9162782],[32.8928548,39.9168542],[32.8931485,39.9179321],[32.8932035,39.9187145],[32.8932047,39.9191774],[32.8932045,39.9195575]]}},{"type":"Feature","properties":{"highway":"residential","osm_id":67512532},"geometry":{"type":"LineString","coordinates":[[32.8952647,39.922263],[32.8953301,39.92212],[32.8952969,39.9218022],[32.8950999,39.9213906],[32.8949894,39.9211276],[32.8948798,39.9207941],[32.8949185,39.9206196]]}},{"type":"Feature","properties":{"highway":"residential","osm_id":67512536},"geometry":{"type":"LineString","coordinates":[[32.8914415,39.9215858],[32.892046,39.9213908],[32.8924311,39.9212887],[32.893484,39.9212752],[32.8939783,39.9212629],[32.8946914,39.9213612],[32.8950999,39.9213906],[32.8956486,39.9213425],[32.8960413,39.9212616]]}},{"type":"Feature","properties":{"highway":"residential","osm_id":67512541},"geometry":{"type":"LineString","coordinates":[[32.8940309,39.9195764],[32.8940359,39.9200731],[32.8940625,39.9203193],[32.8941482,39.9204051],[32.8941784,39.9204713],[32.8941408,39.9208848],[32.8939783,39.9212629],[32.8939115,39.9214659],[32.8938566,39.9217056],[32.8937274,39.9218935],[32.8934944,39.9220573],[32.8932227,39.9222128],[32.8927327,39.9224934],[32.8925444,39.9226181],[32.8916813,39.9228636],[32.8910912,39.9231269],[32.8905011,39.9233738],[32.8900183,39.9235877],[32.8897071,39.9237523]]}},{"type":"Feature","properties":{"highway":"residential","osm_id":67512547},"geometry":{"type":"LineString","coordinates":[[32.8924311,39.9212887],[32.8928458,39.9218342],[32.8932227,39.9222128],[32.8941112,39.9231481]]}},{"type":"Feature","properties":{"highway":"residential","osm_id":67512552},"geometry":{"type":"LineString","coordinates":[[32.8903035,39.9201643],[32.8904999,39.9203903],[32.890766,39.9206965],[32.8908671,39.9208514],[32.8910829,39.9212147],[32.8912261,39.9214032],[32.8914415,39.9215858],[32.891609,39.9217272],[32.8919938,39.9220524],[32.8925444,39.9226181],[32.8930029,39.9232793],[32.8934949,39.9233863],[32.8936782,39.9233591],[32.8939236,39.923275],[32.8941112,39.9231481],[32.8942454,39.9230529],[32.8947282,39.9226415],[32.8948287,39.9225706],[32.8952647,39.922263]]}},{"type":"Feature","properties":{"highway":"residential","osm_id":67512555},"geometry":{"type":"LineString","coordinates":[[32.8954182,39.9232656],[32.8948141,39.9232092],[32.8941112,39.9231481]]}},{"type":"Feature","properties":{"highway":"residential","osm_id":67512558},"geometry":{"type":"LineString","coordinates":[[32.8891707,39.9231516],[32.8893209,39.9233902],[32.8894418,39.9235484],[32.8895033,39.9236288],[32.8897071,39.9237523],[32.890029,39.923925],[32.8902436,39.9240402],[32.8904474,39.9240731],[32.8906513,39.9240155],[32.8912414,39.923851],[32.8914588,39.9237688],[32.8919817,39.9235712],[32.8924859,39.923489],[32.8928614,39.9233409],[32.8930029,39.9232793]]}},{"type":"Feature","properties":{"highway":"residential","osm_id":67512565},"geometry":{"type":"LineString","coordinates":[[32.8993738,39.9220408],[32.899406,39.9218433],[32.8993416,39.9215965],[32.8989339,39.9213414],[32.8984833,39.9211522],[32.898353,39.9211522],[32.8983488,39.9211647],[32.8982688,39.9213085],[32.8981656,39.9215728],[32.8981383,39.9216965],[32.8982468,39.9220043]]}},{"type":"Feature","properties":{"highway":"residential","osm_id":67512570},"geometry":{"type":"LineString","coordinates":[[32.8977744,39.9221703],[32.8968742,39.9216549]]}},{"type":"Feature","properties":{"highway":"residential","osm_id":67512575},"geometry":{"type":"LineString","coordinates":[[32.9049381,39.9217996],[32.9044537,39.9216203],[32.9042742,39.9217203],[32.9040581,39.9219419],[32.9039858,39.9220302],[32.9037898,39.9222698],[32.9035668,39.9225014],[32.9034393,39.9226338],[32.9032779,39.9228504],[32.9029646,39.9230621],[32.9026169,39.9232008],[32.9019702,39.9234478],[32.9010319,39.9234643],[32.900745,39.9234437],[32.8997064,39.923382],[32.8994401,39.9233583],[32.8989661,39.9233162],[32.8984876,39.9233886],[32.8983402,39.9234413],[32.8978611,39.9236124],[32.897803,39.9236356],[32.8970066,39.9239531],[32.8965501,39.9240186],[32.8963095,39.9240201],[32.8961655,39.9240222],[32.8954145,39.924031]]}},{"type":"Feature","properties":{"highway":"residential","osm_id":67512578},"geometry":{"type":"LineString","coordinates":[[32.8986164,39.9243144],[32.898479,39.9239397],[32.8984469,39.9237621],[32.8984876,39.9233886],[32.8985542,39.9231077],[32.8987314,39.9220252]]}},{"type":"Feature","properties":{"highway":"residential","osm_id":67512581},"geometry":{"type":"LineString","coordinates":[[32.8974426,39.9226332],[32.8980435,39.9228225],[32.8985542,39.9231077]]}},{"type":"Feature","properties":{"highway":"residential","osm_id":67512583},"geometry":{"type":"LineString","coordinates":[[32.8963095,39.9240201],[32.8964076,39.9232453],[32.8964095,39.9230233],[32.8964257,39.9228286],[32.896331,39.9222009],[32.8961883,39.9216781],[32.8960413,39.9212616],[32.8959746,39.9211058],[32.895769,39.9205865],[32.8955761,39.9202505],[32.8954941,39.9201395],[32.8949509,39.919784]]}},{"type":"Feature","properties":{"highway":"residential","osm_id":67512586},"geometry":{"type":"LineString","coordinates":[[32.8952647,39.922263],[32.895701,39.9225316],[32.8964257,39.9228286],[32.8967667,39.9228389],[32.8970886,39.9227978],[32.8974426,39.9226332],[32.8975928,39.9224522],[32.8977744,39.9221703],[32.8982468,39.9220043],[32.8987314,39.9220252],[32.8993738,39.9220408],[32.8995125,39.9221058],[32.8995669,39.9221313],[32.8996521,39.9222252],[32.8999103,39.9225098],[32.900129,39.9227978],[32.900338,39.9230731],[32.9004038,39.9231598],[32.900745,39.9234437]]}},{"type":"Feature","properties":{"highway":"residential","osm_id":67512594},"geometry":{"type":"LineString","coordinates":[[32.8980327,39.9200825],[32.8977323,39.9197369],[32.8976691,39.9196144],[32.8975285,39.9193419],[32.8974841,39.9190358],[32.8974748,39.9189717],[32.8973568,39.9184039]]}},{"type":"Feature","properties":{"highway":"residential","osm_id":67512599},"geometry":{"type":"LineString","coordinates":[[32.8956958,39.9254582],[32.8954521,39.9250499],[32.8954454,39.9250256],[32.8951779,39.9247339],[32.8950182,39.9245833]]}},{"type":"Feature","properties":{"highway":"residential","osm_id":67512602},"geometry":{"type":"LineString","coordinates":[[32.9009881,39.9250195],[32.9009659,39.9247258],[32.9009849,39.9242799],[32.9010319,39.9234643],[32.9011334,39.923201],[32.9012753,39.9229519],[32.9015867,39.9227134],[32.902056,39.9223206],[32.902363,39.9222812]]}},{"type":"Feature","properties":{"highway":"residential","osm_id":67514717},"geometry":{"type":"LineString","coordinates":[[32.8803685,39.9273987],[32.8802026,39.92727],[32.8801796,39.9272252],[32.8801854,39.9271645],[32.8802306,39.9270838],[32.8803555,39.926919],[32.8805595,39.9266466],[32.8805685,39.9264151],[32.8806113,39.9263399],[32.880896,39.9261589],[32.8811563,39.925982],[32.881285,39.9258503],[32.8812508,39.9256225],[32.881354,39.9252426],[32.8815462,39.9249821],[32.8818979,39.9246022],[32.8820984,39.9244116]]}},{"type":"Feature","properties":{"highway":"residential","osm_id":67514727},"geometry":{"type":"LineString","coordinates":[[32.8829251,39.9270657],[32.8825797,39.9270409],[32.8823544,39.9270027],[32.8821412,39.9268412],[32.8815852,39.9261628],[32.8814352,39.9259902],[32.881285,39.9258503],[32.8807593,39.9256447],[32.8801401,39.9254373],[32.879856,39.9253809],[32.8796752,39.9254028],[32.8795148,39.925513],[32.8792787,39.9257763],[32.8791285,39.9259162],[32.8790212,39.9260149],[32.8788688,39.9260505],[32.8787745,39.9260725],[32.8785573,39.9261022],[32.8782798,39.9262486],[32.8780495,39.9263562],[32.8779486,39.926398]]}},{"type":"Feature","properties":{"highway":"residential","osm_id":67514734},"geometry":{"type":"LineString","coordinates":[[32.8802419,39.9315869],[32.8811803,39.931966],[32.8815067,39.9321133],[32.8817249,39.9317987],[32.8819287,39.9315272],[32.8821921,39.9310768],[32.8825327,39.9305158],[32.8826794,39.9302612],[32.8827482,39.9301312],[32.8833448,39.9296828],[32.8837571,39.929403],[32.8838166,39.9293504]]}},{"type":"Feature","properties":{"highway":"residential","osm_id":67514737},"geometry":{"type":"LineString","coordinates":[[32.8827482,39.9301312],[32.8826614,39.9301057],[32.8824866,39.9296761],[32.8823163,39.9294026],[32.8821661,39.9291146],[32.882197,39.9287197],[32.8821726,39.9282771],[32.8820977,39.9281088],[32.8817343,39.927681],[32.8814321,39.927338],[32.8813618,39.9272508],[32.8808968,39.9266744]]}},{"type":"Feature","properties":{"highway":"residential","osm_id":67514739},"geometry":{"type":"LineString","coordinates":[[32.8850487,39.9308922],[32.8847504,39.9309842],[32.8845163,39.9310565],[32.8836132,39.9314205],[32.8831539,39.9316443],[32.8829517,39.9317911],[32.8827693,39.9319369],[32.882592,39.9320102],[32.8824228,39.9320286],[32.8822132,39.9320294],[32.8821611,39.9320475],[32.8818822,39.9321133],[32.8820435,39.9328791]]}},{"type":"Feature","properties":{"name":"Münzeviler Cd.","oneway":"no","highway":"secondary","osm_id":67605321},"geometry":{"type":"LineString","coordinates":[[32.8825748,39.925176],[32.8826133,39.9255811],[32.8827202,39.9258585]]}},{"type":"Feature","properties":{"highway":"tertiary","name":"398. Cadde","osm_id":67826561},"geometry":{"type":"LineString","coordinates":[[32.8900466,39.9182863],[32.8900264,39.9178252],[32.8896968,39.9165774],[32.8892797,39.9153118],[32.8890739,39.9145224],[32.8888479,39.9136247]]}},{"type":"Feature","properties":{"highway":"residential","osm_id":67826568},"geometry":{"type":"LineString","coordinates":[[32.8913997,39.9189258],[32.8907922,39.9187876],[32.8900171,39.9185759],[32.8896723,39.9184423],[32.8894611,39.9184127]]}},{"type":"Feature","properties":{"highway":"residential","osm_id":67826569},"geometry":{"type":"LineString","coordinates":[[32.8920586,39.9185596],[32.8920005,39.9178745],[32.8918717,39.91692],[32.8917928,39.9163215],[32.8917926,39.9163202],[32.8913916,39.9163281],[32.8912913,39.9157053],[32.8909598,39.915085],[32.8892797,39.9153118]]}},{"type":"Feature","properties":{"highway":"residential","osm_id":67826570},"geometry":{"type":"LineString","coordinates":[[32.8911228,39.9184169],[32.89111,39.9180062],[32.8908182,39.9164364],[32.8913916,39.9163281]]}},{"type":"Feature","properties":{"highway":"residential","osm_id":67826576},"geometry":{"type":"LineString","coordinates":[[32.897597,39.9183352],[32.8973327,39.9177511],[32.8971825,39.9173973],[32.8970767,39.9171922],[32.8967611,39.9160066],[32.8963981,39.9156941],[32.8960775,39.9154553],[32.8955408,39.9150951],[32.8953908,39.9149945],[32.8949724,39.9144925],[32.8946379,39.9141613],[32.8943823,39.9139082],[32.8941088,39.9137456],[32.8939531,39.9136531],[32.8937125,39.9134402],[32.8935604,39.9131805],[32.8934382,39.9128907],[32.8933466,39.9128357],[32.8931636,39.912782],[32.893024,39.9127837],[32.8928378,39.9128456],[32.8927542,39.9129678],[32.892671,39.9130894],[32.8920789,39.9136152]]}},{"type":"Feature","properties":{"highway":"residential","osm_id":67826578},"geometry":{"type":"LineString","coordinates":[[32.8954941,39.9201395],[32.8957449,39.9198412],[32.8959272,39.9194709],[32.8959272,39.9190265],[32.8957797,39.9187824],[32.8957341,39.9183271],[32.8956584,39.9179862],[32.8955183,39.9172681],[32.8952725,39.9155999],[32.894503,39.9157204],[32.8934433,39.9158804]]}},{"type":"Feature","properties":{"highway":"tertiary","osm_id":67826579},"geometry":{"type":"LineString","coordinates":[[32.8943849,39.9188565],[32.8942609,39.9183107],[32.8941141,39.9175207],[32.8937927,39.9166402],[32.8934433,39.9158804],[32.8930051,39.915024],[32.8927335,39.9145526],[32.8920789,39.9136152],[32.8915426,39.9131431],[32.8908149,39.9123115],[32.8900957,39.912031],[32.8896739,39.9117823],[32.8893924,39.9116164]]}},{"type":"Feature","properties":{"highway":"residential","name":"454. Sokak","osm_id":67826588},"geometry":{"type":"LineString","coordinates":[[32.8986306,39.9183001],[32.8986309,39.9179486],[32.8985344,39.9175701],[32.8983305,39.9168377],[32.8981756,39.916623],[32.8978742,39.9163096],[32.8971448,39.9154172],[32.8970581,39.9153435],[32.8962624,39.9146679],[32.8957496,39.9142326],[32.895109,39.9136942],[32.8949131,39.9136725],[32.894483,39.9136248],[32.8941088,39.9137456]]}},{"type":"Feature","properties":{"highway":"tertiary","name":"Okullar Caddesi","osm_id":103894871},"geometry":{"type":"LineString","coordinates":[[32.8954195,39.9340459],[32.8956467,39.9339703],[32.8959073,39.9338562],[32.8960866,39.9337415],[32.8963835,39.9335413],[32.896554,39.9334299],[32.8966732,39.9333357],[32.89692,39.9330971],[32.8972398,39.9327569],[32.8975637,39.9323484],[32.8980022,39.9317313],[32.8983469,39.9313283],[32.8986151,39.9309334],[32.8988726,39.9305467],[32.8990443,39.9303081],[32.8990902,39.9302475],[32.8993125,39.9299544],[32.8995965,39.9296268],[32.8999562,39.9292057],[32.9002566,39.9288766],[32.9006751,39.9284899],[32.9009862,39.9282266],[32.9012437,39.9280703],[32.9015656,39.927914],[32.901709,39.9278733],[32.9018552,39.9278317],[32.9025848,39.9277083],[32.9027217,39.9276829],[32.9032541,39.9275839],[32.9032929,39.9275767],[32.9037759,39.9275015],[32.9046662,39.9273628]]}},{"type":"Feature","properties":{"name":"140 nci Sokak","highway":"residential","osm_id":104035881},"geometry":{"type":"LineString","coordinates":[[32.8972398,39.9327569],[32.8974651,39.9327569],[32.8978191,39.9327075],[32.8980659,39.93265],[32.8982697,39.9325677],[32.8984307,39.9324114],[32.8985594,39.9322468],[32.8986989,39.9320494],[32.8989134,39.9318026],[32.8990207,39.9315229],[32.8992031,39.9313172],[32.8994928,39.9310457],[32.8995637,39.9309797],[32.8996877,39.9308699],[32.9000609,39.9307073],[32.9006058,39.9305791]]}},{"type":"Feature","properties":{"name":"139 ncu Sokak","highway":"residential","osm_id":104036627},"geometry":{"type":"LineString","coordinates":[[32.8966323,39.9326829],[32.8967784,39.9324114],[32.8968964,39.932107],[32.8970305,39.9316623],[32.8971217,39.9313995],[32.89715,39.9311336],[32.8972541,39.9304558],[32.8972933,39.9302606],[32.8973473,39.9299623],[32.8974387,39.9295551],[32.8974969,39.9292636],[32.8976367,39.9289313],[32.8976674,39.9287949],[32.8976904,39.9286927],[32.897744,39.9283883],[32.8977498,39.928303],[32.8977762,39.9279111],[32.8977655,39.9275162],[32.8977547,39.9269979],[32.8977547,39.9268169]]}},{"type":"Feature","properties":{"name":"153 ncu sokak","highway":"residential","osm_id":104036954},"geometry":{"type":"LineString","coordinates":[[32.8962308,39.9315049],[32.8966014,39.9315887],[32.8970305,39.9316623]]}},{"type":"Feature","properties":{"name":"152 nci Sokak","highway":"residential","osm_id":104037128},"geometry":{"type":"LineString","coordinates":[[32.8964353,39.930191],[32.8967047,39.9302337],[32.8970901,39.9302713],[32.8972933,39.9302606],[32.8977128,39.9303124]]}},{"type":"Feature","properties":{"name":"150 nci Sokak","highway":"residential","osm_id":104037155},"geometry":{"type":"LineString","coordinates":[[32.8980022,39.9317313],[32.8980083,39.9314591],[32.8980444,39.9311938],[32.8980981,39.9307495],[32.8981007,39.9303244],[32.8982375,39.929935],[32.8983985,39.9296471],[32.898542,39.9294373],[32.8986859,39.929236],[32.8990596,39.9288336],[32.8991307,39.9287606],[32.8999407,39.9279562],[32.9001666,39.9277199],[32.9004226,39.9274524],[32.9004853,39.9273869],[32.900939,39.9267711],[32.9009841,39.9267099]]}},{"type":"Feature","properties":{"name":"Sht Bulent Bahadir Sokak","highway":"residential","osm_id":104037265},"geometry":{"type":"LineString","coordinates":[[32.8999562,39.9292057],[32.8996742,39.9290451],[32.8991307,39.9287606],[32.8989778,39.9286845],[32.8986927,39.9285717],[32.8986388,39.9282601],[32.8985707,39.9277745],[32.8985311,39.927601],[32.8984815,39.9271994],[32.8984568,39.926879],[32.8984415,39.9267481]]}},{"type":"Feature","properties":{"name":"154 ncu Sokak","highway":"residential","osm_id":104037891},"geometry":{"type":"LineString","coordinates":[[32.896561,39.9270273],[32.8969608,39.9269485],[32.8974007,39.926858],[32.8977547,39.9268169],[32.8981902,39.9267602],[32.8984415,39.9267481],[32.899211,39.9267516],[32.8993161,39.926754],[32.8998392,39.9267328],[32.9004048,39.9267099],[32.9009841,39.9267099],[32.9016278,39.9266852],[32.9019399,39.9266681],[32.9028295,39.9266194],[32.9030814,39.9266028],[32.903205,39.9265947],[32.9034732,39.9266029],[32.9040311,39.9266029],[32.9044173,39.92657]]}},{"type":"Feature","properties":{"name":"Kaşif Hoca Sk.","highway":"residential","osm_id":208697800},"geometry":{"type":"LineString","coordinates":[[32.8890583,39.9300102],[32.88886,39.9297746],[32.8887877,39.9296297],[32.8887496,39.9295572]]}},{"type":"Feature","properties":{"name":"Okul Sk.","highway":"residential","osm_id":208697802},"geometry":{"type":"LineString","coordinates":[[32.8887496,39.9295572],[32.8886707,39.9294596],[32.8884669,39.9288798],[32.8883173,39.92823],[32.8880401,39.9266016],[32.8879535,39.9259108],[32.8879999,39.9254005]]}},{"type":"Feature","properties":{"highway":"residential","osm_id":208697804},"geometry":{"type":"LineString","coordinates":[[32.8851341,39.9228702],[32.8848792,39.9231391],[32.8844764,39.9234249],[32.8842599,39.9235356],[32.8841036,39.9235356],[32.8839293,39.9235356],[32.8837008,39.9235632],[32.8836047,39.9236094],[32.8834544,39.9236877],[32.8833309,39.9236887]]}},{"type":"Feature","properties":{"highway":"residential","osm_id":208697807},"geometry":{"type":"LineString","coordinates":[[32.8820094,39.9243459],[32.8821094,39.9242265],[32.8822477,39.9241205],[32.8823739,39.9240559],[32.8824972,39.9240075],[32.8825753,39.9239591],[32.8826294,39.923913],[32.8826835,39.9238508],[32.8827617,39.9237424],[32.8828218,39.9236294],[32.8828909,39.9235073]]}},{"type":"Feature","properties":{"highway":"residential","osm_id":208697808},"geometry":{"type":"LineString","coordinates":[[32.8837473,39.9227167],[32.8837219,39.9224982],[32.8836618,39.922187],[32.8836377,39.9220718],[32.8835566,39.9219288],[32.8834874,39.9218643],[32.8833852,39.9217928],[32.8831989,39.921719],[32.8830456,39.9216568],[32.8828682,39.9216407],[32.8827299,39.9216683],[32.8825406,39.9217306],[32.8823482,39.9218159]]}},{"type":"Feature","properties":{"name":"Şehit İsmail Kılıç Sk","highway":"residential","osm_id":208697810},"geometry":{"type":"LineString","coordinates":[[32.8833448,39.9296828],[32.883208,39.9294764],[32.883066,39.9292236],[32.8829625,39.9290916],[32.8828602,39.929056],[32.8825805,39.9290734],[32.8822485,39.9291064],[32.8821661,39.9291146],[32.8820602,39.9291311],[32.8814781,39.9287464],[32.8810919,39.9284256],[32.8806295,39.928018],[32.8801529,39.9283318],[32.8800513,39.9283997],[32.8807483,39.9290867],[32.8816399,39.9297088],[32.8823005,39.9300725],[32.8826614,39.9301057]]}},{"type":"Feature","properties":{"name":"Kısıklı Sokak","highway":"residential","osm_id":208697812},"geometry":{"type":"LineString","coordinates":[[32.8843016,39.9263518],[32.8837314,39.9256882],[32.8833477,39.924769]]}},{"type":"Feature","properties":{"highway":"residential","osm_id":208697813},"geometry":{"type":"LineString","coordinates":[[32.8876184,39.9205472],[32.8875025,39.9205635],[32.886669,39.9206223],[32.8865183,39.9206208],[32.8862684,39.9206657]]}},{"type":"Feature","properties":{"highway":"residential","osm_id":208697814},"geometry":{"type":"LineString","coordinates":[[32.8869267,39.9301214],[32.886838,39.929376]]}},{"type":"Feature","properties":{"highway":"residential","osm_id":208697816},"geometry":{"type":"LineString","coordinates":[[32.8950182,39.9245833],[32.8953596,39.9241075],[32.8954145,39.924031]]}},{"type":"Feature","properties":{"highway":"residential","osm_id":208697818},"geometry":{"type":"LineString","coordinates":[[32.8828909,39.9235073],[32.8829751,39.923286],[32.8830502,39.9231016],[32.8831224,39.9229725],[32.8831494,39.9228826],[32.8831825,39.9227373],[32.8832035,39.922599],[32.8831855,39.922463],[32.8831585,39.9223639],[32.8831284,39.9222832],[32.8830923,39.9222232],[32.8830232,39.9221771],[32.882933,39.9221518],[32.8828669,39.9221725],[32.8827527,39.9222717],[32.8827016,39.9223593],[32.8826565,39.9225322],[32.8826024,39.9227535],[32.8825362,39.9229033],[32.882464,39.9230227],[32.882422,39.9230923],[32.8823469,39.9232099],[32.8822928,39.9232514],[32.8822146,39.9232791],[32.8821566,39.9232803],[32.8821099,39.9232673],[32.8820355,39.9232388],[32.8819068,39.9231504],[32.881745,39.9230317],[32.8815513,39.9228845],[32.8815141,39.922834]]}},{"type":"Feature","properties":{"highway":"residential","osm_id":208697819},"geometry":{"type":"LineString","coordinates":[[32.8796462,39.9191396],[32.8796954,39.9195211],[32.8797916,39.9197424],[32.8798727,39.9198551],[32.880014,39.9200513],[32.8802158,39.9202586],[32.8803327,39.9203787],[32.8805731,39.920683],[32.8806874,39.9207937],[32.8808978,39.9208674],[32.8812885,39.9208997],[32.8817214,39.9209135],[32.8821542,39.9208997],[32.8823,39.9209064],[32.8824548,39.9209135],[32.8826232,39.9209504],[32.8829598,39.9210196],[32.8834287,39.9211487],[32.8837474,39.9212824],[32.8839161,39.9213765]]}},{"type":"Feature","properties":{"highway":"residential","name":"378. Sokak","osm_id":208697821},"geometry":{"type":"LineString","coordinates":[[32.8896057,39.9211015],[32.8887828,39.9214366]]}},{"type":"Feature","properties":{"name":"Kayalar Sokak","highway":"residential","osm_id":208697825},"geometry":{"type":"LineString","coordinates":[[32.886781,39.928001],[32.8849617,39.9279583],[32.8839854,39.9279833],[32.8830328,39.9281098]]}},{"type":"Feature","properties":{"highway":"residential","name":"376. Sokak","osm_id":208697826},"geometry":{"type":"LineString","coordinates":[[32.8892935,39.9222706],[32.8887199,39.9225209],[32.8881986,39.9227559],[32.8866529,39.9233588]]}},{"type":"Feature","properties":{"highway":"residential","name":"373. Sokak","osm_id":208697829},"geometry":{"type":"LineString","coordinates":[[32.8881986,39.9227559],[32.8877139,39.9222437],[32.8871377,39.9215652],[32.8870475,39.9216022],[32.8865588,39.921795],[32.886525,39.9218669],[32.8865566,39.9226526],[32.8866529,39.9233588],[32.8866184,39.9234966],[32.8865585,39.9236388],[32.8863318,39.9239252]]}},{"type":"Feature","properties":{"highway":"residential","osm_id":208697832},"geometry":{"type":"LineString","coordinates":[[32.8844808,39.9219279],[32.884293,39.9220602],[32.8840135,39.9223184],[32.8838571,39.9225305],[32.8837814,39.9226356],[32.8837473,39.9227167],[32.8836894,39.9228543],[32.8836361,39.9229811],[32.8834689,39.9232764],[32.8833475,39.9236392],[32.8833309,39.9236887],[32.8831565,39.9242292],[32.8830766,39.924519],[32.8830909,39.9246836]]}},{"type":"Feature","properties":{"highway":"residential","name":"377. Sokak","osm_id":208697834},"geometry":{"type":"LineString","coordinates":[[32.889652,39.9229467],[32.8892935,39.9222706],[32.8887828,39.9214366],[32.8886753,39.9212611],[32.8883158,39.9205525],[32.8882154,39.9198871],[32.8882491,39.919804],[32.8885892,39.919653]]}},{"type":"Feature","properties":{"highway":"residential","osm_id":208697838},"geometry":{"type":"LineString","coordinates":[[32.8842599,39.9235356],[32.8842389,39.9232567],[32.8842419,39.9231183],[32.8842269,39.9230492],[32.8841818,39.9229915],[32.8840616,39.9229431],[32.8836894,39.9228543]]}},{"type":"Feature","properties":{"highway":"residential","osm_id":208697839},"geometry":{"type":"LineString","coordinates":[[32.8826024,39.9227535],[32.8823649,39.9226968],[32.8821949,39.9226674],[32.8820759,39.9226674],[32.8819866,39.9226837],[32.8818421,39.9227228],[32.8817188,39.9227652],[32.8816916,39.9227754],[32.8815141,39.922834]]}},{"type":"Feature","properties":{"highway":"secondary","osm_id":208697842},"geometry":{"type":"LineString","coordinates":[[32.8839161,39.9213765],[32.8830408,39.9213764],[32.8820227,39.9215362],[32.8809913,39.9217901],[32.8806786,39.921858],[32.8805212,39.9218922],[32.8803749,39.9218887],[32.8802245,39.9218528]]}},{"type":"Feature","properties":{"highway":"residential","osm_id":214020770},"geometry":{"type":"LineString","coordinates":[[32.9023156,39.9312173],[32.9020352,39.9310703],[32.9015686,39.9308411],[32.9013167,39.9306177],[32.9012309,39.9304287],[32.9010685,39.9300706],[32.9009642,39.9297477],[32.9008155,39.9295254]]}},{"type":"Feature","properties":{"highway":"residential","osm_id":214020785},"geometry":{"type":"LineString","coordinates":[[32.8869353,39.9201677],[32.8869242,39.9195549],[32.8870889,39.9189532],[32.8870762,39.9188256],[32.8870323,39.9180034],[32.886949,39.9173563],[32.8867993,39.9164864],[32.8864649,39.9153224],[32.8862965,39.9151455],[32.8861186,39.9150789],[32.8856851,39.9148898],[32.8855526,39.9148358],[32.8854624,39.9147884]]}},{"type":"Feature","properties":{"highway":"residential","osm_id":214020787},"geometry":{"type":"LineString","coordinates":[[32.8850079,39.9203204],[32.8845787,39.9203494],[32.8838109,39.9203123],[32.8833985,39.9202417],[32.8833678,39.9200633],[32.8834116,39.9197773],[32.8835696,39.919562],[32.8837714,39.919387],[32.884039,39.9192019]]}},{"type":"Feature","properties":{"highway":"residential","osm_id":214020800},"geometry":{"type":"LineString","coordinates":[[32.8995637,39.9309797],[32.8996677,39.9312009],[32.8997642,39.9316181],[32.8998519,39.9319512],[32.9000538,39.9326476]]}},{"type":"Feature","properties":{"highway":"residential","osm_id":214020802},"geometry":{"type":"LineString","coordinates":[[32.887965,39.9193827],[32.8878771,39.9189101],[32.8878514,39.917945],[32.8877027,39.916893],[32.8876372,39.9164406],[32.8872954,39.9151183],[32.8872539,39.9149677],[32.8871723,39.9146719],[32.8870791,39.9143341],[32.8869347,39.9139714],[32.8871361,39.9133106],[32.886799,39.912735],[32.886378,39.9120163],[32.8868262,39.9119702],[32.8870729,39.9119449],[32.887418,39.9119127]]}},{"type":"Feature","properties":{"highway":"residential","osm_id":214020804},"geometry":{"type":"LineString","coordinates":[[32.9004853,39.9273869],[32.9011856,39.9269925],[32.9012671,39.9269466],[32.9017821,39.9269608],[32.901973,39.9270086],[32.9023901,39.9271131],[32.9026829,39.9271089],[32.902719,39.9271084],[32.903234,39.9270179],[32.9039414,39.9269133],[32.9039786,39.9270941],[32.9038855,39.9272606],[32.9037759,39.9275015]]}},{"type":"Feature","properties":{"highway":"residential","osm_id":214020809},"geometry":{"type":"LineString","coordinates":[[32.8822399,39.9195544],[32.8821126,39.9197967],[32.8819722,39.9198471],[32.8818099,39.9198471],[32.8814545,39.9198539],[32.8813931,39.9199986],[32.8814545,39.9203788],[32.8817178,39.9203721],[32.8817748,39.9205706],[32.8818933,39.920648],[32.8821433,39.9207086],[32.8821916,39.9207287],[32.8823,39.9209064]]}},{"type":"Feature","properties":{"highway":"residential","osm_id":214020821},"geometry":{"type":"LineString","coordinates":[[32.896311,39.926528],[32.8973409,39.9262087],[32.8980214,39.9260737],[32.8984471,39.9260045],[32.8990039,39.9259876],[32.8994364,39.9259851],[32.8994954,39.9259844],[32.9001951,39.9259756],[32.90088,39.9259725],[32.9010885,39.9259716],[32.9012686,39.9259708],[32.9015291,39.9259701],[32.9016346,39.9259698],[32.9029753,39.9259779]]}},{"type":"Feature","properties":{"highway":"residential","osm_id":214020823},"geometry":{"type":"LineString","coordinates":[[32.882508,39.9196321],[32.8822399,39.9195544],[32.8817967,39.9193087],[32.8816246,39.9192053],[32.8814721,39.9191136],[32.8814282,39.9190261],[32.8814721,39.9188948],[32.88163,39.9186761],[32.8815291,39.9185651],[32.8813755,39.918417],[32.8811035,39.9185987],[32.880871,39.9187703],[32.880634,39.9189352],[32.8803708,39.9189958],[32.8801862,39.9187726]]}},{"type":"Feature","properties":{"highway":"residential","osm_id":214020826},"geometry":{"type":"LineString","coordinates":[[32.8870375,39.9108885],[32.8873956,39.911845],[32.887418,39.9119127],[32.8875693,39.9123685],[32.8877306,39.9127588],[32.8879664,39.9133442],[32.8880966,39.9138008],[32.8881401,39.9139724],[32.8883573,39.9145482],[32.8885869,39.9152954],[32.8886644,39.9159735],[32.8887292,39.9163721],[32.8889778,39.9168754],[32.889098,39.917632],[32.8891733,39.9181862],[32.8892377,39.9184956]]}},{"type":"Feature","properties":{"highway":"residential","osm_id":214020854},"geometry":{"type":"LineString","coordinates":[[32.8990902,39.9302475],[32.8994676,39.9305654],[32.8996877,39.9308699]]}},{"type":"Feature","properties":{"highway":"residential","osm_id":214020871},"geometry":{"type":"LineString","coordinates":[[32.8945781,39.9253615],[32.8954454,39.9250256]]}},{"type":"Feature","properties":{"highway":"residential","osm_id":214020903},"geometry":{"type":"LineString","coordinates":[[32.8998392,39.9267328],[32.9004226,39.9274524]]}},{"type":"Feature","properties":{"highway":"residential","osm_id":214020946},"geometry":{"type":"LineString","coordinates":[[32.9019399,39.9266681],[32.901973,39.9270086]]}},{"type":"Feature","properties":{"highway":"residential","osm_id":214020951},"geometry":{"type":"LineString","coordinates":[[32.900939,39.9267711],[32.9011856,39.9269925]]}},{"type":"Feature","properties":{"highway":"residential","osm_id":214020969},"geometry":{"type":"LineString","coordinates":[[32.9015291,39.9259701],[32.9019399,39.9266681]]}},{"type":"Feature","properties":{"highway":"residential","osm_id":214020976},"geometry":{"type":"LineString","coordinates":[[32.9009642,39.9297477],[32.9014278,39.9295377],[32.9019335,39.9293087],[32.9019903,39.9292853],[32.902056,39.9292582]]}},{"type":"Feature","properties":{"oneway":"yes","highway":"secondary","osm_id":214020982},"geometry":{"type":"LineString","coordinates":[[32.8854715,39.9311758],[32.8856027,39.9310152],[32.8860041,39.9307204],[32.8869267,39.9301214],[32.8870837,39.9300716],[32.8886707,39.9294596],[32.8897046,39.9290235],[32.8903034,39.9287748],[32.8914393,39.9281616],[32.8924581,39.9276116],[32.893634,39.927191],[32.8943231,39.9269058],[32.8946826,39.926757],[32.8958882,39.9261563],[32.8960423,39.9260821],[32.8967266,39.9257652],[32.8977275,39.92529],[32.8983026,39.9250333],[32.8988526,39.9249651],[32.8991096,39.92494],[32.9009881,39.9250195],[32.9024872,39.9250629],[32.9033522,39.9250563],[32.9034771,39.9250632]]}},{"type":"Feature","properties":{"highway":"residential","osm_id":214021011},"geometry":{"type":"LineString","coordinates":[[32.9019943,39.9298209],[32.9024752,39.9297737],[32.9030216,39.9297898]]}},{"type":"Feature","properties":{"highway":"residential","osm_id":214021021},"geometry":{"type":"LineString","coordinates":[[32.8845903,39.9181328],[32.8851614,39.9180814],[32.8860801,39.9180485]]}},{"type":"Feature","properties":{"highway":"residential","name":"393. Sokak","osm_id":214021025},"geometry":{"type":"LineString","coordinates":[[32.8846156,39.9186231],[32.8854378,39.9188408],[32.8857613,39.9189235],[32.8859307,39.9189471],[32.8861117,39.9189291],[32.8870889,39.9189532],[32.8878771,39.9189101]]}},{"type":"Feature","properties":{"highway":"residential","osm_id":214021027},"geometry":{"type":"LineString","coordinates":[[32.8967091,39.9281577],[32.8977498,39.928303],[32.8986927,39.9285717]]}},{"type":"Feature","properties":{"highway":"residential","osm_id":214021062},"geometry":{"type":"LineString","coordinates":[[32.8976674,39.9287949],[32.8981646,39.9289355],[32.8986859,39.929236]]}},{"type":"Feature","properties":{"highway":"residential","osm_id":214021063},"geometry":{"type":"LineString","coordinates":[[32.9016346,39.9259698],[32.9025219,39.9263324],[32.9030814,39.9266028]]}},{"type":"Feature","properties":{"highway":"residential","osm_id":214021065},"geometry":{"type":"LineString","coordinates":[[32.8860801,39.9180485],[32.8870323,39.9180034],[32.8878514,39.917945]]}},{"type":"Feature","properties":{"highway":"residential","osm_id":214021073},"geometry":{"type":"LineString","coordinates":[[32.8809069,39.9123],[32.8813518,39.9126317],[32.8814749,39.9128189],[32.8816868,39.9131409],[32.8820902,39.9134884],[32.8827481,39.9139236],[32.882834,39.9139804],[32.8829464,39.9140547],[32.8835049,39.9144354],[32.8837779,39.9146734],[32.883817,39.9149676],[32.8838399,39.9151398],[32.883837,39.9154138],[32.8838337,39.9157252],[32.8838456,39.9158205],[32.8838536,39.9158844],[32.883933,39.9165199],[32.8841502,39.916972],[32.8844542,39.9173194],[32.8845345,39.9177991],[32.8845903,39.9181328],[32.8846031,39.9182093],[32.884606,39.9182734],[32.8846156,39.9186231],[32.8845882,39.9188973],[32.8845411,39.9192706],[32.8844542,39.9195942],[32.8845535,39.9199892],[32.8848079,39.9202223],[32.8850079,39.9203204],[32.8854098,39.9205174],[32.8857695,39.920714],[32.8859329,39.9208402]]}},{"type":"Feature","properties":{"highway":"residential","osm_id":214021078},"geometry":{"type":"LineString","coordinates":[[32.884606,39.9182734],[32.8844646,39.9184751],[32.8843944,39.9185457],[32.8843164,39.9185507],[32.8842365,39.9185558],[32.8840478,39.918465],[32.8839645,39.9183539],[32.8838372,39.9182227],[32.8837056,39.9181419],[32.8835082,39.9181419],[32.8832844,39.9180813],[32.8831703,39.9179871],[32.8830901,39.9178948],[32.8830299,39.9178256],[32.8827974,39.9176775],[32.8826789,39.9176237],[32.8826263,39.9176573],[32.8825341,39.9177953],[32.8824464,39.9178895],[32.8824069,39.91794],[32.8823981,39.9180712],[32.8824376,39.9182328],[32.8825999,39.918465],[32.8827711,39.9187644],[32.8827914,39.9188255],[32.8828237,39.9189226],[32.8827667,39.919111],[32.8826263,39.9193601],[32.8825166,39.9195485],[32.882508,39.9196321],[32.882499,39.9197201],[32.8824464,39.9198816],[32.8823806,39.9200936],[32.882385,39.9202383],[32.8826482,39.9204234],[32.8833239,39.9207868],[32.8837319,39.9210594],[32.8839161,39.9213765]]}},{"type":"Feature","properties":{"highway":"residential","osm_id":214021111},"geometry":{"type":"LineString","coordinates":[[32.9009934,39.9251105],[32.9010885,39.9259716],[32.901039,39.9264229],[32.9009841,39.9267099]]}},{"type":"Feature","properties":{"highway":"residential","osm_id":214021128},"geometry":{"type":"LineString","coordinates":[[32.8994954,39.9259844],[32.8994891,39.9261849],[32.8995263,39.9263633],[32.8998392,39.9267328]]}},{"type":"Feature","properties":{"highway":"residential","osm_id":214021198},"geometry":{"type":"LineString","coordinates":[[32.899211,39.9267516],[32.8990039,39.9259876],[32.8989043,39.9252717],[32.8988717,39.9250653],[32.8988526,39.9249651],[32.89873,39.9242969]]}},{"type":"Feature","properties":{"highway":"residential","osm_id":214021211},"geometry":{"type":"LineString","coordinates":[[32.8813603,39.9180588],[32.881646,39.918277],[32.8821175,39.9185792],[32.8824557,39.9187244],[32.8825953,39.9188243],[32.8827914,39.9188255]]}},{"type":"Feature","properties":{"highway":"residential","osm_id":214021223},"geometry":{"type":"LineString","coordinates":[[32.901709,39.9278733],[32.9018523,39.9282608],[32.9018831,39.9284479]]}},{"type":"Feature","properties":{"highway":"residential","osm_id":214021226},"geometry":{"type":"LineString","coordinates":[[32.9015656,39.927914],[32.9014494,39.9281345],[32.9012966,39.9286169],[32.9012491,39.928767],[32.9010955,39.9289789],[32.9009156,39.9292851],[32.9008155,39.9295254]]}},{"type":"Feature","properties":{"highway":"residential","osm_id":214021230},"geometry":{"type":"LineString","coordinates":[[32.9012966,39.9286169],[32.9014941,39.928565],[32.9017503,39.9284889],[32.9018831,39.9284479],[32.9022463,39.9284107],[32.9025248,39.9284436],[32.9027577,39.9284539],[32.9031925,39.9283227],[32.9036517,39.9281656]]}},{"type":"Feature","properties":{"highway":"residential","osm_id":214021256},"geometry":{"type":"LineString","coordinates":[[32.8845209,39.9164687],[32.8849552,39.9163551],[32.8850166,39.9163955],[32.8850517,39.9164898],[32.8851044,39.9168094],[32.8851965,39.9173007],[32.8851614,39.9180814]]}},{"type":"Feature","properties":{"highway":"residential","osm_id":214021285},"geometry":{"type":"LineString","coordinates":[[32.9019903,39.9292853],[32.9019774,39.9296121],[32.9019943,39.9298209],[32.9020037,39.9299384],[32.9021457,39.9302394],[32.9022275,39.9304128]]}},{"type":"Feature","properties":{"highway":"residential","osm_id":214026378},"geometry":{"type":"LineString","coordinates":[[32.8858448,39.9209876],[32.8848619,39.9214426],[32.8842464,39.9216444]]}},{"type":"Feature","properties":{"highway":"residential","osm_id":214036896},"geometry":{"type":"LineString","coordinates":[[32.8937274,39.9218935],[32.8948287,39.9225706]]}},{"type":"Feature","properties":{"highway":"residential","name":"374. Sokak","osm_id":214036897},"geometry":{"type":"LineString","coordinates":[[32.8865566,39.9226526],[32.8877139,39.9222437]]}},{"type":"Feature","properties":{"highway":"residential","osm_id":214036924},"geometry":{"type":"LineString","coordinates":[[32.8880633,39.9214784],[32.8883002,39.9213963]]}},{"type":"Feature","properties":{"highway":"residential","osm_id":214036934},"geometry":{"type":"LineString","coordinates":[[32.8877307,39.9206104],[32.8883158,39.9205525]]}},{"type":"Feature","properties":{"highway":"residential","osm_id":214036946},"geometry":{"type":"LineString","coordinates":[[32.8963729,39.9202973],[32.8973615,39.9208615],[32.898353,39.9211522]]}},{"type":"Feature","properties":{"highway":"residential","osm_id":214036952},"geometry":{"type":"LineString","coordinates":[[32.8976797,39.920384],[32.8985841,39.9206226],[32.898353,39.9211522]]}},{"type":"Feature","properties":{"highway":"residential","osm_id":214036957},"geometry":{"type":"LineString","coordinates":[[32.8994401,39.9233583],[32.8994598,39.9230174],[32.8995125,39.9221058]]}},{"type":"Feature","properties":{"highway":"residential","osm_id":214036959},"geometry":{"type":"LineString","coordinates":[[32.8964076,39.9232453],[32.8970199,39.9233265],[32.897803,39.9236356]]}},{"type":"Feature","properties":{"highway":"residential","osm_id":214036969},"geometry":{"type":"LineString","coordinates":[[32.900798,39.9191564],[32.9022093,39.9186017],[32.902775,39.9182936],[32.9036705,39.9179958]]}},{"type":"Feature","properties":{"highway":"residential","osm_id":214036971},"geometry":{"type":"LineString","coordinates":[[32.8976691,39.9196144],[32.8982632,39.9195042],[32.8986757,39.9195177],[32.8992469,39.9197098]]}},{"type":"Feature","properties":{"highway":"tertiary","name":"Mehmet Ali Altın Caddesi","osm_id":214036973},"geometry":{"type":"LineString","coordinates":[[32.8993056,39.9183989],[32.8988374,39.9182969],[32.8986306,39.9183001],[32.8983117,39.9183051],[32.897597,39.9183352],[32.8973568,39.9184039],[32.8969491,39.9184533],[32.8965964,39.9185525],[32.8957797,39.9187824],[32.8953183,39.9188318],[32.8951151,39.9188517],[32.8948141,39.9188811],[32.8943849,39.9188565],[32.8938485,39.9187906],[32.8932035,39.9187145],[32.8930116,39.9186919],[32.8923959,39.9186064],[32.8920586,39.9185596],[32.8917671,39.9185191],[32.8916621,39.9185024],[32.8911228,39.9184169],[32.8908337,39.918371],[32.8902436,39.9182887],[32.8900466,39.9182863],[32.8898466,39.9182887],[32.8894611,39.9184127],[32.8892377,39.9184956],[32.8889669,39.9186425],[32.8882802,39.9191445],[32.8881947,39.9192091],[32.887965,39.9193827],[32.8877074,39.9195773],[32.8875507,39.9196958],[32.8869353,39.9201677],[32.8867861,39.9202885],[32.886531,39.9204269]]}},{"type":"Feature","properties":{"highway":"residential","osm_id":214036977},"geometry":{"type":"LineString","coordinates":[[32.8959746,39.9211058],[32.8966426,39.9211562],[32.8970826,39.9212724],[32.8970846,39.9213684],[32.8971191,39.9214051],[32.8973108,39.9213762],[32.8975025,39.9213816],[32.8977015,39.9214474],[32.8978882,39.9215463],[32.8981383,39.9216965]]}},{"type":"Feature","properties":{"highway":"residential","osm_id":214043250},"geometry":{"type":"LineString","coordinates":[[32.8907881,39.921328],[32.8911143,39.9218875],[32.8913355,39.9222918]]}},{"type":"Feature","properties":{"highway":"residential","osm_id":214043254},"geometry":{"type":"LineString","coordinates":[[32.8924581,39.9276116],[32.8922118,39.9269294]]}},{"type":"Feature","properties":{"highway":"residential","osm_id":214043255},"geometry":{"type":"LineString","coordinates":[[32.8868416,39.921267],[32.8871377,39.9215652]]}},{"type":"Feature","properties":{"highway":"residential","name":"501. Sokak","osm_id":214043258},"geometry":{"type":"LineString","coordinates":[[32.9018968,39.9194451],[32.9024195,39.9203616],[32.9026967,39.9208411],[32.9030469,39.921911]]}},{"type":"Feature","properties":{"highway":"residential","osm_id":214043262},"geometry":{"type":"LineString","coordinates":[[32.8907195,39.9265043],[32.8908151,39.9268872],[32.8909862,39.9274323],[32.8914393,39.9281616]]}},{"type":"Feature","properties":{"oneway":"yes","highway":"residential","osm_id":217824717},"geometry":{"type":"LineString","coordinates":[[32.8810264,39.931201],[32.8823005,39.9300725]]}},{"type":"Feature","properties":{"highway":"residential","osm_id":217824951},"geometry":{"type":"LineString","coordinates":[[32.8996877,39.9308699],[32.8999702,39.9311697],[32.9003363,39.9314504],[32.9007892,39.9316455],[32.901205,39.9317692],[32.9013601,39.9317882],[32.9014221,39.9317597],[32.9014941,39.9317176],[32.9014408,39.9315408],[32.9010933,39.9312601],[32.900752,39.930789],[32.9006058,39.9305791],[32.9004604,39.9303703],[32.9001936,39.9297375],[32.9001564,39.929609]]}},{"type":"Feature","properties":{"highway":"residential","osm_id":217824952},"geometry":{"type":"LineString","coordinates":[[32.9023156,39.9312173],[32.901782,39.9316264],[32.9014941,39.9317176]]}},{"type":"Feature","properties":{"highway":"residential","osm_id":217824954},"geometry":{"type":"LineString","coordinates":[[32.8844542,39.9195942],[32.885309,39.9195165],[32.8860676,39.9194525]]}},{"type":"Feature","properties":{"name":"Erdik Sokak","highway":"residential","osm_id":217825286},"geometry":{"type":"LineString","coordinates":[[32.894043,39.9307949],[32.8949195,39.9305496]]}},{"type":"Feature","properties":{"highway":"residential","osm_id":217825288},"geometry":{"type":"LineString","coordinates":[[32.895054,39.9301013],[32.8953957,39.9301176]]}},{"type":"Feature","properties":{"highway":"residential","osm_id":217825291},"geometry":{"type":"LineString","coordinates":[[32.9008155,39.9295254],[32.9001564,39.929609],[32.8995965,39.9296268]]}},{"type":"Feature","properties":{"highway":"residential","osm_id":217825579},"geometry":{"type":"LineString","coordinates":[[32.8828909,39.9235073],[32.8833475,39.9236392]]}},{"type":"Feature","properties":{"highway":"residential","osm_id":225526381},"geometry":{"type":"LineString","coordinates":[[32.8914588,39.9237688],[32.8913189,39.9233515]]}},{"type":"Feature","properties":{"highway":"residential","osm_id":225526385},"geometry":{"type":"LineString","coordinates":[[32.900129,39.9227978],[32.9011094,39.9222607]]}},{"type":"Feature","properties":{"highway":"footway","osm_id":225526395},"geometry":{"type":"LineString","coordinates":[[32.888652,39.9243057],[32.8885522,39.9239788],[32.8885739,39.9239277],[32.8891821,39.9237172],[32.8894418,39.9235484]]}},{"type":"Feature","properties":{"highway":"residential","osm_id":225526398},"geometry":{"type":"LineString","coordinates":[[32.8996521,39.9222252],[32.9006022,39.9217202],[32.9012284,39.9214335],[32.9018863,39.9220125],[32.9022946,39.9220171]]}},{"type":"Feature","properties":{"highway":"footway","osm_id":225526401},"geometry":{"type":"LineString","coordinates":[[32.8870516,39.9203661],[32.8870786,39.9203082],[32.8871406,39.9202586],[32.8872053,39.9202317],[32.8872781,39.9202731],[32.8872834,39.9204016]]}},{"type":"Feature","properties":{"highway":"footway","osm_id":225526402},"geometry":{"type":"LineString","coordinates":[[32.8868898,39.9204199],[32.8869573,39.9204695],[32.8871918,39.920453],[32.8873321,39.9204199],[32.8873995,39.92018],[32.8873833,39.9201014],[32.8876121,39.9199918]]}},{"type":"Feature","properties":{"highway":"steps","osm_id":225526404},"geometry":{"type":"LineString","coordinates":[[32.8985841,39.9206226],[32.8987903,39.9201666]]}},{"type":"Feature","properties":{"highway":"footway","osm_id":225526407},"geometry":{"type":"LineString","coordinates":[[32.886669,39.9206223],[32.8868036,39.9204861],[32.8868898,39.9204199],[32.8870516,39.9203661],[32.8871838,39.9203641],[32.8872834,39.9204016],[32.8873321,39.9204199],[32.8875025,39.9205635]]}},{"type":"Feature","properties":{"highway":"footway","osm_id":225526414},"geometry":{"type":"LineString","coordinates":[[32.8816916,39.9227754],[32.8817661,39.9228736],[32.8818442,39.922897],[32.88193,39.9228122],[32.8820101,39.9228312],[32.8821321,39.9228268],[32.8822427,39.9228722],[32.8822847,39.9229043],[32.8822338,39.9230207]]}},{"type":"Feature","properties":{"highway":"residential","osm_id":225526415},"geometry":{"type":"LineString","coordinates":[[32.895769,39.9205865],[32.8962625,39.9203787],[32.8963729,39.9202973],[32.8965414,39.9201483],[32.8967238,39.9198521],[32.8968138,39.9195548],[32.896748,39.9192765],[32.8966423,39.9188131],[32.8965964,39.9185525]]}},{"type":"Feature","properties":{"highway":"footway","osm_id":225526416},"geometry":{"type":"LineString","coordinates":[[32.8819068,39.9231504],[32.8820044,39.9230886],[32.8820883,39.9231295],[32.8821264,39.9231032],[32.8821455,39.923071],[32.8821817,39.9230257],[32.8822338,39.9230207],[32.882258,39.9230184],[32.882464,39.9230227]]}},{"type":"Feature","properties":{"highway":"footway","osm_id":225526419},"geometry":{"type":"LineString","coordinates":[[32.8818442,39.922897],[32.881875,39.9229451],[32.8819101,39.9229802],[32.8819465,39.9229833],[32.8820206,39.922973],[32.8820732,39.9229161],[32.8821321,39.9228268],[32.8821949,39.9226674]]}},{"type":"Feature","properties":{"highway":"residential","oneway":"yes","osm_id":226266872},"geometry":{"type":"LineString","coordinates":[[32.8815852,39.9261628],[32.8820565,39.92562],[32.8822873,39.925365],[32.8825748,39.925176]]}},{"type":"Feature","properties":{"highway":"secondary","osm_id":226266873},"geometry":{"type":"LineString","coordinates":[[32.8842491,39.9126441],[32.8847352,39.9127921],[32.8848357,39.9128727],[32.8850082,39.9130109],[32.8850606,39.9131809],[32.8851442,39.9134518],[32.8854624,39.9147884],[32.88557,39.915161],[32.8856691,39.9155417],[32.8858061,39.9158977],[32.8860612,39.9175214],[32.8860801,39.9180485],[32.8861117,39.9189291],[32.8861138,39.9189886],[32.8861166,39.9190977],[32.8860676,39.9194525],[32.8861363,39.9204451]]}},{"type":"Feature","properties":{"highway":"residential","osm_id":226266876},"geometry":{"type":"LineString","coordinates":[[32.9012514,39.9195486],[32.9009571,39.9195231]]}},{"type":"Feature","properties":{"highway":"residential","osm_id":226266881},"geometry":{"type":"LineString","coordinates":[[32.8861253,39.9205521],[32.8857695,39.920714]]}},{"type":"Feature","properties":{"highway":"residential","osm_id":226266882},"geometry":{"type":"LineString","coordinates":[[32.8865183,39.9206208],[32.8863207,39.9206249]]}},{"type":"Feature","properties":{"highway":"residential","name":"335. Sokak","oneway":"yes","osm_id":226266883},"geometry":{"type":"LineString","coordinates":[[32.8993056,39.9183989],[32.8995036,39.918237],[32.900238,39.9178569]]}},{"type":"Feature","properties":{"highway":"secondary","osm_id":226266889},"geometry":{"type":"LineString","coordinates":[[32.8861363,39.9204451],[32.8862504,39.9205758],[32.8863207,39.9206249]]}},{"type":"Feature","properties":{"highway":"secondary","oneway":"yes","osm_id":226266891},"geometry":{"type":"LineString","coordinates":[[32.9006417,39.9194661],[32.9008679,39.9194908],[32.9009571,39.9195231]]}},{"type":"Feature","properties":{"highway":"secondary","osm_id":226266892},"geometry":{"type":"LineString","coordinates":[[32.8861363,39.9204451],[32.8861253,39.9205521],[32.8861756,39.9206397],[32.8862684,39.9206657]]}},{"type":"Feature","properties":{"highway":"secondary","osm_id":226266893},"geometry":{"type":"LineString","coordinates":[[32.900845,39.9192512],[32.9009571,39.9195231],[32.9010468,39.9196534],[32.9011386,39.9198705]]}},{"type":"Feature","properties":{"highway":"secondary","oneway":"yes","osm_id":226266895},"geometry":{"type":"LineString","coordinates":[[32.886531,39.9204269],[32.8864374,39.9205417],[32.8863207,39.9206249],[32.8862684,39.9206657]]}},{"type":"Feature","properties":{"highway":"tertiary","osm_id":226266896},"geometry":{"type":"LineString","coordinates":[[32.8839161,39.9213765],[32.8840119,39.9214299],[32.8841682,39.9215498],[32.8842464,39.9216444],[32.8844808,39.9219279],[32.8848115,39.9223797],[32.884964,39.9228299],[32.8851341,39.9228702],[32.8854252,39.9229507]]}},{"type":"Feature","properties":{"highway":"residential","osm_id":226266898},"geometry":{"type":"LineString","coordinates":[[32.9000839,39.9171727],[32.8999085,39.9172387],[32.899643,39.9173387],[32.8992599,39.9174402],[32.8985344,39.9175701],[32.8973327,39.9177511],[32.8956584,39.9179862],[32.8942609,39.9183107]]}},{"type":"Feature","properties":{"name":"Münzeviler Cd.","oneway":"yes","highway":"secondary","osm_id":226699769},"geometry":{"type":"LineString","coordinates":[[32.8831638,39.9263078],[32.8830946,39.926469],[32.88308,39.9266317],[32.8830781,39.9269093],[32.8829931,39.9278427],[32.8830197,39.928081],[32.8830328,39.9281098],[32.8831081,39.9283143],[32.8838166,39.9293504],[32.8844914,39.930236],[32.8847713,39.9304828],[32.8849298,39.9306393],[32.885147,39.9308368]]}},{"type":"Feature","properties":{"name":"Münzeviler Cd.","highway":"secondary","oneway":"yes","osm_id":226699772},"geometry":{"type":"LineString","coordinates":[[32.8832571,39.9260173],[32.8831956,39.9262338],[32.8831638,39.9263078]]}},{"type":"Feature","properties":{"name":"Münzeviler Cd.","highway":"secondary","oneway":"yes","osm_id":226699773},"geometry":{"type":"LineString","coordinates":[[32.8827202,39.9258585],[32.8829373,39.9260932],[32.8830406,39.9262322],[32.8831638,39.9263078]]}},{"type":"Feature","properties":{"highway":"secondary","osm_id":226699775},"geometry":{"type":"LineString","coordinates":[[32.8857047,39.9316284],[32.8858005,39.9315426]]}},{"type":"Feature","properties":{"highway":"secondary","oneway":"yes","osm_id":226699777},"geometry":{"type":"LineString","coordinates":[[32.8830946,39.926469],[32.8829479,39.9263839],[32.8829009,39.9262151],[32.8827202,39.9258585]]}},{"type":"Feature","properties":{"highway":"secondary","osm_id":226699778},"geometry":{"type":"LineString","coordinates":[[32.8829373,39.9260932],[32.8830256,39.9261209],[32.8830625,39.92612],[32.8831188,39.9260972],[32.8831752,39.9260797]]}},{"type":"Feature","properties":{"highway":"residential","osm_id":226703626},"geometry":{"type":"LineString","coordinates":[[32.8830642,39.9303318],[32.883468,39.9302944],[32.8837838,39.9302701],[32.8839768,39.9302445],[32.8839854,39.9301435],[32.8839732,39.92999],[32.8839407,39.929871],[32.8838325,39.9298073],[32.8836268,39.9297824],[32.8833381,39.9298405],[32.8831303,39.9299856],[32.8830095,39.9301119]]}},{"type":"Feature","properties":{"highway":"secondary","osm_id":226703631},"geometry":{"type":"LineString","coordinates":[[32.885147,39.9308368],[32.8850487,39.9308922]]}},{"type":"Feature","properties":{"highway":"residential","osm_id":226703644},"geometry":{"type":"LineString","coordinates":[[32.8832581,39.9306332],[32.8838638,39.9303226],[32.8845163,39.9310565]]}},{"type":"Feature","properties":{"highway":"footway","osm_id":226736413},"geometry":{"type":"LineString","coordinates":[[32.8962089,39.9257691],[32.8961536,39.9257309],[32.8961481,39.9256863],[32.8961674,39.9256354],[32.8962311,39.9256163],[32.8962919,39.9256184],[32.89635,39.9256396],[32.8963694,39.9256757],[32.8963722,39.9257118],[32.8963307,39.9257669],[32.8962089,39.9257691]]}},{"type":"Feature","properties":{"highway":"footway","osm_id":226736415},"geometry":{"type":"LineString","coordinates":[[32.8963196,39.9255187],[32.8962117,39.9255357],[32.8961315,39.9255081],[32.8961149,39.9254657],[32.8961868,39.9254211],[32.896267,39.9253935],[32.8963085,39.9253723],[32.8963583,39.9253659],[32.8964054,39.9253766],[32.8964303,39.9254084],[32.8964441,39.9254423],[32.8964441,39.9254678],[32.8963971,39.9254975],[32.8963196,39.9255187]]}},{"type":"Feature","properties":{"highway":"footway","osm_id":226736418},"geometry":{"type":"LineString","coordinates":[[32.89609,39.9255824],[32.8961674,39.9256354]]}},{"type":"Feature","properties":{"highway":"footway","osm_id":226736421},"geometry":{"type":"LineString","coordinates":[[32.8961536,39.9257309],[32.8960423,39.9260821]]}},{"type":"Feature","properties":{"highway":"footway","osm_id":226736422},"geometry":{"type":"LineString","coordinates":[[32.8965422,39.9256578],[32.8967266,39.9257652]]}},{"type":"Feature","properties":{"highway":"footway","osm_id":226736423},"geometry":{"type":"LineString","coordinates":[[32.8964441,39.9254678],[32.8965328,39.9254763]]}},{"type":"Feature","properties":{"highway":"footway","osm_id":226736424},"geometry":{"type":"LineString","coordinates":[[32.8960083,39.9253236],[32.8961149,39.9254657]]}},{"type":"Feature","properties":{"highway":"residential","osm_id":226736428},"geometry":{"type":"LineString","coordinates":[[32.8963357,39.9251826],[32.8965328,39.9254763],[32.8967266,39.9257652]]}},{"type":"Feature","properties":{"highway":"footway","osm_id":226736440},"geometry":{"type":"LineString","coordinates":[[32.8962117,39.9255357],[32.89609,39.9255824],[32.8960319,39.9255611],[32.8959682,39.925559],[32.8959101,39.925576],[32.8957833,39.9256213]]}},{"type":"Feature","properties":{"highway":"footway","osm_id":226736442},"geometry":{"type":"LineString","coordinates":[[32.8964247,39.9256736],[32.8963943,39.9256184],[32.8963915,39.9255802],[32.8964413,39.9255548],[32.8965133,39.9255569],[32.896552,39.9255908],[32.8965603,39.9256375],[32.8965422,39.9256578],[32.8965243,39.9256778],[32.8964247,39.9256736]]}},{"type":"Feature","properties":{"name":"Mehmet Ali Altın Caddesi","highway":"secondary","osm_id":226739258},"geometry":{"type":"LineString","coordinates":[[32.8861756,39.9206397],[32.8859329,39.9208402],[32.8858905,39.9209022],[32.8858448,39.9209876],[32.8857804,39.921111],[32.8857589,39.9212509],[32.8857102,39.9214329],[32.8854398,39.9224463],[32.8853917,39.9226712],[32.8854252,39.9229507],[32.8855098,39.9232586],[32.8854931,39.9234781],[32.8854112,39.9235367],[32.8850294,39.92367],[32.8838814,39.924213],[32.8833557,39.9245174],[32.8831947,39.9246162],[32.8830909,39.9246836],[32.8829158,39.9247972],[32.8826798,39.9249782],[32.8826389,39.9250313],[32.8825748,39.925176]]}},{"type":"Feature","properties":{"highway":"service","oneway":"yes","osm_id":226739262},"geometry":{"type":"LineString","coordinates":[[32.8980607,39.9252197],[32.8980963,39.9254188],[32.8978303,39.9255328],[32.8974797,39.9254981]]}},{"type":"Feature","properties":{"highway":"secondary","oneway":"yes","osm_id":226739263},"geometry":{"type":"LineString","coordinates":[[32.8861756,39.9206397],[32.8862504,39.9205758],[32.8863455,39.9204997],[32.886531,39.9204269]]}},{"type":"Feature","properties":{"highway":"secondary","oneway":"yes","osm_id":226739264},"geometry":{"type":"LineString","coordinates":[[32.8862684,39.9206657],[32.8860449,39.9208255],[32.8859389,39.9209327],[32.8858448,39.9209876]]}},{"type":"Feature","properties":{"highway":"secondary","name":"Süleyman Ayten Caddesi","osm_id":226840535},"geometry":{"type":"LineString","coordinates":[[32.9011386,39.9198705],[32.9012798,39.9201082],[32.9017989,39.9207761],[32.9019024,39.9209772],[32.9020113,39.9212038],[32.9020726,39.9213312],[32.9022453,39.921827],[32.9022946,39.9220171],[32.902363,39.9222812],[32.9025918,39.9231635],[32.9026169,39.9232008],[32.9029155,39.9236439],[32.9030555,39.9238517],[32.9030912,39.9239045],[32.9033991,39.9243614],[32.9035113,39.9245355],[32.9035462,39.9245896]]}},{"type":"Feature","properties":{"highway":"secondary","oneway":"yes","osm_id":226840536},"geometry":{"type":"LineString","coordinates":[[32.9011386,39.9198705],[32.9008812,39.9197025],[32.9006417,39.9194661]]}},{"type":"Feature","properties":{"name":"Dereboyu Caddesi","highway":"tertiary","osm_id":226840537},"geometry":{"type":"LineString","coordinates":[[32.900845,39.9192512],[32.900798,39.9191564],[32.9004779,39.9185635],[32.900238,39.9178569],[32.9002403,39.9177428],[32.9002103,39.9175032],[32.9001585,39.917381],[32.9001066,39.9172625],[32.9000839,39.9171727],[32.8997829,39.9169403],[32.8994452,39.9167],[32.8993325,39.9166199],[32.8987596,39.916045],[32.8985655,39.9158385],[32.8983757,39.9155609],[32.8981741,39.9152881],[32.8977421,39.9147645],[32.8971859,39.9143124],[32.8963694,39.9138937],[32.8956858,39.9133816],[32.8953616,39.9131374],[32.8950233,39.9128837],[32.8946049,39.9126903],[32.8942036,39.9125405],[32.8932152,39.9120806],[32.8925047,39.9115876],[32.8923366,39.9112974],[32.8922473,39.9111432],[32.8923743,39.911014],[32.8925738,39.9109689],[32.8927783,39.9109194],[32.8930313,39.9108473],[32.8932146,39.9108997]]}},{"type":"Feature","properties":{"name":"Münzeviler Cd.","highway":"secondary","osm_id":227244789},"geometry":{"type":"LineString","coordinates":[[32.885147,39.9308368],[32.8853703,39.9310399],[32.8854715,39.9311758]]}},{"type":"Feature","properties":{"highway":"residential","osm_id":291162350},"geometry":{"type":"LineString","coordinates":[[32.8830095,39.9301119],[32.8830267,39.9302312],[32.8830642,39.9303318],[32.8830989,39.9304249],[32.8832581,39.9306332],[32.8832785,39.9307244],[32.8832216,39.9308593],[32.8828824,39.9312357],[32.8824638,39.9316756],[32.8822132,39.9320294]]}},{"type":"Feature","properties":{"foot":"yes","highway":"footway","source":"bing","osm_id":417922720},"geometry":{"type":"LineString","coordinates":[[32.8826454,39.9274549],[32.882658,39.9274439],[32.8826739,39.9274358],[32.882692,39.9274312],[32.8827111,39.9274303],[32.8827298,39.9274332],[32.8827469,39.9274397],[32.8827613,39.9274494],[32.8827718,39.9274616],[32.8827779,39.9274755],[32.882779,39.9274901],[32.8827752,39.9275045],[32.8827667,39.9275176],[32.8827541,39.9275286],[32.8827381,39.9275367],[32.88272,39.9275413],[32.882701,39.9275422],[32.8826822,39.9275393],[32.8826651,39.9275328],[32.8826508,39.9275231],[32.8826403,39.9275109],[32.8826342,39.927497],[32.882633,39.9274824],[32.8826368,39.927468],[32.8826454,39.9274549]]}},{"type":"Feature","properties":{"foot":"yes","highway":"footway","source":"bing","osm_id":417922721},"geometry":{"type":"LineString","coordinates":[[32.8827111,39.9274303],[32.8826909,39.9273268],[32.8825884,39.9272615]]}},{"type":"Feature","properties":{"foot":"yes","highway":"footway","source":"bing","osm_id":417922722},"geometry":{"type":"LineString","coordinates":[[32.8827381,39.9275367],[32.8827654,39.9275732],[32.8828945,39.9275903]]}},{"type":"Feature","properties":{"foot":"yes","highway":"footway","source":"bing","osm_id":417922723},"geometry":{"type":"LineString","coordinates":[[32.8827654,39.9275732],[32.8827453,39.9276009],[32.8827466,39.9276379],[32.8825783,39.927785],[32.8827868,39.9279151],[32.8827647,39.927964],[32.8827748,39.9280005],[32.8828137,39.9280406]]}},{"type":"Feature","properties":{"foot":"yes","highway":"footway","source":"bing","osm_id":417922724},"geometry":{"type":"LineString","coordinates":[[32.8822485,39.9291064],[32.882404,39.9289849],[32.8825552,39.9288642],[32.8825397,39.9288219],[32.8825851,39.9287452],[32.8826058,39.9286651],[32.8826689,39.9285587],[32.8825803,39.9284838],[32.8824837,39.9283645],[32.8824328,39.9282699]]}},{"type":"Feature","properties":{"highway":"residential","osm_id":422206481},"geometry":{"type":"LineString","coordinates":[[32.8880633,39.9214784],[32.8879813,39.9214178],[32.8879149,39.9212825],[32.8878581,39.9211249],[32.8877545,39.9206503],[32.8877307,39.9206104],[32.8876184,39.9205472],[32.8875763,39.9204514],[32.8876121,39.9199918],[32.8876514,39.919767],[32.8877074,39.9195773]]}},{"type":"Feature","properties":{"highway":"footway","osm_id":422206483},"geometry":{"type":"LineString","coordinates":[[32.8891707,39.9231516],[32.8889149,39.9227969],[32.8887199,39.9225209],[32.8886283,39.9224522],[32.8882831,39.9219277],[32.8881105,39.921653],[32.8880633,39.9214784]]}},{"type":"Feature","properties":{"highway":"residential","osm_id":422206487},"geometry":{"type":"LineString","coordinates":[[32.8893316,39.9285855],[32.8901682,39.928341]]}},{"type":"Feature","properties":{"highway":"residential","name":"372. Sokak","osm_id":431864825},"geometry":{"type":"LineString","coordinates":[[32.8903138,39.9226387],[32.8902436,39.9223041],[32.8900332,39.921894],[32.8898924,39.9216239],[32.8896057,39.9211015],[32.8893376,39.9206378],[32.8887718,39.9198082],[32.8885892,39.919653]]}},{"type":"Feature","properties":{"highway":"residential","osm_id":431864843},"geometry":{"type":"LineString","coordinates":[[32.8911143,39.9218875],[32.891609,39.9217272]]}},{"type":"Feature","properties":{"highway":"steps","osm_id":432362176},"geometry":{"type":"LineString","coordinates":[[32.8930077,39.924342],[32.8928614,39.9233409]]}},{"type":"Feature","properties":{"highway":"residential","osm_id":432366074},"geometry":{"type":"LineString","coordinates":[[32.8939814,39.9280179],[32.8937653,39.9275843]]}},{"type":"Feature","properties":{"highway":"footway","osm_id":432366075},"geometry":{"type":"LineString","coordinates":[[32.8937653,39.9275843],[32.8936278,39.9272974]]}},{"type":"Feature","properties":{"highway":"footway","osm_id":434313658},"geometry":{"type":"LineString","coordinates":[[32.8870837,39.9300716],[32.8871383,39.9301634]]}},{"type":"Feature","properties":{"highway":"unclassified","osm_id":434318884},"geometry":{"type":"LineString","coordinates":[[32.879073,39.9248833],[32.8792036,39.9248054],[32.8794611,39.924608],[32.8799148,39.9243575],[32.8801263,39.9242377],[32.8803489,39.9241636],[32.8808129,39.924032],[32.881285,39.9240073],[32.8816605,39.9241554],[32.8819717,39.92432],[32.8820094,39.9243459],[32.8820984,39.9244116],[32.8824866,39.9247725],[32.8826389,39.9250313]]}},{"type":"Feature","properties":{"highway":"footway","osm_id":434321214},"geometry":{"type":"LineString","coordinates":[[32.8953957,39.9301176],[32.896086,39.9301586]]}},{"type":"Feature","properties":{"highway":"residential","osm_id":434321215},"geometry":{"type":"LineString","coordinates":[[32.896086,39.9301586],[32.8964353,39.930191]]}},{"type":"Feature","properties":{"highway":"footway","osm_id":434726178},"geometry":{"type":"LineString","coordinates":[[32.8813618,39.9272508],[32.8820804,39.9268879],[32.8821412,39.9268412]]}},{"type":"Feature","properties":{"highway":"residential","name":"328. Sokak","osm_id":434732483},"geometry":{"type":"LineString","coordinates":[[32.8873412,39.9248302],[32.8867245,39.9246902],[32.886113,39.9245668],[32.8855765,39.9244105]]}},{"type":"Feature","properties":{"highway":"steps","osm_id":435099638},"geometry":{"type":"LineString","coordinates":[[32.8873213,39.9211952],[32.8878581,39.9211249]]}},{"type":"Feature","properties":{"highway":"residential","osm_id":435099641},"geometry":{"type":"LineString","coordinates":[[32.8898281,39.9206926],[32.8904999,39.9203903]]}},{"type":"Feature","properties":{"highway":"steps","osm_id":435099645},"geometry":{"type":"LineString","coordinates":[[32.8885892,39.919653],[32.8881947,39.9192091]]}},{"type":"Feature","properties":{"highway":"steps","osm_id":435107403},"geometry":{"type":"LineString","coordinates":[[32.8883002,39.9213963],[32.8886753,39.9212611]]}},{"type":"Feature","properties":{"highway":"residential","osm_id":435107404},"geometry":{"type":"LineString","coordinates":[[32.8893376,39.9206378],[32.889651,39.9204726],[32.8898037,39.9203952],[32.8903035,39.9201643],[32.8904689,39.9200907],[32.8910912,39.919811],[32.8913487,39.9197122],[32.8915847,39.9196217],[32.8922177,39.9195559],[32.8931082,39.9195559],[32.8932045,39.9195575],[32.8940309,39.9195764],[32.8946424,39.9195559],[32.8950678,39.9194643]]}},{"type":"Feature","properties":{"highway":"residential","osm_id":435107405},"geometry":{"type":"LineString","coordinates":[[32.8887718,39.9198082],[32.8895974,39.9194248]]}},{"type":"Feature","properties":{"highway":"steps","name":"152 nci Sokak","osm_id":435770438},"geometry":{"type":"LineString","coordinates":[[32.8977128,39.9303124],[32.8981007,39.9303244]]}}]}