{"type":"FeatureCollection","features":[{"type":"Feature","properties":{},"geometry":{"type":"Polygon","coordinates":[[[32.83335,39.84774],[32.83313,39.84766],[32.83318,39.84758],[32.83339,39.84766],[32.83335,39.84774]]]}},{"type":"Feature","properties":{},"geometry":{"type":"Polygon","coordinates":[[[32.835,39.84716],[32.83499,39.84713],[32.83502,39.84705],[32.83509,39.84707],[32.83512,39.84703],[32.83537,39.84706],[32.83516,39.84741],[32.83507,39.84744],[32.83506,39.84743],[32.83506,39.84743],[32.83506,39.84742],[32.83503,39.8474],[32.83497,39.84734],[32.83491,39.84732],[32.83496,39.84722],[32.835,39.84724],[32.83504,39.84717],[32.835,39.84716]]]}},{"type":"Feature","properties":{},"geometry":{"type":"Polygon","coordinates":[[[32.83311,39.84975],[32.83308,39.84973],[32.83307,39.84969],[32.83305,39.84961],[32.83304,39.84954],[32.83303,39.84952],[32.83301,39.8495],[32.83297,39.84948],[32.8329,39.84945],[32.83283,39.84943],[32.83276,39.84942],[32.8327,39.84941],[32.83264,39.84935],[32.83256,39.84928],[32.83259,39.84926],[32.8326,39.84925],[32.8326,39.84922],[32.8326,39.84919],[32.83257,39.84915],[32.83253,39.84911],[32.83248,39.84909],[32.83244,39.84909],[32.8324,39.84909],[32.83238,39.8491],[32.83238,39.8491],[32.83238,39.84911],[32.83238,39.84912],[32.83238,39.84913],[32.83237,39.84913],[32.83236,39.84912],[32.83236,39.84912],[32.83236,39.84911],[32.83198,39.84879],[32.83205,39.84879],[32.83214,39.8488],[32.8322,39.84886],[32.83224,39.84889],[32.8323,39.8489],[32.83234,39.84891],[32.83239,39.84894],[32.83241,39.84898],[32.83244,39.84901],[32.83249,39.84904],[32.83254,39.84906],[32.83257,39.84909],[32.83259,39.84913],[32.8326,39.84916],[32.83263,39.84918],[32.83268,39.8492],[32.83272,39.8492],[32.83276,39.84922],[32.83279,39.84924],[32.83282,39.84927],[32.83284,39.84931],[32.83286,39.84933],[32.83287,39.84935],[32.83289,39.84936],[32.83291,39.84936],[32.83292,39.84936],[32.83294,39.84937],[32.83301,39.84942],[32.83304,39.84945],[32.83307,39.84949],[32.83309,39.84952],[32.8331,39.84956],[32.8331,39.84961],[32.83311,39.84963],[32.83312,39.84964],[32.83314,39.84965],[32.83316,39.84966],[32.83319,39.84966],[32.8332,39.84966],[32.83321,39.84967],[32.83322,39.84968],[32.83322,39.8497],[32.8332,39.84972],[32.83319,39.84974],[32.83319,39.84975],[32.8332,39.84978],[32.83321,39.84979],[32.83324,39.84981],[32.83327,39.84983],[32.83328,39.84985],[32.83329,39.84989],[32.83329,39.8499],[32.83329,39.8499],[32.83328,39.84991],[32.83328,39.84991],[32.83328,39.84991],[32.83311,39.84975]]]}},{"type":"Feature","properties":{},"geometry":{"type":"Polygon","coordinates":[[[32.85571,39.84831],[32.85563,39.84827],[32.85551,39.84821],[32.85541,39.84809],[32.85541,39.84793],[32.85543,39.84785],[32.85546,39.84778],[32.85559,39.84765],[32.85556,39.84758],[32.85568,39.84754],[32.8557,39.84762],[32.85569,39.8477],[32.85565,39.84777],[32.8556,39.8478],[32.85553,39.84789],[32.8555,39.84796],[32.85552,39.84802],[32.85558,39.84813],[32.85565,39.84818],[32.85572,39.84821],[32.85588,39.84823],[32.85604,39.84819],[32.8561,39.84815],[32.85624,39.84815],[32.85635,39.84823],[32.85626,39.84826],[32.85619,39.84823],[32.8561,39.84826],[32.85601,39.8483],[32.85591,39.84832],[32.8558,39.84831],[32.85571,39.84831]]]}},{"type":"Feature","properties":{},"geometry":{"type":"Polygon","coordinates":[[[32.85638,39.84834],[32.85657,39.84852],[32.85657,39.84855],[32.85664,39.84861],[32.85665,39.84864],[32.85664,39.84866],[32.85662,39.84869],[32.85657,39.84871],[32.85721,39.84931],[32.85714,39.84935],[32.85734,39.84943],[32.85743,39.84959],[32.85747,39.84967],[32.85753,39.84971],[32.85763,39.8497],[32.85771,39.84964],[32.8578,39.84959],[32.85787,39.84961],[32.85795,39.8496],[32.85799,39.84957],[32.858,39.84952],[32.85799,39.84948],[32.85794,39.84943],[32.85784,39.84951],[32.85778,39.84945],[32.85784,39.8494],[32.85755,39.84913],[32.85741,39.84922],[32.8573,39.8491],[32.85739,39.84904],[32.85689,39.84859],[32.85681,39.84863],[32.85644,39.84831],[32.85638,39.84834]]]}},{"type":"Feature","properties":{},"geometry":{"type":"Polygon","coordinates":[[[32.83501,39.84755],[32.83501,39.84753],[32.83503,39.8475],[32.83506,39.84748],[32.83509,39.84747],[32.83512,39.84747],[32.83515,39.84748],[32.83519,39.84751],[32.83521,39.84754],[32.83523,39.84755],[32.83527,39.84757],[32.83533,39.84759],[32.83536,39.8476],[32.83537,39.84761],[32.83538,39.84763],[32.83536,39.84764],[32.83533,39.84764],[32.83528,39.84763],[32.83524,39.84763],[32.8352,39.84763],[32.83513,39.84761],[32.8351,39.84759],[32.83504,39.84757],[32.83502,39.84756],[32.83501,39.84755]]]}},{"type":"Feature","properties":{},"geometry":{"type":"Polygon","coordinates":[[[32.84195,39.84454],[32.84203,39.84454],[32.84208,39.8445],[32.84208,39.84444],[32.84204,39.8444],[32.84196,39.8444],[32.84192,39.84444],[32.84191,39.8445],[32.84195,39.84454]]]}}]}