{"type":"FeatureCollection","features":[{"type":"Feature","properties":{},"geometry":{"type":"Polygon","coordinates":[[[32.83335,39.84774],[32.83313,39.84766],[32.83318,39.84758],[32.83339,39.84766],[32.83335,39.84774]]]}},{"type":"Feature","properties":{},"geometry":{"type":"LineString","coordinates":[[32.87031,39.84756],[32.87017,39.84744],[32.86991,39.84726],[32.86977,39.84718],[32.86953,39.84704],[32.86917,39.8469],[32.86733,39.84586],[32.86663,39.84544],[32.86581,39.84501],[32.86545,39.84484],[32.86319,39.84378],[32.86309,39.84369],[32.86301,39.84361],[32.8629,39.84348],[32.86276,39.84342],[32.86263,39.84338],[32.86253,39.84339],[32.8624,39.84339],[32.86228,39.84337],[32.86215,39.84331],[32.86188,39.84317],[32.86154,39.84302],[32.86139,39.84288],[32.86122,39.84274],[32.86089,39.84249],[32.86066,39.84234],[32.85999,39.84185],[32.85991,39.84177],[32.85984,39.84171],[32.85974,39.84168],[32.85965,39.84164],[32.8596,39.84159],[32.85946,39.84141],[32.85933,39.84123],[32.85927,39.84113],[32.85922,39.84099],[32.85918,39.84086],[32.85914,39.84068],[32.85914,39.84047],[32.85916,39.84013],[32.85915,39.83989],[32.85907,39.83962],[32.85893,39.83907],[32.85893,39.839],[32.85917,39.83876],[32.85928,39.83864],[32.85926,39.83858],[32.85923,39.83853],[32.85918,39.83815]]}},{"type":"Feature","properties":{},"geometry":{"type":"Polygon","coordinates":[[[32.835,39.84716],[32.83499,39.84713],[32.83502,39.84705],[32.83509,39.84707],[32.83512,39.84703],[32.83537,39.84706],[32.83516,39.84741],[32.83507,39.84744],[32.83506,39.84743],[32.83506,39.84743],[32.83506,39.84742],[32.83503,39.8474],[32.83497,39.84734],[32.83491,39.84732],[32.83496,39.84722],[32.835,39.84724],[32.83504,39.84717],[32.835,39.84716]]]}},{"type":"Feature","properties":{},"geometry":{"type":"Polygon","coordinates":[[[32.83311,39.84975],[32.83308,39.84973],[32.83307,39.84969],[32.83305,39.84961],[32.83304,39.84954],[32.83303,39.84952],[32.83301,39.8495],[32.83297,39.84948],[32.8329,39.84945],[32.83283,39.84943],[32.83276,39.84942],[32.8327,39.84941],[32.83264,39.84935],[32.83256,39.84928],[32.83259,39.84926],[32.8326,39.84925],[32.8326,39.84922],[32.8326,39.84919],[32.83257,39.84915],[32.83253,39.84911],[32.83248,39.84909],[32.83244,39.84909],[32.8324,39.84909],[32.83238,39.8491],[32.83238,39.8491],[32.83238,39.84911],[32.83238,39.84912],[32.83238,39.84913],[32.83237,39.84913],[32.83236,39.84912],[32.83236,39.84912],[32.83236,39.84911],[32.83198,39.84879],[32.83205,39.84879],[32.83214,39.8488],[32.8322,39.84886],[32.83224,39.84889],[32.8323,39.8489],[32.83234,39.84891],[32.83239,39.84894],[32.83241,39.84898],[32.83244,39.84901],[32.83249,39.84904],[32.83254,39.84906],[32.83257,39.84909],[32.83259,39.84913],[32.8326,39.84916],[32.83263,39.84918],[32.83268,39.8492],[32.83272,39.8492],[32.83276,39.84922],[32.83279,39.84924],[32.83282,39.84927],[32.83284,39.84931],[32.83286,39.84933],[32.83287,39.84935],[32.83289,39.84936],[32.83291,39.84936],[32.83292,39.84936],[32.83294,39.84937],[32.83301,39.84942],[32.83304,39.84945],[32.83307,39.84949],[32.83309,39.84952],[32.8331,39.84956],[32.8331,39.84961],[32.83311,39.84963],[32.83312,39.84964],[32.83314,39.84965],[32.83316,39.84966],[32.83319,39.84966],[32.8332,39.84966],[32.83321,39.84967],[32.83322,39.84968],[32.83322,39.8497],[32.8332,39.84972],[32.83319,39.84974],[32.83319,39.84975],[32.8332,39.84978],[32.83321,39.84979],[32.83324,39.84981],[32.83327,39.84983],[32.83328,39.84985],[32.83329,39.84989],[32.83329,39.8499],[32.83329,39.8499],[32.83328,39.84991],[32.83328,39.84991],[32.83328,39.84991],[32.83311,39.84975]]]}},{"type":"Feature","properties":{},"geometry":{"type":"Polygon","coordinates":[[[32.85571,39.84828],[32.85563,39.84825],[32.85555,39.84821],[32.85549,39.84816],[32.85545,39.84812],[32.85543,39.84808],[32.85541,39.84804],[32.8554,39.848],[32.8554,39.84794],[32.85542,39.84789],[32.85543,39.84784],[32.85546,39.84781],[32.85549,39.84777],[32.85555,39.84772],[32.85559,39.84769],[32.85562,39.84766],[32.85562,39.84763],[32.85562,39.84761],[32.85559,39.84758],[32.85565,39.84754],[32.85568,39.84758],[32.8557,39.84762],[32.85571,39.84764],[32.8557,39.84769],[32.85569,39.84773],[32.85565,39.84776],[32.8556,39.8478],[32.85556,39.84783],[32.85553,39.84788],[32.85551,39.84791],[32.8555,39.84796],[32.85551,39.84802],[32.85553,39.84806],[32.85556,39.8481],[32.8556,39.84813],[32.85564,39.84816],[32.85569,39.84819],[32.85574,39.8482],[32.8558,39.84822],[32.85588,39.84822],[32.85594,39.84821],[32.856,39.84819],[32.85606,39.84817],[32.85611,39.84815],[32.85618,39.84815],[32.85626,39.84817],[32.85631,39.84819],[32.85636,39.84822],[32.8563,39.84826],[32.85625,39.84823],[32.85622,39.84823],[32.85618,39.84822],[32.85614,39.84822],[32.85611,39.84824],[32.85606,39.84826],[32.85601,39.84827],[32.85596,39.84828],[32.8559,39.84829],[32.85585,39.84829],[32.8558,39.84829],[32.85575,39.84829],[32.85571,39.84828]]]}},{"type":"Feature","properties":{},"geometry":{"type":"Polygon","coordinates":[[[32.85637,39.84833],[32.85658,39.84853],[32.85662,39.84857],[32.85663,39.84861],[32.85664,39.84863],[32.85663,39.84866],[32.8566,39.84869],[32.85657,39.8487],[32.85717,39.84932],[32.85713,39.84934],[32.85717,39.84935],[32.8572,39.84936],[32.85726,39.84938],[32.85729,39.8494],[32.85732,39.84942],[32.85735,39.84945],[32.85737,39.84947],[32.85738,39.84948],[32.8574,39.84951],[32.85741,39.84953],[32.85743,39.84956],[32.85743,39.84957],[32.85744,39.8496],[32.85745,39.84962],[32.85745,39.84964],[32.85746,39.84965],[32.85747,39.84967],[32.8575,39.84968],[32.85752,39.84969],[32.85755,39.8497],[32.85757,39.8497],[32.8576,39.8497],[32.85763,39.8497],[32.85765,39.84969],[32.85767,39.84967],[32.85768,39.84966],[32.85768,39.84965],[32.85771,39.84964],[32.85774,39.84962],[32.85777,39.84961],[32.85779,39.8496],[32.8578,39.8496],[32.85782,39.84958],[32.85783,39.84957],[32.85783,39.84955],[32.85784,39.84953],[32.85783,39.84951],[32.85782,39.84949],[32.8575,39.84917],[32.85743,39.84921],[32.85741,39.84919],[32.85731,39.84909],[32.85706,39.84885],[32.85685,39.84864],[32.85681,39.84866],[32.8568,39.84866],[32.85644,39.84829],[32.85637,39.84833]]]}},{"type":"Feature","properties":{},"geometry":{"type":"Polygon","coordinates":[[[32.83501,39.84755],[32.83501,39.84753],[32.83503,39.8475],[32.83506,39.84748],[32.83509,39.84747],[32.83512,39.84747],[32.83515,39.84748],[32.83519,39.84751],[32.83521,39.84754],[32.83523,39.84755],[32.83527,39.84757],[32.83533,39.84759],[32.83536,39.8476],[32.83537,39.84761],[32.83538,39.84763],[32.83536,39.84764],[32.83533,39.84764],[32.83528,39.84763],[32.83524,39.84763],[32.8352,39.84763],[32.83513,39.84761],[32.8351,39.84759],[32.83504,39.84757],[32.83502,39.84756],[32.83501,39.84755]]]}},{"type":"Feature","properties":{},"geometry":{"type":"Polygon","coordinates":[[[32.86066,39.87324],[32.86067,39.87324],[32.8607,39.87323],[32.86057,39.87287],[32.86055,39.87287],[32.86053,39.87287],[32.86066,39.87324]]]}},{"type":"Feature","properties":{},"geometry":{"type":"Polygon","coordinates":[[[32.84984,39.87475],[32.84981,39.87479],[32.84981,39.87483],[32.84984,39.87486],[32.84988,39.87486],[32.8499,39.8749],[32.84992,39.87494],[32.84993,39.87497],[32.84996,39.87501],[32.85,39.87505],[32.85003,39.87503],[32.85003,39.875],[32.85002,39.87495],[32.85001,39.87494],[32.84999,39.87493],[32.84996,39.8749],[32.84994,39.87486],[32.84996,39.87484],[32.84998,39.87482],[32.84998,39.87479],[32.84997,39.87476],[32.84993,39.87474],[32.8499,39.87473],[32.84984,39.87475]]]}},{"type":"Feature","properties":{},"geometry":{"type":"Polygon","coordinates":[[[32.85005,39.87566],[32.85009,39.87568],[32.85012,39.87561],[32.85012,39.87556],[32.85012,39.87551],[32.85012,39.87546],[32.85012,39.8754],[32.85008,39.87547],[32.85009,39.87558],[32.85008,39.87562],[32.85005,39.87566]]]}},{"type":"Feature","properties":{},"geometry":{"type":"Polygon","coordinates":[[[32.85,39.8757],[32.85006,39.87574],[32.85005,39.87579],[32.85006,39.87584],[32.85011,39.87586],[32.85019,39.87593],[32.85022,39.876],[32.85025,39.87613],[32.85025,39.87624],[32.85024,39.8764],[32.85024,39.87646],[32.85025,39.87651],[32.85023,39.87663],[32.85022,39.87671],[32.85022,39.87681],[32.85022,39.87693],[32.85021,39.87704],[32.85021,39.87713],[32.85019,39.87722],[32.85018,39.87731],[32.85018,39.8774],[32.85018,39.87748],[32.85019,39.87753],[32.85018,39.87765],[32.85017,39.87773],[32.85016,39.87777],[32.85016,39.87784],[32.85014,39.87792],[32.85009,39.878],[32.85005,39.87805],[32.84997,39.8781],[32.84994,39.87813],[32.84996,39.87816],[32.84995,39.87824],[32.84994,39.87825],[32.84991,39.87833],[32.84989,39.87833],[32.84983,39.87844],[32.8498,39.87847],[32.84977,39.87852],[32.84971,39.87862],[32.84968,39.87865],[32.84966,39.87868],[32.84961,39.87876],[32.84957,39.8788],[32.84956,39.87885],[32.84953,39.87893],[32.84951,39.87894],[32.84942,39.8791],[32.84939,39.87915],[32.84937,39.87919],[32.84935,39.87924],[32.84932,39.87926],[32.84931,39.87931],[32.84929,39.87939],[32.84926,39.87943],[32.84926,39.87946],[32.84925,39.87951],[32.84923,39.87955],[32.84922,39.87959],[32.84918,39.87968],[32.84914,39.87973],[32.84908,39.87976],[32.84903,39.87978],[32.849,39.8798],[32.84898,39.87983],[32.84901,39.8799],[32.84896,39.87996],[32.84887,39.87998],[32.8488,39.88004],[32.84874,39.88007],[32.84871,39.8801],[32.84868,39.88018],[32.84866,39.88017],[32.84862,39.8802],[32.84853,39.88029],[32.8484,39.88038],[32.84834,39.88041],[32.84813,39.88054],[32.84799,39.88061],[32.84789,39.88064],[32.8478,39.88064],[32.84775,39.88065],[32.8477,39.88068],[32.84763,39.88074],[32.84757,39.88076],[32.84751,39.88079],[32.84744,39.8808],[32.84739,39.88083],[32.84725,39.88087],[32.84723,39.8809],[32.84718,39.8809],[32.84712,39.88094],[32.84709,39.88094],[32.847,39.88099],[32.84688,39.88103],[32.84678,39.88106],[32.84666,39.8811],[32.84657,39.88113],[32.84659,39.88115],[32.84645,39.88122],[32.8464,39.88116],[32.84676,39.88103],[32.84699,39.88095],[32.84708,39.8809],[32.84719,39.88084],[32.84737,39.88081],[32.84749,39.88075],[32.84758,39.88071],[32.84767,39.88066],[32.84772,39.88062],[32.84778,39.88061],[32.84789,39.88061],[32.84798,39.88058],[32.84802,39.88056],[32.84803,39.88052],[32.84803,39.88048],[32.84807,39.88044],[32.84815,39.88039],[32.84823,39.8804],[32.84832,39.88038],[32.84839,39.88035],[32.84849,39.88029],[32.84853,39.88023],[32.84862,39.88018],[32.84864,39.88014],[32.84868,39.88008],[32.84875,39.88003],[32.84889,39.87994],[32.84891,39.87991],[32.84888,39.87984],[32.84895,39.87977],[32.84904,39.87972],[32.84908,39.87968],[32.84911,39.87961],[32.84914,39.87953],[32.84921,39.87949],[32.84921,39.87945],[32.84921,39.87942],[32.84925,39.87932],[32.84929,39.87928],[32.8493,39.87925],[32.84932,39.87921],[32.84935,39.87915],[32.84938,39.87909],[32.84944,39.87902],[32.84946,39.87899],[32.84948,39.8789],[32.84952,39.87883],[32.84955,39.87876],[32.84958,39.87868],[32.84962,39.87865],[32.84968,39.87858],[32.84977,39.87843],[32.84983,39.87833],[32.84983,39.87831],[32.84987,39.87824],[32.84985,39.87819],[32.84981,39.87813],[32.84994,39.87809],[32.85008,39.87796],[32.85012,39.87789],[32.85011,39.87785],[32.85013,39.8778],[32.85014,39.87774],[32.85014,39.87769],[32.85013,39.87762],[32.85013,39.87753],[32.85013,39.87748],[32.85014,39.87743],[32.85014,39.87735],[32.85014,39.87729],[32.85014,39.87725],[32.85012,39.8772],[32.85016,39.87711],[32.85015,39.87704],[32.85017,39.87696],[32.85016,39.87693],[32.85015,39.8768],[32.85018,39.87672],[32.8502,39.87662],[32.85022,39.87652],[32.85022,39.87646],[32.85023,39.87638],[32.85021,39.87631],[32.85021,39.87627],[32.85019,39.87621],[32.85019,39.87617],[32.85015,39.87612],[32.85016,39.87605],[32.85016,39.87599],[32.85015,39.87593],[32.8501,39.87588],[32.85006,39.87586],[32.85001,39.87585],[32.84999,39.8758],[32.84999,39.87575],[32.85,39.8757]]]}},{"type":"Feature","properties":{},"geometry":{"type":"Polygon","coordinates":[[[32.84953,39.87456],[32.84952,39.87458],[32.84952,39.8746],[32.84952,39.87463],[32.84953,39.87465],[32.84956,39.87466],[32.8496,39.87468],[32.84967,39.87468],[32.84974,39.87468],[32.84978,39.87467],[32.84983,39.87466],[32.84987,39.87465],[32.84991,39.87463],[32.84992,39.87461],[32.84994,39.87458],[32.84995,39.87457],[32.84996,39.87455],[32.84995,39.87453],[32.84994,39.87451],[32.84991,39.8745],[32.84987,39.87449],[32.84983,39.87448],[32.84978,39.87448],[32.84974,39.87449],[32.84968,39.8745],[32.84963,39.87451],[32.84959,39.87452],[32.84955,39.87454],[32.84953,39.87456]]]}},{"type":"Feature","properties":{},"geometry":{"type":"Polygon","coordinates":[[[32.84193,39.84453],[32.84201,39.84453],[32.84206,39.84449],[32.84206,39.84443],[32.84201,39.84439],[32.84193,39.8444],[32.84188,39.84443],[32.84189,39.84449],[32.84193,39.84453]]]}},{"type":"Feature","properties":{},"geometry":{"type":"Polygon","coordinates":[[[32.85226,39.84204],[32.85229,39.84202],[32.8523,39.84201],[32.85232,39.84201],[32.85234,39.842],[32.85238,39.842],[32.85241,39.84201],[32.85244,39.84202],[32.85246,39.84204],[32.85248,39.84205],[32.85249,39.84206],[32.8525,39.84208],[32.85251,39.84209],[32.85252,39.84211],[32.85252,39.84212],[32.85252,39.84214],[32.85251,39.84215],[32.85251,39.84216],[32.8525,39.84218],[32.85249,39.84219],[32.85248,39.8422],[32.85245,39.84221],[32.85244,39.84222],[32.85243,39.84222],[32.85242,39.84223],[32.85242,39.84225],[32.85215,39.8423],[32.85202,39.84233],[32.85201,39.84231],[32.852,39.84229],[32.85198,39.84227],[32.85196,39.84226],[32.85193,39.84224],[32.8519,39.84224],[32.85187,39.84224],[32.85185,39.84224],[32.85179,39.84225],[32.85176,39.84225],[32.85173,39.84226],[32.85172,39.84226],[32.8517,39.84225],[32.85167,39.84224],[32.85165,39.84223],[32.85162,39.84222],[32.85161,39.8422],[32.85159,39.84219],[32.85158,39.84216],[32.85158,39.84215],[32.85158,39.84214],[32.85158,39.84212],[32.85159,39.8421],[32.85162,39.84206],[32.85167,39.84199],[32.85171,39.84195],[32.85173,39.84193],[32.85175,39.84192],[32.85177,39.84191],[32.85179,39.8419],[32.85182,39.84188],[32.85186,39.84187],[32.85189,39.84186],[32.85192,39.84185],[32.85196,39.84185],[32.85199,39.84184],[32.85203,39.84184],[32.85206,39.84184],[32.8521,39.84184],[32.85216,39.84184],[32.8522,39.84184],[32.85218,39.84188],[32.85213,39.84188],[32.85207,39.84188],[32.85203,39.84188],[32.852,39.84188],[32.85197,39.84189],[32.85193,39.8419],[32.85188,39.84191],[32.85183,39.84193],[32.8518,39.84194],[32.85177,39.84196],[32.85175,39.84198],[32.85173,39.84201],[32.85172,39.84203],[32.85172,39.84205],[32.85172,39.84208],[32.85172,39.84211],[32.85173,39.84213],[32.85173,39.84216],[32.85175,39.84218],[32.85177,39.8422],[32.85179,39.8422],[32.85182,39.84221],[32.85185,39.84221],[32.85186,39.8422],[32.85189,39.84218],[32.8519,39.84216],[32.8519,39.84214],[32.8519,39.84211],[32.8519,39.84209],[32.8519,39.84207],[32.85191,39.84205],[32.85193,39.84204],[32.85196,39.84203],[32.85198,39.84204],[32.85199,39.84204],[32.85201,39.84206],[32.85202,39.84207],[32.85204,39.84208],[32.85206,39.84209],[32.85207,39.84209],[32.8521,39.8421],[32.85211,39.8421],[32.85213,39.8421],[32.85215,39.8421],[32.85216,39.8421],[32.85218,39.84209],[32.85221,39.84208],[32.85224,39.84206],[32.85226,39.84204]]]}},{"type":"Feature","properties":{},"geometry":{"type":"Polygon","coordinates":[[[32.85529,39.84728],[32.85535,39.84724],[32.85558,39.84747],[32.85552,39.84751],[32.85529,39.84728]]]}},{"type":"Feature","properties":{},"geometry":{"type":"Polygon","coordinates":[[[32.85242,39.84225],[32.85241,39.84229],[32.85242,39.8423],[32.85242,39.84231],[32.85243,39.84232],[32.85243,39.84233],[32.85244,39.84235],[32.85244,39.84236],[32.85243,39.84237],[32.85242,39.84238],[32.85241,39.84239],[32.8524,39.84239],[32.85238,39.84239],[32.85236,39.84238],[32.85234,39.84237],[32.85232,39.84237],[32.8523,39.84236],[32.85228,39.84236],[32.85225,39.84237],[32.85223,39.84237],[32.85221,39.84238],[32.85218,39.84239],[32.85215,39.8423],[32.85242,39.84225]]]}},{"type":"Feature","properties":{},"geometry":{"type":"Polygon","coordinates":[[[32.8407,39.84459],[32.8407,39.84459],[32.84071,39.8446],[32.84073,39.8446],[32.84074,39.8446],[32.84074,39.8446],[32.84075,39.8446],[32.84075,39.84459],[32.84074,39.84459],[32.84074,39.84458],[32.84072,39.84458],[32.84071,39.84458],[32.8407,39.84459]]]}},{"type":"Feature","properties":{},"geometry":{"type":"Polygon","coordinates":[[[32.84069,39.84459],[32.84068,39.8446],[32.84068,39.84461],[32.84067,39.84462],[32.84067,39.84462],[32.84068,39.84463],[32.84068,39.84463],[32.84069,39.84463],[32.8407,39.84463],[32.84071,39.84464],[32.84072,39.84464],[32.84073,39.84464],[32.84074,39.84464],[32.84075,39.84464],[32.84076,39.84463],[32.84076,39.84463],[32.84076,39.84462],[32.84075,39.84462],[32.84074,39.84461],[32.84073,39.84461],[32.84072,39.84461],[32.84071,39.84461],[32.8407,39.8446],[32.8407,39.8446],[32.8407,39.84459],[32.84069,39.84459]]]}}]}