{"type":"FeatureCollection","features":[{"type":"Feature","properties":{"natural":"water","source":"Yahoo hires","osm_id":60273697},"geometry":{"type":"Polygon","coordinates":[[[32.8869697,39.8652139],[32.8869359,39.8652175],[32.8869027,39.8652139],[32.8868692,39.8652013],[32.886833,39.8651807],[32.8868098,39.8651777],[32.8867984,39.8651887],[32.8868004,39.8652044],[32.8867941,39.8652147],[32.8867639,39.8652209],[32.8867404,39.8652183],[32.8867267,39.8652029],[32.8867112,39.8651833],[32.8867072,39.865171],[32.8867153,39.8651632],[32.8867287,39.8651596],[32.8867337,39.8651537],[32.8867263,39.8651455],[32.8867045,39.8651429],[32.8866871,39.8651344],[32.8866506,39.8651223],[32.886617,39.86512],[32.8865795,39.8651197],[32.8865506,39.8651241],[32.8865245,39.8651316],[32.8865104,39.8651367],[32.8864866,39.8651409],[32.8864621,39.8651391],[32.886438,39.8651468],[32.8864256,39.8651565],[32.8863917,39.8651684],[32.8863699,39.8651689],[32.8863575,39.865164],[32.8863458,39.8651648],[32.8863428,39.8651777],[32.8863445,39.8651885],[32.8863351,39.8652024],[32.8863354,39.8652196],[32.8863297,39.8652332],[32.8863186,39.8652415],[32.8863029,39.8652433],[32.8862841,39.8652608],[32.886268,39.8652832],[32.886267,39.865311],[32.886268,39.8653539],[32.886271,39.865375],[32.8862794,39.8653912],[32.8862928,39.8653964],[32.8863066,39.8654],[32.8863096,39.8654082],[32.8863036,39.8654229],[32.8862979,39.8654389],[32.8863032,39.865453],[32.8863099,39.865463],[32.886317,39.8654767],[32.8863133,39.8654893],[32.8863029,39.8654937],[32.8862932,39.865498],[32.8862908,39.8655096],[32.8862965,39.8655166],[32.8863052,39.8655361],[32.8863129,39.8655523],[32.8863049,39.8655611],[32.8863039,39.8655778],[32.8863086,39.8655899],[32.8863186,39.8655958],[32.8863277,39.8656023],[32.8863287,39.8656123],[32.886329,39.8656254],[32.8863445,39.8656442],[32.8863579,39.8656555],[32.8863612,39.8656725],[32.8863656,39.8656985],[32.8863753,39.865726],[32.8863879,39.8657505],[32.8864078,39.8657755],[32.8864172,39.8657821],[32.886432,39.865786],[32.8864625,39.8657855],[32.8864789,39.8657924],[32.8864859,39.8657984],[32.886491,39.8658089],[32.8864923,39.8658254],[32.8864836,39.8658406],[32.8864836,39.8658612],[32.8864896,39.865881],[32.886504,39.8659003],[32.8865181,39.8659088],[32.8865372,39.8659111],[32.8865506,39.8659157],[32.8865557,39.8659239],[32.886552,39.8659317],[32.8865567,39.8659407],[32.8865835,39.8659613],[32.8866157,39.8659785],[32.8866613,39.8659939],[32.8866801,39.8660006],[32.8866952,39.8660081],[32.8867005,39.8660132],[32.8867139,39.8660192],[32.8867307,39.8660276],[32.8867629,39.8660436],[32.8867974,39.8660508],[32.886837,39.8660518],[32.8868641,39.8660575],[32.8868933,39.8660554],[32.8869191,39.866049],[32.8869523,39.8660446],[32.8869761,39.8660441],[32.8869982,39.866048],[32.8870214,39.8660446],[32.8870418,39.8660325],[32.8870636,39.8660251],[32.8870814,39.866032],[32.8871106,39.8660333],[32.8871431,39.866024],[32.8871642,39.8660215],[32.8871823,39.8660248],[32.887185,39.8660372],[32.8871971,39.8660459],[32.8872145,39.8660482],[32.8872343,39.8660439],[32.8872494,39.8660318],[32.8872742,39.8660251],[32.887309,39.8660256],[32.8873352,39.8660225],[32.8873419,39.8660143],[32.8873372,39.866006],[32.8873432,39.8659885],[32.8873593,39.8659752],[32.8873748,39.8659736],[32.8873902,39.8659772],[32.8874043,39.8659757],[32.887425,39.8659715],[32.8874452,39.8659762],[32.8874552,39.865969],[32.8874512,39.8659571],[32.8874499,39.8659396],[32.8874686,39.8659319],[32.8875109,39.8659252],[32.8875491,39.8659098],[32.8875746,39.8658825],[32.8875927,39.8658413],[32.8875873,39.865813],[32.8875585,39.8658027],[32.8875558,39.8657832],[32.8875746,39.865759],[32.8875934,39.8657636],[32.8876115,39.865758],[32.8876115,39.865741],[32.887586,39.8657271],[32.8875813,39.8657137],[32.8875987,39.8656869],[32.8876115,39.8656519],[32.8876155,39.8656319],[32.8875994,39.8656128],[32.8875994,39.8655886],[32.8876282,39.8655686],[32.887655,39.865568],[32.8876785,39.8655696],[32.8877013,39.8655845],[32.887712,39.8656025],[32.8877275,39.8656133],[32.8877395,39.8656118],[32.8877348,39.8655948],[32.8877436,39.8655783],[32.8877556,39.8655557],[32.8877583,39.8655356],[32.8877409,39.8655222],[32.8877288,39.8655279],[32.8877184,39.8655258],[32.8877027,39.8655155],[32.8876812,39.8655114],[32.8876477,39.8655217],[32.8876299,39.8655163],[32.8876058,39.8654888],[32.8876034,39.8654234],[32.8875813,39.8653941],[32.8875243,39.8653833],[32.8874901,39.8653786],[32.8874378,39.8653745],[32.8874033,39.8653786],[32.887364,39.8653848],[32.8873436,39.8653884],[32.8873285,39.8653866],[32.8873141,39.8653755],[32.887296,39.8653555],[32.8872903,39.8653442],[32.8872738,39.8653411],[32.8872564,39.8653465],[32.887242,39.865356],[32.8872259,39.8653593],[32.8872011,39.8653542],[32.8871592,39.8653254],[32.8871357,39.8653063],[32.8871159,39.8652942],[32.8871022,39.8652899],[32.8870965,39.8652919],[32.8870894,39.8652886],[32.8870951,39.8652796],[32.8870965,39.8652685],[32.8870864,39.8652621],[32.8870774,39.8652682],[32.8870556,39.8652695],[32.8870321,39.8652605],[32.8870147,39.8652464],[32.8869999,39.8652371],[32.8869942,39.8652235],[32.8869838,39.865216],[32.8869697,39.8652139]]]}},{"type":"Feature","properties":{"natural":"water","water":"pond","osm_id":225770771},"geometry":{"type":"Polygon","coordinates":[[[32.8434908,39.8879348],[32.8434831,39.8879143],[32.8434563,39.8878821],[32.8434293,39.8878287],[32.843415,39.8877837],[32.8434098,39.8877416],[32.8434094,39.8876701],[32.843414,39.8875945],[32.8434241,39.8875224],[32.8434823,39.8873049],[32.8434889,39.8872398],[32.8434871,39.8871688],[32.8434792,39.8870978],[32.8434754,39.8870868],[32.843484,39.8870805],[32.8435229,39.887043],[32.8435435,39.8870103],[32.8435775,39.8869562],[32.8436186,39.8868826],[32.8436347,39.886801],[32.843636,39.8867502],[32.8436322,39.8867144],[32.8436084,39.8867326],[32.8435796,39.8867324],[32.843551,39.8867277],[32.8435275,39.8867207],[32.843493,39.8867086],[32.8434629,39.8866922],[32.8434431,39.8866679],[32.8433837,39.8867044],[32.8433514,39.886759],[32.8433331,39.8868111],[32.8433238,39.8868604],[32.8433303,39.8868942],[32.8433436,39.8869097],[32.8433445,39.8869642],[32.8433676,39.8869879],[32.8433981,39.8870306],[32.8434004,39.8870491],[32.8433866,39.887062],[32.8433528,39.8870896],[32.8433499,39.8870995],[32.8433548,39.8871182],[32.8433587,39.8871406],[32.8433517,39.8871568],[32.8433331,39.8871677],[32.8433107,39.8871709],[32.8432967,39.887154],[32.8432794,39.8871516],[32.8432647,39.8871522],[32.843258,39.8871596],[32.8432597,39.8871719],[32.8432811,39.887196],[32.8432946,39.8872134],[32.8432908,39.8872435],[32.8432754,39.8872766],[32.8432585,39.8873147],[32.8432531,39.8873659],[32.8432631,39.8874207],[32.8432793,39.8874683],[32.8432887,39.887503],[32.8432959,39.887553],[32.8432993,39.8876365],[32.8432911,39.8877804],[32.8432829,39.8878226],[32.843289,39.8878416],[32.8433044,39.8878622],[32.8433375,39.8878832],[32.8433696,39.8879027],[32.8434619,39.8879424],[32.8434734,39.8879443],[32.8434833,39.8879411],[32.8434908,39.8879348]]]}},{"type":"Feature","properties":{"building":"yes","covered":"yes","name":"ASKİ","natural":"water","source":"Bing","water":"reservoir","osm_id":271798251},"geometry":{"type":"Polygon","coordinates":[[[32.8182124,39.8781603],[32.8185512,39.8781732],[32.8185883,39.8776009],[32.8182494,39.877588],[32.8182124,39.8781603]]]}},{"type":"Feature","properties":{"leisure":"swimming_pool","natural":"water","osm_id":307169354},"geometry":{"type":"Polygon","coordinates":[[[32.8333483,39.8477357],[32.8331302,39.8476597],[32.8331761,39.8475821],[32.8333941,39.8476581],[32.8333483,39.8477357]]]}},{"type":"Feature","properties":{"natural":"water","osm_id":404135413},"geometry":{"type":"Polygon","coordinates":[[[32.856994,39.8882319],[32.8569835,39.8882203],[32.8569748,39.8881942],[32.8569672,39.8881667],[32.8569637,39.8881334],[32.8569725,39.8881158],[32.8569719,39.8880982],[32.8569553,39.8880766],[32.8569257,39.8880645],[32.8569051,39.8880633],[32.8568858,39.8880667],[32.856879,39.8880798],[32.8568663,39.8880852],[32.8568502,39.8880822],[32.8568342,39.8880724],[32.8568157,39.8880625],[32.8567978,39.8880405],[32.8567815,39.887987],[32.8568002,39.8879547],[32.8568312,39.8879271],[32.8568647,39.8878946],[32.8568941,39.8878677],[32.8569159,39.8878348],[32.8569366,39.8878115],[32.856971,39.8878022],[32.8569836,39.8877888],[32.8569879,39.8877811],[32.8569984,39.8877845],[32.8570092,39.8877938],[32.8570201,39.8878066],[32.8570741,39.8878539],[32.8570966,39.8879075],[32.8570983,39.8879562],[32.8571145,39.8879947],[32.8571436,39.8880323],[32.8571602,39.8880646],[32.8571573,39.8880991],[32.8571422,39.8881183],[32.8571236,39.8881388],[32.8571084,39.8881771],[32.8570873,39.8882072],[32.8570682,39.8882145],[32.8570425,39.8882223],[32.8570165,39.8882339],[32.856994,39.8882319]]]}},{"type":"Feature","properties":{"source":"mapbox","waterway":"stream","osm_id":435343799},"geometry":{"type":"LineString","coordinates":[[32.8466052,39.828022],[32.8464831,39.8280199],[32.8463609,39.8280374],[32.8454409,39.8285081],[32.8445397,39.8289777],[32.8434817,39.829691]]}},{"type":"Feature","properties":{"source":"mapbox","waterway":"stream","osm_id":435343800},"geometry":{"type":"LineString","coordinates":[[32.8491877,39.8346668],[32.8488636,39.8344453],[32.8485443,39.8341869],[32.8483854,39.8340197],[32.8482476,39.8339333],[32.8481447,39.8339071],[32.848062,39.8338584],[32.8479842,39.8337816],[32.8478153,39.8336728],[32.847664,39.8336018],[32.8476298,39.8335535],[32.8475869,39.8333877],[32.8475332,39.833296],[32.8474313,39.8331858],[32.8473562,39.8330736],[32.8472556,39.8328604],[32.8472328,39.8327811],[32.8472516,39.8326699],[32.8472744,39.8325968],[32.8473414,39.8324382],[32.8473602,39.832296],[32.8473763,39.8321539],[32.8473535,39.8320509],[32.8472932,39.831984],[32.8472328,39.8319016],[32.8472006,39.8317996],[32.8472114,39.8316884],[32.847269,39.8314217],[32.8472798,39.8313413],[32.8472798,39.8312641],[32.8472275,39.8311302],[32.8472261,39.8310087],[32.8472248,39.8309006],[32.8471792,39.830847],[32.847151,39.830779],[32.8471389,39.8306935],[32.8471604,39.8305772],[32.8472757,39.8303568],[32.8477666,39.8293712],[32.8479476,39.8290797],[32.8480442,39.8288243],[32.848004,39.8286461],[32.8478469,39.8284854],[32.8476834,39.8283917],[32.8474016,39.8282836],[32.8468198,39.8280724]]}},{"type":"Feature","properties":{"source":"mapbox","waterway":"stream","osm_id":435343803},"geometry":{"type":"LineString","coordinates":[[32.8855301,39.8675495],[32.8857091,39.8676761],[32.8857788,39.8677142],[32.8860591,39.8678357],[32.8862348,39.8679386],[32.8863193,39.8680385],[32.886381,39.8681074],[32.8864105,39.8681815],[32.8864494,39.868232],[32.8867096,39.8683823],[32.8868435,39.8684368],[32.8870274,39.8684801],[32.8872031,39.8685192],[32.8873144,39.8685912],[32.8873989,39.8686345],[32.8875075,39.8686519],[32.8876282,39.8686242],[32.8877623,39.8686345],[32.8879192,39.8686921],[32.8881191,39.8687888],[32.8881794,39.8688763],[32.8882275,39.868968],[32.8883055,39.8690771],[32.8884208,39.8691368],[32.8885469,39.8692026],[32.8887293,39.8693642],[32.8888713,39.8695073],[32.8890096,39.8697039],[32.8891839,39.8698768],[32.889483,39.8701269],[32.8897002,39.8703524],[32.8897646,39.8704512],[32.8898182,39.8705531],[32.8898303,39.8706344],[32.8898343,39.870692],[32.8898679,39.8707589],[32.8900489,39.8710193],[32.8901401,39.871113],[32.8902085,39.871184],[32.8902821,39.8712159],[32.8903842,39.8712406],[32.8904848,39.871288],[32.8905532,39.8713775],[32.8906712,39.8715443],[32.8907329,39.8716637],[32.890749,39.871746],[32.8907651,39.8718428],[32.8908025,39.8719241],[32.8908829,39.87199],[32.8910936,39.8720744],[32.8912921,39.8721176],[32.8915213,39.8721382],[32.8915925,39.8721454],[32.8917105,39.8721423],[32.8918192,39.872169],[32.8919466,39.8722504],[32.8920832,39.8722947],[32.8921531,39.8723543],[32.8922188,39.872431],[32.8922844,39.8725015],[32.8923248,39.8725828],[32.8923838,39.8726425],[32.8924507,39.8726909],[32.8925742,39.872766],[32.8926614,39.8728473],[32.8928009,39.8729533],[32.8929524,39.8730367],[32.8932166,39.8731808],[32.8934459,39.8733002],[32.8936605,39.8734402],[32.8937745,39.8735421],[32.8939113,39.8736841],[32.8940012,39.8738025],[32.8940803,39.8738951],[32.8942345,39.8740238],[32.8944504,39.8741689],[32.8945751,39.8742872],[32.8947146,39.8744262],[32.8950003,39.8747308],[32.8951424,39.8748976],[32.8952765,39.8750736],[32.8953597,39.8752228],[32.8954093,39.8753669],[32.8954616,39.8755388],[32.8955206,39.8756993],[32.8956534,39.8759247],[32.8956963,39.8760328],[32.8956856,39.8761007],[32.8956467,39.8762283],[32.8956145,39.8762788],[32.8955863,39.8763436],[32.8955783,39.8764692],[32.8955776,39.8766508],[32.8955977,39.8768814],[32.8956319,39.876975],[32.8956869,39.8770497],[32.8957546,39.8770991],[32.8958463,39.8771577],[32.8959082,39.8772133],[32.8959384,39.8772792],[32.8959404,39.8773476],[32.8959397,39.8773996],[32.8959411,39.8774588],[32.8959565,39.8775344],[32.895994,39.877577]]}},{"type":"Feature","properties":{"name":"İmrahor Deresi","source":"mapbox","waterway":"stream","osm_id":435343806},"geometry":{"type":"LineString","coordinates":[[32.8703077,39.8475621],[32.8701723,39.8474365],[32.8699121,39.8472594],[32.8697699,39.8471791],[32.8695312,39.8470432],[32.8691718,39.846899],[32.8673291,39.8458632],[32.8666344,39.8454369],[32.8658056,39.8450147],[32.8654516,39.8448356],[32.8631879,39.8437801],[32.8630874,39.8436936],[32.8630109,39.8436092],[32.8629023,39.8434815],[32.8627615,39.8434156],[32.8626341,39.8433775],[32.8625335,39.8433878],[32.8623967,39.8433868],[32.8622814,39.8433724],[32.8621472,39.8433137],[32.8618844,39.8431726],[32.8615435,39.8430212],[32.8613907,39.8428771],[32.8612217,39.8427381],[32.8608864,39.8424899],[32.8606573,39.8423375],[32.8599854,39.8418453],[32.8599089,39.841766],[32.8598352,39.8417145],[32.8597373,39.8416836],[32.8596541,39.8416404],[32.8596018,39.8415889],[32.8594568,39.8414087],[32.8593308,39.8412316],[32.8592652,39.8411266],[32.8592169,39.8409906],[32.8591779,39.8408609],[32.8591403,39.8406838],[32.8591403,39.8404737],[32.8591591,39.8401318],[32.8591457,39.8398909],[32.8590652,39.8396211],[32.85893,39.8390744],[32.8589312,39.8390038],[32.8591737,39.83876],[32.859278,39.8386396],[32.8592636,39.8385793],[32.8592283,39.8385302],[32.8591837,39.8381483]]}},{"type":"Feature","properties":{"name":"İmrahor Deresi","source":"mapbox","waterway":"stream","osm_id":435343807},"geometry":{"type":"LineString","coordinates":[[32.8781995,39.8611726],[32.8781652,39.8610634],[32.8781867,39.8607752],[32.8782028,39.860631],[32.8782028,39.8604499],[32.8781625,39.8603428],[32.8780123,39.8601719],[32.8775042,39.8595408],[32.8774062,39.8594122],[32.8773257,39.8592825],[32.8772265,39.859126],[32.8771462,39.8590642],[32.8770053,39.8590066],[32.876859,39.8589736],[32.8767116,39.8589808],[32.8765869,39.8589695],[32.8764352,39.8588995],[32.876312,39.8588027],[32.8761846,39.8586833],[32.8760961,39.8585649],[32.8760612,39.8584476],[32.8760666,39.8583467],[32.8760919,39.8582015],[32.8761068,39.8580224],[32.8761028,39.8579127],[32.8761001,39.8578381],[32.8761209,39.8577943],[32.8761658,39.857749],[32.8761993,39.8576986],[32.8762034,39.8576502],[32.8761953,39.8576044],[32.8761712,39.8575581],[32.8761618,39.8575087],[32.8761806,39.8574253],[32.8761953,39.857311],[32.8762181,39.8572534],[32.8762449,39.8572039],[32.8762986,39.8571648],[32.8763294,39.8571288],[32.8763334,39.8570897],[32.8763214,39.8570464],[32.8762878,39.8570125],[32.8762597,39.8569826],[32.8762416,39.8569239],[32.8762838,39.8568925],[32.876316,39.8568508],[32.8763334,39.8568029],[32.8763174,39.856752],[32.876322,39.8567242],[32.8763636,39.8566969],[32.876373,39.8566737],[32.8763676,39.8566449],[32.8763562,39.8565924],[32.8763522,39.8565034],[32.876314,39.8564658],[32.8762597,39.8563927],[32.8762355,39.856315],[32.8762268,39.856265],[32.8762543,39.8562341],[32.8762557,39.8561976],[32.8762349,39.8561667],[32.8761618,39.8560972],[32.8760558,39.8560385],[32.8759593,39.8559902],[32.8758842,39.8559593],[32.8758305,39.8558728],[32.8757487,39.8558018],[32.8756723,39.8557256],[32.8755715,39.8555907],[32.8754937,39.8554569],[32.8754213,39.8553972],[32.8752912,39.8553014],[32.8752309,39.8552036],[32.8752121,39.8550718],[32.8751585,39.8549421],[32.8750217,39.8548351],[32.8746703,39.8546909],[32.874496,39.8546291],[32.8742841,39.8545797],[32.8740561,39.8544912],[32.8738093,39.8543512],[32.8736484,39.8542647],[32.8735116,39.8542317],[32.873128,39.8542462],[32.872884,39.8542462],[32.8726157,39.854172],[32.8721866,39.8540258],[32.8720391,39.8539435],[32.8718245,39.8537932],[32.8716716,39.8536181],[32.8711808,39.8529572],[32.8709984,39.8527142],[32.8708616,39.8523724],[32.8708374,39.8522241],[32.8708428,39.851975],[32.8708616,39.8517588],[32.8708562,39.8514972],[32.8708589,39.8512975],[32.8708535,39.8510998],[32.8708803,39.8508095],[32.8709823,39.850688],[32.8710306,39.8504512],[32.8710171,39.8500023],[32.8709206,39.8498128],[32.8709125,39.849611],[32.8708508,39.8493907],[32.8707543,39.8491292],[32.8706175,39.8486844],[32.8705759,39.8484939],[32.8705598,39.8481624],[32.8705263,39.847942],[32.8704552,39.8477628]]}},{"type":"Feature","properties":{"layer":"-1","name":"İmrahor Deresi","source":"mapbox","waterway":"stream","osm_id":435343808},"geometry":{"type":"LineString","coordinates":[[32.8704552,39.8477628],[32.8703077,39.8475621]]}},{"type":"Feature","properties":{"name":"İmrahor Deresi","source":"mapbox","waterway":"stream","osm_id":435343809},"geometry":{"type":"LineString","coordinates":[[32.8762416,39.8569239],[32.8761886,39.8568817],[32.8761187,39.8568529],[32.8760216,39.8568297],[32.8759553,39.8568282],[32.8759003,39.8568174],[32.8758842,39.8567963],[32.8758842,39.8567499],[32.8758922,39.8566928],[32.8759149,39.8566264],[32.8759578,39.8565585],[32.8760096,39.8565116],[32.8760919,39.8564637],[32.8762597,39.8563927]]}},{"type":"Feature","properties":{"natural":"water","water":"pond","osm_id":443531054},"geometry":{"type":"Polygon","coordinates":[[[32.8458591,39.8815564],[32.8460301,39.8814846],[32.845978,39.8814154],[32.8459126,39.8814443],[32.8458916,39.8814549],[32.8458317,39.8813637],[32.8459089,39.8813271],[32.8458826,39.8812867],[32.8460573,39.8812093],[32.8461447,39.8813395],[32.8464543,39.8812153],[32.8464042,39.8811631],[32.8463541,39.8811282],[32.846287,39.8811051],[32.8461884,39.8810751],[32.8460847,39.8810654],[32.845983,39.8810705],[32.8458906,39.8810907],[32.8458078,39.8811274],[32.8457402,39.8811757],[32.8456954,39.8812295],[32.845666,39.8812943],[32.8456416,39.8813957],[32.8456467,39.8814909],[32.8456706,39.8815501],[32.8457178,39.8816078],[32.8457585,39.8816399],[32.8458591,39.8815564]]]}},{"type":"Feature","properties":{"natural":"water","osm_id":444407968},"geometry":{"type":"Polygon","coordinates":[[[32.8349966,39.8471554],[32.8349946,39.8471332],[32.8350207,39.8470529],[32.8350931,39.847072],[32.8351226,39.8470303],[32.8353674,39.847056],[32.8351589,39.8474087],[32.8350663,39.847438],[32.8350603,39.8474349],[32.835061,39.8474262],[32.8350616,39.8474159],[32.8350261,39.8473958],[32.8349664,39.8473438],[32.8349094,39.8473242],[32.8349563,39.8472241],[32.8350026,39.8472403],[32.8350408,39.8471713],[32.8349966,39.8471554]]]}},{"type":"Feature","properties":{"natural":"water","osm_id":467061745},"geometry":{"type":"Polygon","coordinates":[[[32.8331066,39.8497462],[32.8330815,39.8497274],[32.8330667,39.8496908],[32.833054,39.8496146],[32.8330439,39.8495395],[32.8330319,39.8495222],[32.8330144,39.8495037],[32.8329685,39.8494767],[32.8328991,39.8494478],[32.8328257,39.8494272],[32.8327556,39.8494169],[32.8326959,39.8494056],[32.8326384,39.8493451],[32.8325642,39.8492797],[32.8325859,39.8492633],[32.8325994,39.8492463],[32.832602,39.8492247],[32.8325953,39.849192],[32.8325655,39.8491462],[32.8325286,39.8491135],[32.8324813,39.8490931],[32.8324378,39.849088],[32.8324022,39.8490911],[32.8323841,39.849098],[32.8323801,39.8491034],[32.8323787,39.8491137],[32.8323818,39.8491194],[32.8323784,39.8491268],[32.8323699,39.8491282],[32.8323593,39.8491238],[32.8323593,39.8491181],[32.8323598,39.8491113],[32.8319769,39.8487887],[32.8320539,39.8487868],[32.8321367,39.8488048],[32.8321957,39.8488599],[32.832243,39.8488869],[32.8322953,39.848899],[32.8323439,39.8489124],[32.8323901,39.8489395],[32.8324139,39.8489827],[32.8324357,39.849009],[32.8324874,39.8490427],[32.832536,39.8490628],[32.8325675,39.8490949],[32.8325863,39.849131],[32.8326047,39.8491606],[32.8326282,39.8491801],[32.8326778,39.8491951],[32.8327214,39.8492036],[32.8327576,39.8492172],[32.8327935,39.8492388],[32.8328203,39.8492666],[32.8328418,39.849306],[32.8328562,39.8493348],[32.8328726,39.8493492],[32.8328921,39.8493557],[32.8329095,39.8493552],[32.8329199,39.8493577],[32.832937,39.8493722],[32.8330074,39.8494151],[32.8330399,39.8494476],[32.8330681,39.8494854],[32.8330855,39.8495176],[32.8330976,39.8495567],[32.8331029,39.849611],[32.8331073,39.849629],[32.8331241,39.8496427],[32.8331398,39.8496535],[32.8331596,39.8496568],[32.8331851,39.8496561],[32.8331998,39.8496581],[32.8332112,39.8496684],[32.8332173,39.8496846],[32.8332156,39.8497014],[32.8332042,39.8497209],[32.8331928,39.8497356],[32.8331911,39.8497518],[32.8331972,39.8497765],[32.8332126,39.8497948],[32.8332434,39.8498139],[32.8332682,39.8498324],[32.8332813,39.8498545],[32.833288,39.8498852],[32.833289,39.8498988],[32.8332873,39.8499039],[32.833285,39.8499066],[32.8332816,39.8499073],[32.8332763,39.8499069],[32.8331066,39.8497462]]]}},{"type":"Feature","properties":{"natural":"water","osm_id":471913760},"geometry":{"type":"Polygon","coordinates":[[[32.8557122,39.8482807],[32.8556277,39.8482484],[32.8555504,39.8482079],[32.8554894,39.8481603],[32.8554544,39.8481188],[32.8554264,39.8480783],[32.8554092,39.848041],[32.855402,39.8479987],[32.8554036,39.8479433],[32.8554172,39.8478851],[32.8554341,39.8478441],[32.8554578,39.8478053],[32.8554876,39.8477712],[32.8555481,39.8477207],[32.8555899,39.8476903],[32.8556199,39.8476561],[32.8556238,39.8476324],[32.8556172,39.8476081],[32.8555912,39.8475755],[32.8556547,39.847541],[32.855677,39.8475791],[32.8556964,39.8476172],[32.8557058,39.8476423],[32.8557026,39.8476878],[32.8556859,39.847726],[32.8556513,39.8477623],[32.8555968,39.8477966],[32.8555589,39.8478316],[32.8555261,39.8478789],[32.8555118,39.847912],[32.8555047,39.8479554],[32.8555071,39.848019],[32.8555271,39.8480626],[32.8555589,39.8480977],[32.8555972,39.8481325],[32.855636,39.8481632],[32.8556891,39.8481877],[32.8557435,39.8482032],[32.8558025,39.8482189],[32.8558794,39.8482186],[32.855942,39.8482083],[32.856001,39.8481941],[32.8560556,39.8481718],[32.8561102,39.8481548],[32.85618,39.8481517],[32.8562616,39.8481674],[32.8563129,39.8481909],[32.8563571,39.8482219],[32.856295,39.8482597],[32.8562486,39.848234],[32.8562225,39.8482256],[32.8561831,39.848222],[32.8561435,39.8482245],[32.8561079,39.8482359],[32.8560584,39.8482558],[32.8560149,39.8482711],[32.8559569,39.8482841],[32.855903,39.8482936],[32.8558486,39.8482948],[32.855799,39.8482925],[32.8557503,39.8482873],[32.8557122,39.8482807]]]}},{"type":"Feature","properties":{"natural":"water","osm_id":472134276},"geometry":{"type":"Polygon","coordinates":[[[32.8563737,39.8483297],[32.8565764,39.8485257],[32.8566208,39.8485748],[32.8566335,39.8486055],[32.8566352,39.8486333],[32.8566269,39.8486576],[32.8566007,39.8486867],[32.8565704,39.8487046],[32.8571712,39.8493153],[32.8571328,39.849336],[32.8571675,39.8493466],[32.8572019,39.8493578],[32.8572589,39.8493823],[32.8572941,39.8494029],[32.8573179,39.8494196],[32.8573506,39.8494496],[32.8573716,39.8494749],[32.8573796,39.8494845],[32.8573952,39.8495083],[32.8574078,39.8495293],[32.857427,39.8495637],[32.8574312,39.8495744],[32.8574396,39.8495964],[32.8574477,39.8496196],[32.857453,39.8496377],[32.8574606,39.8496544],[32.8574729,39.8496687],[32.857495,39.849684],[32.8575182,39.8496946],[32.8575467,39.8497018],[32.857574,39.8497032],[32.8575991,39.8497015],[32.8576254,39.8496952],[32.8576518,39.8496862],[32.8576659,39.8496688],[32.8576757,39.8496599],[32.8576845,39.8496532],[32.8577085,39.8496372],[32.8577359,39.8496234],[32.8577706,39.8496086],[32.8577865,39.849603],[32.8578006,39.8495983],[32.8578163,39.8495828],[32.8578281,39.8495674],[32.8578341,39.8495524],[32.8578365,39.8495341],[32.8578347,39.8495136],[32.8578234,39.8494885],[32.8575007,39.8491674],[32.8574299,39.849205],[32.8574126,39.8491882],[32.8573067,39.8490861],[32.8570622,39.8488502],[32.8568473,39.8486429],[32.8568093,39.8486628],[32.8568047,39.8486582],[32.8564389,39.8482937],[32.8563737,39.8483297]]]}},{"type":"Feature","properties":{"natural":"water","osm_id":473852300},"geometry":{"type":"Polygon","coordinates":[[[32.8350114,39.8475456],[32.8350147,39.8475299],[32.8350314,39.8475026],[32.8350556,39.8474838],[32.8350941,39.8474725],[32.8351243,39.8474663],[32.8351538,39.8474831],[32.835185,39.8475075],[32.8352098,39.8475381],[32.8352279,39.8475523],[32.8352688,39.8475682],[32.8353252,39.8475888],[32.835357,39.8476017],[32.8353748,39.8476148],[32.8353798,39.8476321],[32.83536,39.8476408],[32.8353339,39.8476414],[32.8352816,39.8476305],[32.8352407,39.8476308],[32.8352001,39.84763],[32.8351314,39.8476084],[32.8351019,39.8475878],[32.8350388,39.8475726],[32.8350184,39.8475608],[32.8350114,39.8475456]]]}},{"type":"Feature","properties":{"natural":"water","osm_id":675319427},"geometry":{"type":"Polygon","coordinates":[[[32.8721387,39.8765431],[32.872084,39.8765656],[32.8720614,39.8766309],[32.8720682,39.87668],[32.8720562,39.8767229],[32.8720366,39.8767834],[32.8720025,39.8768261],[32.8720057,39.8769567],[32.8720216,39.8769908],[32.8720489,39.8770141],[32.8721332,39.8770375],[32.872252,39.8768643],[32.8722667,39.8768151],[32.8721968,39.876778],[32.8721557,39.876747],[32.8721489,39.8766994],[32.8721103,39.8766715],[32.8720978,39.8766276],[32.8721156,39.8765831],[32.872171,39.8765632],[32.8722311,39.8765159],[32.8722943,39.8764639],[32.8723112,39.8764426],[32.872322,39.8764119],[32.872322,39.8763776],[32.8722958,39.8763173],[32.8721849,39.8761553],[32.8721495,39.8761329],[32.8721079,39.8761341],[32.8720478,39.8761613],[32.8720108,39.8762038],[32.872,39.8762547],[32.8720046,39.8762984],[32.8720308,39.8763516],[32.8720724,39.876393],[32.8721125,39.8764178],[32.8721448,39.8764485],[32.8721525,39.8764781],[32.8721495,39.8765183],[32.8721387,39.8765431]]]}},{"type":"Feature","properties":{"natural":"water","osm_id":679237741},"geometry":{"type":"Polygon","coordinates":[[[32.8720657,39.874952],[32.8722426,39.8749525],[32.8722407,39.8753694],[32.8718417,39.8753683],[32.8718421,39.8752826],[32.8720642,39.8752832],[32.8720657,39.874952]]]}},{"type":"Feature","properties":{"natural":"water","osm_id":679237757},"geometry":{"type":"Polygon","coordinates":[[[32.8708943,39.8731486],[32.8707614,39.87315],[32.8707675,39.8728261],[32.870803,39.8728249],[32.8708014,39.8722113],[32.8709529,39.8722134],[32.8710892,39.8724254],[32.8711034,39.8724747],[32.8710915,39.8725258],[32.8708403,39.8729174],[32.8708346,39.8729608],[32.870844,39.8730098],[32.8708703,39.8730613],[32.8708949,39.8731012],[32.8708943,39.8731486]]]}},{"type":"Feature","properties":{"natural":"water","osm_id":683248622},"geometry":{"type":"Polygon","coordinates":[[[32.8606563,39.8732416],[32.8606748,39.8732359],[32.8606962,39.8732344],[32.8605698,39.8728675],[32.8605468,39.8728683],[32.8605288,39.8728733],[32.8606563,39.8732416]]]}},{"type":"Feature","properties":{"natural":"water","water":"pond","osm_id":693414187},"geometry":{"type":"Polygon","coordinates":[[[32.8448907,39.8822325],[32.8449962,39.8822758],[32.8448817,39.8824281],[32.8448642,39.882437],[32.8448642,39.882463],[32.8448418,39.8825074],[32.8447983,39.8825428],[32.8447615,39.8825634],[32.8447708,39.8825913],[32.8447977,39.8826227],[32.8448082,39.8826605],[32.8448047,39.8827018],[32.8447936,39.8827449],[32.8447732,39.8827773],[32.844716,39.8828277],[32.844692,39.8829452],[32.8446838,39.8829511],[32.8446543,39.8829292],[32.8446309,39.8830252],[32.8446024,39.8835588],[32.8445809,39.883602],[32.8445823,39.8836226],[32.8445984,39.8836483],[32.8446131,39.8836874],[32.8446131,39.8837224],[32.8446064,39.8837409],[32.8445903,39.8837677],[32.844589,39.8837985],[32.8445957,39.8838428],[32.8445836,39.8838665],[32.8445756,39.8838757],[32.8445729,39.8841752],[32.8445863,39.8842225],[32.8446104,39.8842565],[32.8446386,39.884274],[32.8446574,39.8843007],[32.8446587,39.884347],[32.8446279,39.8845559],[32.8445796,39.8847],[32.8445179,39.8848112],[32.8444763,39.8849542],[32.8444347,39.885089],[32.8443838,39.8852043],[32.8443489,39.8852557],[32.8443435,39.8852773],[32.8443449,39.885302],[32.8443221,39.8853524],[32.844314,39.8853957],[32.8442899,39.8854482],[32.8442845,39.8854759],[32.8442845,39.8855006],[32.8442769,39.8855279],[32.8442652,39.8855512],[32.8442279,39.8855665],[32.844215,39.8855772],[32.8442092,39.8855924],[32.8441928,39.8856337],[32.8441438,39.8857412],[32.8440924,39.8858236],[32.8440446,39.8858576],[32.8439909,39.8858675],[32.8438753,39.8858361],[32.8436651,39.8857474],[32.8436301,39.8857143],[32.8436208,39.8856784],[32.8436278,39.8856471],[32.8437118,39.8854993],[32.8438204,39.8853219],[32.8438975,39.8852081],[32.8439745,39.8851365],[32.8440025,39.885115],[32.84402,39.885054],[32.8440434,39.8849976],[32.8440504,39.8849564],[32.8440621,39.8849322],[32.8440901,39.8849062],[32.844131,39.8848838],[32.8441998,39.8847951],[32.8442372,39.8847253],[32.8442454,39.8846751],[32.8442804,39.8845613],[32.8443049,39.8845049],[32.8443539,39.884401],[32.8443983,39.8843472],[32.844417,39.8843024],[32.8444287,39.8842737],[32.8444532,39.8842603],[32.8444905,39.8842469],[32.8445197,39.8842316],[32.8445337,39.8841752],[32.8445454,39.8837622],[32.8445536,39.8837228],[32.8445711,39.883712],[32.8445769,39.8836878],[32.8445699,39.8836708],[32.8445548,39.8836574],[32.8445384,39.8836206],[32.8445396,39.8835974],[32.8445477,39.8835714],[32.8445629,39.8835176],[32.8445781,39.8832309],[32.8446143,39.8828995],[32.8446096,39.8828753],[32.8446178,39.8828493],[32.84464,39.8828341],[32.8446528,39.882783],[32.8446715,39.8827812],[32.8446808,39.8827292],[32.8446598,39.8827239],[32.8446587,39.8827042],[32.8446271,39.8827024],[32.8446493,39.8826092],[32.8446703,39.8825778],[32.8446995,39.8825447],[32.8446949,39.8825071],[32.8447042,39.8824676],[32.844731,39.8824381],[32.8447719,39.8824157],[32.8448058,39.8823772],[32.8448268,39.8823153],[32.8448907,39.8822325]]]}},{"type":"Feature","properties":{"natural":"water","osm_id":701047684},"geometry":{"type":"Polygon","coordinates":[[[32.8706163,39.865497],[32.8705801,39.8653117],[32.8704343,39.8653285],[32.8704705,39.8655138],[32.8706163,39.865497]]]}},{"type":"Feature","properties":{"natural":"water","osm_id":701047685},"geometry":{"type":"Polygon","coordinates":[[[32.8708,39.8655284],[32.8708725,39.865498],[32.8709241,39.8654703],[32.8709456,39.8654491],[32.8709442,39.8654224],[32.8709308,39.8653915],[32.8708986,39.8653719],[32.8708684,39.8653627],[32.8708202,39.8653694],[32.8707685,39.8654075],[32.8707155,39.8654593],[32.8706659,39.865495],[32.8707484,39.8655624],[32.8708,39.8655284]]]}},{"type":"Feature","properties":{"natural":"water","osm_id":701047686},"geometry":{"type":"Polygon","coordinates":[[[32.8708094,39.8651506],[32.8708257,39.8651629],[32.8708771,39.8651625],[32.8708775,39.8652006],[32.8708924,39.8652199],[32.8709187,39.8652197],[32.8709197,39.8653081],[32.8707698,39.8653091],[32.8707703,39.8653534],[32.8707591,39.8653735],[32.8707384,39.8653884],[32.8707048,39.8653956],[32.8706733,39.8653915],[32.8706445,39.8653766],[32.8706277,39.8653543],[32.8706256,39.8651518],[32.8708094,39.8651506]]]}},{"type":"Feature","properties":{"natural":"water","osm_id":701047687},"geometry":{"type":"Polygon","coordinates":[[[32.8709523,39.8652134],[32.8709516,39.8653236],[32.8709744,39.8653277],[32.8709925,39.8653364],[32.8710032,39.8653488],[32.8710063,39.865366],[32.8712654,39.8653669],[32.8712983,39.865355],[32.8713177,39.8653369],[32.8713202,39.8652947],[32.8713687,39.8652949],[32.8713692,39.8652149],[32.8709523,39.8652134]]]}},{"type":"Feature","properties":{"natural":"water","osm_id":701371423},"geometry":{"type":"Polygon","coordinates":[[[32.8854409,39.8658403],[32.8853792,39.8657991],[32.8854121,39.8657742],[32.8854157,39.865769],[32.8854157,39.8657621],[32.8854,39.8657523],[32.8854251,39.8657273],[32.8854893,39.86577],[32.8854975,39.8657755],[32.8854861,39.8657863],[32.8854915,39.8657971],[32.8855032,39.8658045],[32.8855029,39.8658197],[32.8854872,39.8658357],[32.8854613,39.8658581],[32.8854526,39.8658627],[32.8854382,39.8658614],[32.8854335,39.8658552],[32.8854332,39.8658488],[32.8854409,39.8658403]]]}},{"type":"Feature","properties":{"name":"Eymir Gölü","name:en":"Lake Eymir","natural":"water","opening_hours":"05:00-23:30","source":"Landsat","water":"lake","wikidata":"Q4810695","wikimedia_commons":"Category:Lake Eymir","wikipedia":"en:Lake Eymir","osm_id":729243281},"geometry":{"type":"Polygon","coordinates":[[[32.8167817,39.8170472],[32.8167434,39.8172282],[32.8166791,39.8174477],[32.8165323,39.8176323],[32.8164536,39.8177984],[32.8163847,39.8180196],[32.8163499,39.8183039],[32.8163257,39.8184522],[32.8162882,39.8185614],[32.8162935,39.8187551],[32.8163472,39.8189446],[32.8163955,39.8191753],[32.8164571,39.8193257],[32.8164867,39.8194246],[32.816551,39.819678],[32.8165591,39.8199026],[32.8165269,39.82009],[32.8164731,39.8202359],[32.8164142,39.8203022],[32.8163472,39.8203599],[32.8163338,39.8204402],[32.8163525,39.8205082],[32.8163391,39.82057],[32.8162949,39.8206267],[32.8161299,39.8207287],[32.8159194,39.8208389],[32.8157678,39.8209151],[32.8156799,39.820984],[32.8156552,39.821082],[32.8156672,39.8211644],[32.815686,39.8213096],[32.8157142,39.8213343],[32.8157504,39.8213384],[32.8157946,39.8213673],[32.8158201,39.8214435],[32.8157879,39.8214826],[32.8157531,39.8215063],[32.8157464,39.8215424],[32.8157665,39.8215815],[32.8158309,39.8216227],[32.8158818,39.8216783],[32.8158885,39.8217226],[32.8158778,39.8217937],[32.8158952,39.8218957],[32.8158738,39.8219647],[32.8158376,39.8220152],[32.8158349,39.822078],[32.8158563,39.8221388],[32.8158751,39.8222088],[32.8158724,39.8222922],[32.8158952,39.8223293],[32.8158912,39.8223582],[32.8158738,39.8223788],[32.8158389,39.8223994],[32.8158268,39.8224282],[32.8158469,39.8224797],[32.8158684,39.8225168],[32.815918,39.8225363],[32.8159757,39.8225528],[32.8160267,39.8226301],[32.8160897,39.8227135],[32.8161715,39.822732],[32.8163096,39.8227403],[32.8164156,39.8227434],[32.8165765,39.8228031],[32.8166664,39.8228258],[32.816779,39.8228217],[32.8168327,39.8228144],[32.8168769,39.8228186],[32.8169252,39.8228412],[32.8169668,39.8229164],[32.8170405,39.8229875],[32.8171357,39.82304],[32.8173865,39.8231935],[32.8175502,39.8233367],[32.8176829,39.8234376],[32.8177969,39.8235354],[32.8179887,39.823657],[32.8181832,39.8237559],[32.8183025,39.823864],[32.8184474,39.8239073],[32.818615,39.8239341],[32.8188966,39.8240453],[32.8191045,39.8241473],[32.8192466,39.8241946],[32.8194036,39.8242369],[32.81959,39.8242657],[32.8197348,39.8242595],[32.8199588,39.8242688],[32.8201707,39.8243172],[32.820349,39.8243831],[32.8204603,39.8244614],[32.8205703,39.824515],[32.8206857,39.8245222],[32.8208359,39.8244944],[32.8209552,39.8245181],[32.8210182,39.8245829],[32.8213415,39.8247076],[32.8215091,39.8247786],[32.8216016,39.824861],[32.8217478,39.8249208],[32.8218363,39.8249208],[32.8219114,39.8249321],[32.8220227,39.8250011],[32.8221072,39.8250897],[32.8222279,39.8251649],[32.8224492,39.8253142],[32.8225739,39.8254255],[32.8226812,39.8255037],[32.822763,39.8255624],[32.8229012,39.8256078],[32.8231144,39.8256139],[32.8233236,39.825651],[32.8234979,39.8256315],[32.8237206,39.8256242],[32.8238909,39.8256428],[32.8240196,39.82565],[32.8241725,39.8256974],[32.8242771,39.8257509],[32.824363,39.8257952],[32.8245091,39.8258323],[32.8246433,39.8258447],[32.8247586,39.8258302],[32.8248672,39.8258127],[32.8250523,39.8258385],[32.8252146,39.825858],[32.8252642,39.8258859],[32.8253755,39.8259106],[32.8255203,39.8259487],[32.8257456,39.8259899],[32.8258999,39.8259889],[32.8261144,39.8259487],[32.8263505,39.8259147],[32.8264175,39.8258786],[32.8264591,39.8258704],[32.8265007,39.8258786],[32.8267635,39.8258199],[32.8270505,39.825789],[32.8273603,39.8257056],[32.8275387,39.8256562],[32.827599,39.8256603],[32.827646,39.8256582],[32.8276728,39.8256438],[32.8278324,39.8255758],[32.8278995,39.8255295],[32.8280027,39.825514],[32.8280483,39.8254873],[32.8280537,39.8254625],[32.8280765,39.8254522],[32.8281073,39.8254533],[32.8282092,39.8254358],[32.8282602,39.8254028],[32.8282964,39.8253904],[32.8283836,39.8253791],[32.828574,39.8252957],[32.8286263,39.8253122],[32.8286947,39.8252916],[32.8287578,39.825237],[32.8287953,39.8252205],[32.8288986,39.825202],[32.8291453,39.825135],[32.8293411,39.8251],[32.829541,39.8250536],[32.8295866,39.8250536],[32.8296027,39.825067],[32.8296415,39.8250753],[32.8296858,39.8250629],[32.8297234,39.8250495],[32.8297649,39.8250495],[32.8298092,39.8250639],[32.8298374,39.8250516],[32.8299339,39.8250269],[32.8299956,39.8250351],[32.8300425,39.825032],[32.8301834,39.825032],[32.830359,39.8250567],[32.8305052,39.8250876],[32.8306407,39.8251556],[32.8307265,39.8252277],[32.8307614,39.8252854],[32.8308231,39.8254316],[32.830862,39.8255037],[32.8308593,39.8255388],[32.8308579,39.8255707],[32.8308821,39.8255923],[32.8309223,39.825718],[32.8309277,39.8258261],[32.8309116,39.8258601],[32.8308915,39.8258848],[32.83087,39.8259178],[32.8308633,39.8259487],[32.83087,39.8259755],[32.830874,39.8259971],[32.8308552,39.8260434],[32.8308137,39.8260795],[32.8307842,39.8261083],[32.8307627,39.8261403],[32.8307332,39.8262113],[32.8306782,39.8263411],[32.8306648,39.826407],[32.8306259,39.8264698],[32.8305629,39.8265265],[32.8304905,39.82658],[32.83041,39.8266274],[32.8303818,39.826646],[32.8303483,39.8266532],[32.8302839,39.8266429],[32.8302021,39.8266542],[32.8301753,39.8266882],[32.8301337,39.8267098],[32.8300318,39.8267212],[32.8299527,39.8267428],[32.8299125,39.8267726],[32.8298467,39.8268447],[32.8295043,39.8269945],[32.8291865,39.8270746],[32.8289587,39.8272013],[32.8286255,39.8272887],[32.8282516,39.8274555],[32.8275758,39.8279064],[32.8268844,39.8283982],[32.8267925,39.8285246],[32.8266651,39.8286215],[32.8266202,39.8287421],[32.8265351,39.8287976],[32.8265565,39.8291683],[32.8264537,39.8296747],[32.8266377,39.8298231],[32.8266702,39.8299766],[32.8273293,39.830147],[32.8274571,39.8302552],[32.827402,39.8303021],[32.8275061,39.8303736],[32.8276051,39.8303661],[32.8280461,39.8306125],[32.8281477,39.8307405],[32.8283644,39.8308406],[32.8285311,39.8310033],[32.8287193,39.8313993],[32.8289018,39.8315701],[32.8291279,39.8318531],[32.8295304,39.8321994],[32.8296964,39.8323514],[32.8297369,39.8324069],[32.8298394,39.8323354],[32.8299607,39.832336],[32.8302848,39.8321833],[32.8305073,39.8320429],[32.8308477,39.8319117],[32.8314382,39.831836],[32.831847,39.8318815],[32.8324813,39.8321352],[32.8326418,39.8322166],[32.8327127,39.8322235],[32.8328462,39.8320862],[32.8328744,39.8318513],[32.8335313,39.8312801],[32.8339646,39.8311058],[32.8342251,39.8309741],[32.8347682,39.8308785],[32.835072,39.8307762],[32.8354244,39.830587],[32.8357079,39.8304128],[32.8359475,39.8302811],[32.8362122,39.8302697],[32.8364166,39.8303829],[32.837116,39.8304431],[32.8376914,39.8304885],[32.838191,39.8304431],[32.8385847,39.8302917],[32.8386741,39.8302898],[32.8387579,39.8303069],[32.838886,39.8302994],[32.8390114,39.8302718],[32.8391268,39.830298],[32.8397301,39.8304244],[32.8400449,39.8306623],[32.8405878,39.8308852],[32.8409748,39.8310903],[32.8414364,39.8311889],[32.8417661,39.8312394],[32.8423278,39.8311446],[32.8428081,39.8310172],[32.8430529,39.8308795],[32.8433697,39.8306332],[32.8435523,39.8305584],[32.8436968,39.8304714],[32.843805,39.8303636],[32.8441028,39.8303026],[32.8442625,39.8300706],[32.8440596,39.830001],[32.8437323,39.8298887],[32.8434817,39.829691],[32.8431095,39.8294748],[32.8426515,39.8292087],[32.8422222,39.8289358],[32.841947,39.8288599],[32.8415586,39.8289634],[32.8407376,39.8290042],[32.8404275,39.8290326],[32.8399686,39.8290107],[32.8397888,39.8289775],[32.8394629,39.8289138],[32.8390053,39.8287984],[32.8386563,39.8288348],[32.8382217,39.8288567],[32.8380481,39.8288231],[32.8379996,39.8287887],[32.8374337,39.8285886],[32.8369005,39.8281931],[32.8363901,39.828048],[32.8351459,39.8280012],[32.8344793,39.8281097],[32.8339506,39.8284336],[32.8334023,39.8287213],[32.8330068,39.8290306],[32.8327667,39.8292623],[32.8323164,39.8295615],[32.8319148,39.8299201],[32.8317762,39.8300423],[32.8313044,39.8300971],[32.8307981,39.8299965],[32.8302329,39.829821],[32.8297801,39.8297966],[32.8294276,39.8298672],[32.829002,39.8300782],[32.8288312,39.8302046],[32.8286966,39.8301682],[32.828666,39.8300813],[32.8289788,39.8297228],[32.8292344,39.8295277],[32.829839,39.8291925],[32.8306595,39.8289785],[32.8312593,39.8287206],[32.8318468,39.8284346],[32.8323225,39.828162],[32.8332098,39.8275158],[32.8339031,39.8270366],[32.8345043,39.8267298],[32.8346382,39.8265158],[32.8346905,39.8264159],[32.8347159,39.8263078],[32.8346997,39.8260937],[32.8347021,39.825809],[32.8346133,39.8258117],[32.8345953,39.8256241],[32.8346937,39.8256186],[32.8346854,39.8254499],[32.8346811,39.8252549],[32.83465,39.8250929],[32.8343792,39.8246703],[32.8342974,39.8243892],[32.834168,39.824142],[32.8339674,39.8238971],[32.8337419,39.8236666],[32.8335662,39.8233778],[32.8333158,39.8231571],[32.8325596,39.8228388],[32.8322938,39.8227561],[32.8319996,39.8227277],[32.8319462,39.8227738],[32.8317039,39.8227],[32.8316635,39.8228422],[32.8312502,39.8226915],[32.830499,39.8224176],[32.8302961,39.8223436],[32.8301165,39.8222781],[32.8301511,39.8221676],[32.8297938,39.8220359],[32.8293107,39.822061],[32.8290032,39.8221594],[32.8288035,39.8222763],[32.828656,39.8224316],[32.828486,39.8224809],[32.828415,39.8225628],[32.8283455,39.822683],[32.8282653,39.8227898],[32.8280772,39.8228884],[32.8280951,39.8229582],[32.8280299,39.8230319],[32.8277484,39.8230937],[32.8275973,39.8231283],[32.8275257,39.8232461],[32.827321,39.8232344],[32.8271696,39.8231476],[32.8266279,39.8231894],[32.8264172,39.8232618],[32.8260472,39.8231629],[32.8254001,39.8230547],[32.8247742,39.8228733],[32.8241817,39.8227996],[32.8235651,39.8227988],[32.8230226,39.8228726],[32.8226144,39.8229013],[32.8222757,39.8229029],[32.8219132,39.8228781],[32.8216074,39.8228074],[32.8213904,39.8226516],[32.8211735,39.822485],[32.8209405,39.822241],[32.8207925,39.8219861],[32.8203646,39.8213816],[32.8202055,39.8207329],[32.8201402,39.8203759],[32.8201456,39.8200978],[32.8202458,39.8197335],[32.8203879,39.8195567],[32.8204628,39.8193572],[32.8203278,39.8188862],[32.8203291,39.8186746],[32.8205272,39.8184393],[32.8206357,39.8182058],[32.8206675,39.8180525],[32.8206546,39.8176859],[32.8206981,39.8173812],[32.8206722,39.8171646],[32.8207675,39.817074],[32.8208412,39.816971],[32.8209056,39.8167763],[32.8209431,39.8165301],[32.8210022,39.8162417],[32.8210706,39.8160253],[32.8210799,39.8159306],[32.8210182,39.8157421],[32.8209726,39.8156092],[32.8209606,39.8154783],[32.8209606,39.8154083],[32.8209794,39.8153558],[32.8210786,39.8152249],[32.8211872,39.8150859],[32.8212355,39.8149375],[32.8212449,39.8148077],[32.821257,39.8146285],[32.8212516,39.8145605],[32.8212194,39.8144462],[32.8211926,39.8143638],[32.8211322,39.8142638],[32.8210545,39.8141989],[32.8210142,39.8141258],[32.8209324,39.8139126],[32.820864,39.8137148],[32.8208064,39.8136725],[32.8207165,39.8136293],[32.8203515,39.8136383],[32.8198796,39.8136633],[32.8195216,39.8136797],[32.819252,39.8137065],[32.8188376,39.8137652],[32.8184809,39.8138384],[32.8181261,39.81392],[32.817762,39.8139775],[32.8165309,39.8142638],[32.816138,39.8143349],[32.8159314,39.8143823],[32.8158094,39.8144225],[32.8157558,39.8144709],[32.8157207,39.8145371],[32.8157249,39.8146481],[32.8157558,39.8147861],[32.8157946,39.8148953],[32.8158778,39.8150859],[32.8159598,39.8152477],[32.8159945,39.8153073],[32.8161326,39.8154773],[32.816205,39.8155453],[32.8162801,39.8156318],[32.8163096,39.815707],[32.8163861,39.8157245],[32.8164183,39.81581],[32.8164773,39.8158379],[32.8164907,39.8159028],[32.816484,39.8159275],[32.8164545,39.8159594],[32.8163847,39.8160161],[32.8163338,39.8161211],[32.8162801,39.8162035],[32.8163338,39.8163117],[32.8163794,39.816493],[32.8165242,39.8166887],[32.8167227,39.8168577],[32.8167817,39.8170472]]]}},{"type":"Feature","properties":{"natural":"water","osm_id":850868111},"geometry":{"type":"Polygon","coordinates":[[[32.8498439,39.8747501],[32.8498143,39.8747917],[32.8498123,39.8748266],[32.8498429,39.8748561],[32.8498765,39.8748637],[32.8499041,39.8749015],[32.8499249,39.8749409],[32.8499278,39.8749735],[32.8499594,39.8750106],[32.8500038,39.8750477],[32.8500334,39.8750318],[32.8500334,39.8749992],[32.8500235,39.874953],[32.8500107,39.8749394],[32.849988,39.8749273],[32.8499594,39.8749015],[32.8499426,39.8748584],[32.8499643,39.8748394],[32.8499772,39.874819],[32.8499831,39.8747902],[32.8499653,39.8747644],[32.8499298,39.8747425],[32.8498962,39.8747334],[32.8498439,39.8747501]]]}},{"type":"Feature","properties":{"natural":"water","osm_id":850868113},"geometry":{"type":"Polygon","coordinates":[[[32.8500518,39.8756558],[32.8500875,39.8756769],[32.8501199,39.8756122],[32.8501199,39.8755586],[32.8501199,39.8755063],[32.8501183,39.875459],[32.8501183,39.8753993],[32.850081,39.8754702],[32.8500891,39.875581],[32.8500761,39.8756196],[32.8500518,39.8756558]]]}},{"type":"Feature","properties":{"natural":"water","water":"pond","osm_id":850868114},"geometry":{"type":"Polygon","coordinates":[[[32.8499982,39.8757006],[32.8500599,39.8757429],[32.850055,39.8757927],[32.8500648,39.8758351],[32.8501102,39.8758624],[32.8501864,39.8759284],[32.8502157,39.8760031],[32.850253,39.8761264],[32.8502546,39.8762372],[32.8502432,39.8763991],[32.8502384,39.8764551],[32.8502513,39.8765111],[32.8502335,39.8766282],[32.8502238,39.8767129],[32.8502173,39.8768087],[32.8502238,39.876932],[32.8502075,39.8770441],[32.8502108,39.8771349],[32.8501946,39.8772246],[32.8501832,39.8773068],[32.8501848,39.8774039],[32.85018,39.8774761],[32.8501881,39.8775259],[32.8501816,39.8776492],[32.8501718,39.8777289],[32.8501621,39.8777737],[32.8501589,39.8778397],[32.8501443,39.8779231],[32.8500907,39.877999],[32.8500485,39.8780476],[32.849969,39.8781024],[32.8499366,39.8781347],[32.8499577,39.8781584],[32.8499512,39.8782443],[32.849935,39.8782456],[32.8499074,39.8783265],[32.8498863,39.8783252],[32.8498279,39.8784448],[32.8498036,39.8784659],[32.8497679,39.878522],[32.8497143,39.8786178],[32.8496819,39.8786477],[32.8496575,39.8786788],[32.8496105,39.8787585],[32.8495732,39.8788033],[32.8495586,39.8788532],[32.8495261,39.8789266],[32.8495066,39.8789416],[32.8494158,39.8791034],[32.8493866,39.879152],[32.8493671,39.8791918],[32.8493541,39.8792391],[32.8493249,39.8792578],[32.8493055,39.8793138],[32.849286,39.879386],[32.8492649,39.8794309],[32.8492649,39.8794607],[32.8492535,39.8795105],[32.8492292,39.8795504],[32.8492211,39.8795902],[32.8491822,39.8796774],[32.84914,39.8797272],[32.8490816,39.879762],[32.8490345,39.8797807],[32.8489972,39.8797994],[32.8489777,39.879828],[32.8490086,39.8798965],[32.8489615,39.87996],[32.8488723,39.8799837],[32.8488025,39.8800434],[32.8487425,39.8800745],[32.8487133,39.8801019],[32.8486824,39.8801754],[32.8486614,39.8801742],[32.8486159,39.8801966],[32.8485283,39.8802937],[32.8483969,39.8803821],[32.8483385,39.8804144],[32.8481341,39.8805365],[32.8479929,39.8806112],[32.8478923,39.8806385],[32.847795,39.8806373],[32.8477512,39.8806498],[32.8476992,39.8806771],[32.8476311,39.8807357],[32.8475727,39.8807593],[32.8475094,39.8807855],[32.8474445,39.8808029],[32.8473942,39.8808315],[32.847245,39.8808739],[32.847232,39.880895],[32.8471817,39.8809],[32.8471168,39.8809423],[32.8470892,39.8809436],[32.8470048,39.8809934],[32.8468848,39.881032],[32.8467761,39.8810569],[32.8466593,39.8810955],[32.8465684,39.8811291],[32.8465863,39.881154],[32.8464543,39.8812153],[32.8464042,39.8811631],[32.8467631,39.8810332],[32.8469935,39.8809498],[32.8470811,39.880895],[32.8471898,39.8808415],[32.8473731,39.8808066],[32.84749,39.8807481],[32.8475841,39.880712],[32.8476665,39.8806596],[32.8477209,39.8806218],[32.8477791,39.8806062],[32.847893,39.8806092],[32.8479829,39.8805849],[32.8480208,39.8805567],[32.8480348,39.8805179],[32.8480259,39.88048],[32.8480664,39.8804353],[32.8481499,39.8803907],[32.8482258,39.8804013],[32.8483195,39.880381],[32.8483891,39.8803528],[32.8484865,39.8802926],[32.8485295,39.8802295],[32.8486168,39.8801751],[32.8486409,39.8801372],[32.8486801,39.880076],[32.8487472,39.8800275],[32.848894,39.8799372],[32.8489092,39.879911],[32.8488763,39.879844],[32.8489547,39.8797663],[32.8490433,39.8797187],[32.8490787,39.8796828],[32.8491116,39.879607],[32.8491407,39.8795342],[32.8492053,39.8794866],[32.8492141,39.8794458],[32.8492116,39.8794245],[32.8492483,39.8793186],[32.84929,39.8792827],[32.8493014,39.8792467],[32.8493179,39.8792128],[32.8493495,39.8791535],[32.8493812,39.8790855],[32.8494394,39.8790234],[32.8494571,39.8789865],[32.8494824,39.8788972],[32.8495204,39.8788311],[32.8495495,39.8787612],[32.8495824,39.8786806],[32.8496203,39.8786505],[32.8496798,39.8785796],[32.8497684,39.8784349],[32.8498278,39.8783349],[32.8498304,39.8783058],[32.8498683,39.8782417],[32.8498481,39.8781873],[32.8498101,39.8781349],[32.8499354,39.8780873],[32.8500771,39.8779649],[32.8501151,39.8778882],[32.8501138,39.8778513],[32.850129,39.877795],[32.8501391,39.8777406],[32.8501429,39.8776882],[32.8501315,39.8776202],[32.8501341,39.8775289],[32.850129,39.8774784],[32.8501442,39.8774269],[32.8501353,39.8773502],[32.8501366,39.877291],[32.8501429,39.8772531],[32.8501202,39.8771968],[32.8501594,39.8771133],[32.8501493,39.8770414],[32.8501657,39.8769589],[32.8501632,39.8769297],[32.8501531,39.8768025],[32.8501847,39.876719],[32.8502049,39.8766209],[32.8502201,39.8765219],[32.8502189,39.8764578],[32.8502252,39.8763752],[32.8502138,39.8763131],[32.8502113,39.8762713],[32.850191,39.8762121],[32.8501885,39.8761732],[32.8501505,39.8761179],[32.8501607,39.8760499],[32.8501569,39.8759858],[32.850148,39.8759295],[32.8500999,39.8758819],[32.8500582,39.8758566],[32.8500101,39.875845],[32.8499873,39.8758042],[32.8499873,39.8757527],[32.8499982,39.8757006]]]}},{"type":"Feature","properties":{"intermittent":"yes","natural":"water","osm_id":908798575},"geometry":{"type":"Polygon","coordinates":[[[32.8495323,39.874555],[32.8495208,39.874584],[32.8495185,39.8746047],[32.84952,39.8746289],[32.8495346,39.8746478],[32.8495601,39.8746626],[32.8496047,39.8746762],[32.8496687,39.8746804],[32.8497395,39.8746764],[32.8497796,39.8746739],[32.849825,39.8746632],[32.8498743,39.874649],[32.8499051,39.8746319],[32.8499229,39.874613],[32.8499431,39.8745839],[32.8499514,39.8745722],[32.8499567,39.8745521],[32.8499514,39.8745278],[32.8499367,39.8745125],[32.8499144,39.8745018],[32.8498697,39.87449],[32.849825,39.8744835],[32.8497831,39.8744835],[32.8497357,39.8744859],[32.8496833,39.8744965],[32.8496348,39.8745066],[32.8495932,39.8745202],[32.8495539,39.8745367],[32.8495323,39.874555]]]}},{"type":"Feature","properties":{"natural":"water","osm_id":957180955},"geometry":{"type":"Polygon","coordinates":[[[32.8419298,39.8445273],[32.8420113,39.8445257],[32.8420584,39.8444894],[32.8420557,39.8444288],[32.8420058,39.8443936],[32.8419286,39.8443958],[32.8418843,39.8444301],[32.8418855,39.8444867],[32.8419298,39.8445273]]]}},{"type":"Feature","properties":{"natural":"water","water":"reservoir","osm_id":1052218637},"geometry":{"type":"Polygon","coordinates":[[[32.8036375,39.8775242],[32.803533,39.877517],[32.8035378,39.8776161],[32.8033846,39.8776272],[32.803399,39.8775243],[32.8032841,39.877528],[32.8032937,39.8772635],[32.8036622,39.8772599],[32.8036375,39.8775242]]]}},{"type":"Feature","properties":{"natural":"water","water":"reservoir","osm_id":1052220314},"geometry":{"type":"Polygon","coordinates":[[[32.8061217,39.8729764],[32.8061183,39.8728715],[32.8060084,39.8728613],[32.8060217,39.8725876],[32.8063916,39.8725978],[32.806385,39.8728664],[32.806255,39.8728664],[32.8062616,39.8729713],[32.8061217,39.8729764]]]}},{"type":"Feature","properties":{"name":"Marina Göleti","natural":"water","water":"pond","osm_id":1182396989},"geometry":{"type":"Polygon","coordinates":[[[32.8522647,39.8420392],[32.8522916,39.8420208],[32.8523046,39.8420147],[32.852319,39.8420098],[32.8523419,39.8420043],[32.8523796,39.8420037],[32.8524145,39.8420105],[32.8524405,39.8420235],[32.8524598,39.8420355],[32.8524762,39.842048],[32.852492,39.8420624],[32.8525033,39.8420768],[32.8525112,39.8420905],[32.8525167,39.8421066],[32.8525192,39.8421221],[32.8525184,39.8421371],[32.8525143,39.8421522],[32.8525092,39.8421646],[32.852501,39.8421753],[32.8524891,39.8421871],[32.8524762,39.8421968],[32.8524531,39.8422085],[32.8524405,39.8422158],[32.8524296,39.8422244],[32.8524222,39.8422345],[32.8524169,39.8422468],[32.8521545,39.8422984],[32.8520164,39.8423255],[32.8520099,39.8423077],[32.8519988,39.8422892],[32.8519847,39.842274],[32.8519608,39.8422569],[32.8519336,39.8422448],[32.851898,39.8422384],[32.8518726,39.8422373],[32.8518486,39.8422417],[32.8517884,39.8422504],[32.8517638,39.8422534],[32.8517342,39.842256],[32.8517161,39.8422552],[32.8516986,39.8422527],[32.8516706,39.8422439],[32.8516455,39.842232],[32.8516237,39.8422188],[32.8516056,39.8422037],[32.8515922,39.8421865],[32.851579,39.8421674],[32.8515617,39.8421434],[32.8516161,39.8420633],[32.8516743,39.8419885],[32.8517104,39.8419529],[32.8517321,39.841934],[32.8517534,39.8419183],[32.8517716,39.8419058],[32.8517897,39.841895],[32.8518242,39.8418786],[32.8518619,39.8418652],[32.8518941,39.8418563],[32.8519243,39.8418499],[32.851956,39.8418451],[32.8519913,39.8418409],[32.8520267,39.8418384],[32.852063,39.8418365],[32.8521,39.8418364],[32.8521648,39.8418402],[32.8522045,39.8418431],[32.8521842,39.8418823],[32.8521292,39.8418791],[32.8520664,39.8418781],[32.8520314,39.8418797],[32.8519968,39.8418836],[32.8519662,39.8418881],[32.8519339,39.8418952],[32.8518816,39.8419092],[32.8518339,39.8419257],[32.8518014,39.8419419],[32.8517735,39.8419617],[32.8517505,39.841984],[32.8517308,39.84201],[32.8517248,39.8420312],[32.8517195,39.8420544],[32.8517182,39.8420795],[32.8517198,39.8421061],[32.8517252,39.8421325],[32.8517348,39.8421574],[32.8517455,39.8421761],[32.8517678,39.8421965],[32.8517921,39.8422043],[32.8518202,39.8422083],[32.8518455,39.842205],[32.851863,39.8421975],[32.8518913,39.8421791],[32.8519029,39.842162],[32.8519046,39.8421384],[32.8519025,39.8421133],[32.8519015,39.8420911],[32.851903,39.8420684],[32.8519119,39.8420522],[32.8519287,39.8420413],[32.8519556,39.8420344],[32.8519763,39.8420351],[32.8519924,39.8420417],[32.8520055,39.8420554],[32.852024,39.8420728],[32.8520395,39.842082],[32.852057,39.8420898],[32.8520727,39.8420945],[32.8521008,39.8421014],[32.8521146,39.8421027],[32.8521293,39.8421032],[32.8521454,39.8421017],[32.8521594,39.8420987],[32.8521841,39.8420893],[32.8522099,39.8420765],[32.852237,39.8420598],[32.8522647,39.8420392]]]}},{"type":"Feature","properties":{"natural":"water","osm_id":1209951066},"geometry":{"type":"Polygon","coordinates":[[[32.8552877,39.8472763],[32.855347,39.8472408],[32.8555822,39.8474725],[32.8555228,39.8475081],[32.8552877,39.8472763]]]}},{"type":"Feature","properties":{"natural":"water","salt":"no","water":"pond","osm_id":1304236860},"geometry":{"type":"Polygon","coordinates":[[[32.8592877,39.8381468],[32.8591837,39.8381483],[32.8590597,39.8381502],[32.8590004,39.8361192],[32.858992,39.8359577],[32.8589803,39.8358734],[32.858963,39.8358072],[32.8589442,39.8357365],[32.8589238,39.8356864],[32.8589185,39.8356734],[32.858856,39.8355605],[32.8588127,39.8354923],[32.8587662,39.8354318],[32.8587172,39.8353714],[32.858665,39.8353173],[32.8585969,39.8352514],[32.8585202,39.8351915],[32.8584545,39.8351429],[32.8583836,39.835097],[32.8582695,39.8350317],[32.8581444,39.8349761],[32.8579854,39.8349163],[32.8578243,39.8348735],[32.857676,39.8348466],[32.8575261,39.8348281],[32.8572626,39.8348188],[32.8569239,39.8348102],[32.8567399,39.8348106],[32.8565578,39.8348181],[32.8563775,39.8348297],[32.8561996,39.8348454],[32.8559589,39.8348761],[32.8556301,39.8349371],[32.8547049,39.8351423],[32.8541489,39.8352758],[32.8535832,39.8354108],[32.8530072,39.8355436],[32.8522418,39.8357258],[32.8518222,39.8358191],[32.8517086,39.8358395],[32.8515938,39.8358558],[32.8514487,39.8358703],[32.8513559,39.8358771],[32.8513559,39.8358575],[32.8513456,39.8358409],[32.8513228,39.8358251],[32.8512811,39.8358196],[32.8512282,39.835822],[32.8511864,39.835832],[32.8511532,39.8358399],[32.8511114,39.8358478],[32.851072,39.8358552],[32.8509918,39.8358588],[32.8509188,39.8358518],[32.8507073,39.8358132],[32.8506866,39.8358133],[32.8506746,39.8358217],[32.8506708,39.8358347],[32.8506063,39.8358246],[32.8504693,39.8357938],[32.8503336,39.8357576],[32.8502024,39.8357124],[32.8500767,39.8356669],[32.8499538,39.8356174],[32.8499519,39.8355846],[32.8499489,39.8355543],[32.8499459,39.8355361],[32.8499293,39.8355252],[32.8498997,39.8355199],[32.8498626,39.8355167],[32.8498218,39.8355265],[32.8497889,39.8355355],[32.8497468,39.8355108],[32.8496544,39.8354533],[32.8495039,39.8353525],[32.8493973,39.8352705],[32.8493313,39.8352152],[32.8493153,39.8351997],[32.8494717,39.8350886],[32.8494893,39.8351031],[32.8495145,39.8350815],[32.8495394,39.8351328],[32.849663,39.8352328],[32.8497903,39.8353179],[32.849947,39.8354093],[32.8500609,39.8354631],[32.8501781,39.8355125],[32.8503383,39.8355702],[32.8505095,39.8356218],[32.8505837,39.8356628],[32.8506803,39.8357032],[32.850789,39.835728],[32.8509111,39.8357415],[32.8510398,39.8357418],[32.8511517,39.8357306],[32.8512559,39.8357061],[32.8513376,39.8357029],[32.8514213,39.8356985],[32.8516112,39.8356747],[32.8517146,39.8356576],[32.8517994,39.8356407],[32.8521708,39.8355579],[32.8529431,39.8353774],[32.8535183,39.8352433],[32.8540814,39.8351095],[32.8546488,39.8349755],[32.8555724,39.8347691],[32.8559237,39.8347025],[32.8561666,39.8346717],[32.8563532,39.8346519],[32.8565376,39.8346418],[32.8567186,39.8346351],[32.8569003,39.8346359],[32.8573191,39.8346453],[32.8575455,39.8346551],[32.8576836,39.8346695],[32.857813,39.83469],[32.8579232,39.834712],[32.8580281,39.8347403],[32.8581443,39.8347777],[32.858255,39.8348229],[32.8584019,39.8348938],[32.8584822,39.8349346],[32.8585578,39.8349817],[32.8586405,39.8350367],[32.8587195,39.8351007],[32.858784,39.8351528],[32.8588444,39.8352126],[32.8589053,39.8352709],[32.8589627,39.835339],[32.8590157,39.8354124],[32.8590632,39.8354823],[32.8591058,39.8355615],[32.8591411,39.8356366],[32.8591908,39.8357845],[32.8592213,39.8359193],[32.8592348,39.8360257],[32.8592374,39.836117],[32.8592877,39.8381468]]]}},{"type":"Feature","properties":{"name":"İmrahor Deresi","source":"mapbox","waterway":"stream","osm_id":1304236861},"geometry":{"type":"LineString","coordinates":[[32.8816449,39.8653833],[32.8815073,39.8653725],[32.8813597,39.8653148],[32.881282,39.865286],[32.8811425,39.8651831],[32.8809601,39.865146],[32.8808018,39.8651522],[32.8806624,39.8651481],[32.8805792,39.8651069],[32.8804934,39.8650328],[32.8802734,39.8648948],[32.8799435,39.8648187],[32.879678,39.8647199],[32.8794768,39.8646334],[32.8793293,39.8645407],[32.8791764,39.8643472],[32.8786748,39.8635715],[32.8785353,39.863327],[32.8784469,39.8631325],[32.8783208,39.8629308],[32.8782832,39.8628299],[32.8782497,39.8626322],[32.8782457,39.8623553],[32.8782698,39.8622555],[32.8783449,39.8620578],[32.8783825,39.8618746],[32.8783825,39.8617264],[32.878294,39.8614834],[32.8782189,39.8612343]]}},{"type":"Feature","properties":{"layer":"-1","name":"İmrahor Deresi","source":"mapbox","tunnel":"culvert","waterway":"stream","osm_id":1304236862},"geometry":{"type":"LineString","coordinates":[[32.8782189,39.8612343],[32.8781995,39.8611726]]}},{"type":"Feature","properties":{"name":"Şelale","natural":"water","water":"pond","osm_id":1307959267},"geometry":{"type":"Polygon","coordinates":[[[32.8524169,39.8422468],[32.8524145,39.8422865],[32.8524169,39.8422985],[32.8524214,39.8423089],[32.8524274,39.842321],[32.8524331,39.8423341],[32.8524369,39.842349],[32.8524355,39.8423613],[32.8524307,39.8423716],[32.8524249,39.8423803],[32.8524143,39.8423868],[32.8523976,39.8423891],[32.8523815,39.8423883],[32.8523617,39.8423824],[32.8523427,39.8423747],[32.8523237,39.8423679],[32.8523027,39.8423636],[32.8522774,39.8423632],[32.852252,39.8423659],[32.8522294,39.842371],[32.8522095,39.8423777],[32.8521821,39.8423874],[32.8521545,39.8422984],[32.8524169,39.8422468]]]}},{"type":"Feature","properties":{"intermittent":"yes","waterway":"stream","osm_id":1323461736},"geometry":{"type":"LineString","coordinates":[[32.8402986,39.840152],[32.8402954,39.8401319],[32.8402831,39.8401111],[32.8402578,39.8400989],[32.8402342,39.8400922],[32.8402082,39.8400849],[32.8401921,39.8400718],[32.8401819,39.8400483],[32.8401528,39.8400166],[32.8401321,39.8399939],[32.8401144,39.8399741],[32.8400727,39.8399519],[32.8400561,39.8399334],[32.8400372,39.8399072],[32.8400141,39.8398871],[32.8399867,39.8398609],[32.839966,39.8398431],[32.8399391,39.839815],[32.8399023,39.8397868],[32.8398844,39.8397659],[32.8398737,39.8397393],[32.8398538,39.8397146],[32.8398267,39.8396881],[32.8397824,39.8396694],[32.8397565,39.8396548],[32.8397405,39.8396357],[32.8397323,39.8396128],[32.8397451,39.839578],[32.8397577,39.8395318],[32.839759,39.8395052],[32.8397697,39.8394835],[32.8397835,39.8394681],[32.8398189,39.8394502],[32.8398527,39.8394425],[32.8398774,39.8394185],[32.8398926,39.8393953],[32.8398938,39.8393801],[32.8398724,39.8393429],[32.8398634,39.8393143],[32.83986,39.8392894],[32.8398587,39.8392694],[32.8398699,39.8392397],[32.8398877,39.8392211],[32.8398935,39.8392074],[32.8398935,39.8391825],[32.8398885,39.8391594],[32.8398856,39.8391426],[32.8399002,39.8391123],[32.8399222,39.8390884],[32.8399332,39.8390616],[32.8399274,39.839019],[32.839929,39.8389932],[32.8399437,39.8389543],[32.8399756,39.8389296],[32.8400034,39.8389117],[32.8400219,39.8389],[32.8400419,39.8388698],[32.840051,39.8388444],[32.8400731,39.8388078],[32.840092,39.8387899],[32.8401316,39.8387526],[32.8401537,39.8387227],[32.8401645,39.8386884],[32.8401738,39.8386514],[32.8401792,39.8386088],[32.840173,39.8385449],[32.8401683,39.8385259],[32.8401469,39.8384959],[32.8401183,39.8384824],[32.8400974,39.8384744],[32.840085,39.8384572],[32.8400771,39.8384392],[32.8400587,39.8384272],[32.8400256,39.838417],[32.8399834,39.8383877],[32.8399442,39.838359],[32.8399148,39.8383397],[32.839899,39.8383206],[32.8398949,39.8383042],[32.8398941,39.838277],[32.8398937,39.8382492],[32.8398859,39.8382249],[32.8398864,39.8381954],[32.8398843,39.8381604],[32.8398849,39.8381289],[32.8398818,39.838111],[32.8398677,39.8380951],[32.8398583,39.8380712],[32.8398601,39.8380474],[32.8398693,39.8380338],[32.8398764,39.8380063],[32.8398772,39.8379844],[32.8398753,39.8379697],[32.8398531,39.837941],[32.8398344,39.8379298],[32.8398089,39.837911],[32.8397994,39.8378898],[32.8397909,39.8378524],[32.8397951,39.8378244],[32.8398036,39.8378015],[32.839804,39.8377526],[32.8398025,39.8377338],[32.8397938,39.8377032],[32.8397752,39.8376899],[32.8397426,39.8376662],[32.8397146,39.8376366],[32.8397094,39.8376157],[32.8397139,39.8375586],[32.8397203,39.8375238],[32.8397286,39.8374983],[32.8397331,39.8374616],[32.8397349,39.8374309],[32.8397329,39.8373983],[32.8397287,39.8373664],[32.8397245,39.837326],[32.839719,39.8372937],[32.8397057,39.8372666],[32.8396913,39.8372311],[32.8396885,39.8371943],[32.8396819,39.8371496],[32.8396786,39.8371159],[32.8396768,39.8370829],[32.8396827,39.8370314],[32.8396996,39.8369963],[32.8397146,39.8369729],[32.8397457,39.8369486],[32.8397806,39.8369358],[32.8398057,39.8369326],[32.8398399,39.8369218],[32.8398611,39.8369077],[32.8398916,39.8368952],[32.8399112,39.8368891],[32.8399421,39.8368743],[32.8399553,39.8368537],[32.8399644,39.8368259],[32.8399686,39.8368015],[32.8399742,39.8367861],[32.8399839,39.8367779],[32.8400152,39.8367662],[32.8400403,39.8367482],[32.8400596,39.8367241],[32.8400739,39.8366969],[32.8401049,39.8366496],[32.8401068,39.8366307],[32.8401111,39.8366099],[32.8401141,39.836592],[32.8401246,39.836579],[32.8401384,39.8365646],[32.8401943,39.8365266],[32.8402172,39.8365019],[32.8402215,39.8364746],[32.8402362,39.8364378],[32.8402573,39.8364076],[32.8402756,39.8363863],[32.8403971,39.836284],[32.8404223,39.8362684],[32.8404559,39.8362569],[32.8404915,39.8362505],[32.8405265,39.8362476],[32.8405859,39.8362436],[32.8406249,39.8362447],[32.84066,39.8362459],[32.8407145,39.8362499],[32.8407697,39.8362494],[32.8408068,39.8362386],[32.8408332,39.8362245],[32.840851,39.8362038],[32.8409273,39.8361045],[32.8409514,39.8360618],[32.8409846,39.8360044],[32.8410257,39.8359693],[32.8410585,39.835948],[32.8410996,39.8359299],[32.8412311,39.8359125],[32.8413098,39.8359035],[32.8413763,39.8358823],[32.8414372,39.8358518],[32.8414806,39.8358293],[32.8415364,39.8358153],[32.8415786,39.8358087],[32.8416135,39.8358093],[32.8416496,39.8358139],[32.8416743,39.835821],[32.8417149,39.8358265],[32.8417436,39.8358259],[32.8417729,39.8358349],[32.8418129,39.8358523],[32.8418468,39.8358664],[32.8419067,39.8358884],[32.8419629,39.8358988],[32.8419886,39.8359008],[32.8420159,39.8358965],[32.842043,39.8358961],[32.8420781,39.8359021],[32.8421177,39.8359032],[32.8421655,39.8359003],[32.8422051,39.8358879],[32.8422362,39.8358748],[32.8422896,39.835866],[32.8423319,39.8358638],[32.8423796,39.8358589],[32.8424239,39.8358525],[32.8424724,39.8358418],[32.8425276,39.8358423],[32.8425654,39.8358396],[32.8425863,39.8358295],[32.8426151,39.835804],[32.8426335,39.8357748],[32.8426564,39.835765],[32.8426834,39.8357594],[32.8427261,39.835756],[32.8427675,39.8357455],[32.8428028,39.8357244],[32.8428358,39.8356984],[32.8428732,39.83567],[32.8429098,39.8356487],[32.8429562,39.8356281],[32.8430317,39.8356008],[32.8430822,39.8355808],[32.8431711,39.8355418],[32.8432083,39.8355166],[32.8432517,39.8354875],[32.8432948,39.8354685],[32.8433173,39.8354629],[32.843352,39.8354533],[32.8433844,39.8354388],[32.8434042,39.8354184],[32.8434258,39.8353875],[32.843463,39.8353665],[32.8435187,39.835349],[32.843571,39.835346],[32.843621,39.8353517],[32.8437491,39.8353703],[32.8438468,39.8353801],[32.8439387,39.8353863],[32.8439926,39.835387],[32.8440596,39.8353687],[32.8440946,39.8353545],[32.8441369,39.8353286],[32.8441624,39.8353044],[32.8441995,39.8352818],[32.8442243,39.8352748],[32.8442515,39.8352743],[32.8442706,39.8352748],[32.8443001,39.835267],[32.8443371,39.835258],[32.8443713,39.8352603],[32.8443893,39.8352761],[32.8444007,39.8352902],[32.8444223,39.835302],[32.8444525,39.8353049],[32.8444879,39.8353034],[32.8445131,39.8353036],[32.8445485,39.8353067],[32.8445738,39.8353133],[32.8446025,39.8353161],[32.8446321,39.8353225],[32.8446584,39.8353253],[32.844682,39.8353207],[32.8447076,39.8353105],[32.8447366,39.8353035],[32.8447588,39.8353018],[32.8447746,39.835311],[32.8447763,39.8353226],[32.844792,39.8353318],[32.8448246,39.8353323],[32.8448669,39.8353147],[32.8448918,39.8352946],[32.8449345,39.8352781],[32.844972,39.8352581],[32.8450139,39.8352422],[32.8450399,39.8352376],[32.8450616,39.8352397],[32.8450825,39.8352464],[32.8451053,39.835248],[32.8451434,39.8352417],[32.8451684,39.8352319],[32.845192,39.835223],[32.8452134,39.8352201],[32.8452292,39.8352199],[32.8452449,39.8352303],[32.8452631,39.8352471],[32.8452803,39.8352601],[32.8453029,39.835265],[32.8453368,39.835263],[32.8453783,39.8352531],[32.8454344,39.8352387],[32.8454766,39.8352417],[32.8455067,39.8352578],[32.8455299,39.8352759],[32.8455569,39.8352853],[32.8455901,39.8352845],[32.8456262,39.8352715],[32.8456668,39.8352527],[32.8457213,39.835239],[32.8457686,39.8352367],[32.8458349,39.8352391],[32.8459018,39.8352493]]}},{"type":"Feature","properties":{"intermittent":"yes","waterway":"stream","osm_id":1323579990},"geometry":{"type":"LineString","coordinates":[[32.8668641,39.8273035],[32.8666896,39.8275196],[32.8664753,39.8277792],[32.8663372,39.8279836],[32.866183,39.828202],[32.8660346,39.8283461],[32.8659365,39.8284687],[32.8658883,39.8285598],[32.8658135,39.8286189],[32.8657014,39.8286776],[32.8656504,39.8287351],[32.8656021,39.8287992],[32.8655262,39.8288735],[32.8654583,39.8289702],[32.8653314,39.8291833],[32.8652365,39.8292888],[32.8651764,39.8293726],[32.8650952,39.8294975],[32.8649871,39.8296363],[32.864929,39.8297229],[32.864844,39.8298799],[32.8647837,39.8299581],[32.8646776,39.8300726],[32.8645842,39.8301641],[32.86455,39.8301864],[32.864431,39.830243],[32.8643684,39.8302756],[32.8643345,39.8303089],[32.8642863,39.8303812],[32.8642655,39.8304449],[32.8642578,39.8305208],[32.864239,39.8306244],[32.8642313,39.8306645],[32.8642419,39.8306915],[32.8642562,39.8307302],[32.8642553,39.8307685],[32.8642419,39.8308037],[32.8642151,39.8308377],[32.8641763,39.8308611],[32.8641439,39.8308659],[32.8640958,39.8308734],[32.8640597,39.8308947],[32.8640227,39.8309132],[32.8640022,39.8309455],[32.8639884,39.8309768],[32.8639615,39.8309927],[32.8639196,39.8310236],[32.8638837,39.8310516],[32.8638492,39.8310807],[32.8638312,39.8311146],[32.8638039,39.8311337],[32.8637514,39.8312026],[32.8637353,39.8312358],[32.8636523,39.8313099],[32.8636121,39.8313527],[32.863594,39.8313867],[32.8635827,39.8314148],[32.8635452,39.831442],[32.8635187,39.8314609],[32.8634961,39.8314908],[32.8634575,39.8315436],[32.8634213,39.8315749],[32.8633929,39.8315895],[32.8633702,39.8316087],[32.8633305,39.8316629],[32.8632961,39.8317446],[32.8632651,39.8318077],[32.8632228,39.8318749],[32.8632249,39.8319063],[32.863224,39.8319476],[32.8632089,39.8320036],[32.8631874,39.8320236],[32.8631675,39.8320706],[32.8631411,39.8321286],[32.8631148,39.8321679],[32.8630944,39.8321979],[32.8630678,39.8322121],[32.8630504,39.8322201],[32.8630482,39.8322428],[32.8630299,39.8322758],[32.8629861,39.8323237],[32.862948,39.8323496],[32.8629275,39.8323755],[32.8628965,39.8324009],[32.8628619,39.8324408],[32.8628536,39.8324679],[32.8628204,39.8325308],[32.8627892,39.8325689],[32.8627238,39.8326162],[32.862647,39.8326666],[32.8625885,39.832709],[32.8625343,39.8327573],[32.8624991,39.8328089],[32.8624757,39.8328711],[32.8624694,39.8329378],[32.8624531,39.8330322],[32.8624373,39.8331396],[32.8624046,39.8332287],[32.8623916,39.8333502],[32.8623818,39.8334141]]}},{"type":"Feature","properties":{"natural":"water","water":"canal","osm_id":1324857120},"geometry":{"type":"Polygon","coordinates":[[[32.8496567,39.8351206],[32.8497984,39.8352131],[32.8498503,39.8351737],[32.8498637,39.8350345],[32.849855,39.8350153],[32.8495544,39.8348051],[32.8494119,39.83494],[32.8493899,39.8349342],[32.849374,39.8349396],[32.8493643,39.8349534],[32.8493664,39.8349674],[32.8493686,39.8349766],[32.849199,39.8350953],[32.8493153,39.8351997],[32.8494717,39.8350886],[32.8494893,39.8351031],[32.8495145,39.8350815],[32.8495526,39.8350489],[32.8496281,39.8351009],[32.8496567,39.8351206]]]}},{"type":"Feature","properties":{"natural":"water","water":"pond","osm_id":1326335777},"geometry":{"type":"Polygon","coordinates":[[[32.8407019,39.8445865],[32.8407042,39.8445919],[32.8407109,39.8445973],[32.8407274,39.8446005],[32.840737,39.8446035],[32.8407436,39.8446036],[32.8407462,39.8445988],[32.840745,39.8445923],[32.8407408,39.8445867],[32.8407369,39.8445826],[32.8407221,39.8445844],[32.8407069,39.8445846],[32.8407019,39.8445865]]]}},{"type":"Feature","properties":{"natural":"water","water":"pond","osm_id":1326335778},"geometry":{"type":"Polygon","coordinates":[[[32.840691,39.8445931],[32.8406834,39.8446026],[32.8406776,39.8446108],[32.840674,39.8446172],[32.8406742,39.8446231],[32.8406777,39.8446289],[32.8406832,39.8446307],[32.8406928,39.8446318],[32.8407004,39.8446339],[32.8407086,39.8446383],[32.8407184,39.8446394],[32.8407301,39.8446394],[32.8407432,39.8446377],[32.8407523,39.8446358],[32.8407578,39.8446322],[32.8407596,39.8446277],[32.840759,39.8446233],[32.8407547,39.8446179],[32.8407449,39.8446131],[32.8407342,39.844609],[32.840721,39.8446077],[32.840712,39.8446059],[32.8407045,39.8446033],[32.8406979,39.8445982],[32.8406967,39.844593],[32.840691,39.8445931]]]}},{"type":"Feature","properties":{"natural":"water","water":"canal","osm_id":1327566991},"geometry":{"type":"Polygon","coordinates":[[[32.8471218,39.8301955],[32.8471305,39.8301762],[32.847522,39.8302815],[32.847514,39.830299],[32.8473173,39.8303318],[32.8472044,39.8305619],[32.8471045,39.830533],[32.8472166,39.8303042],[32.8471218,39.8301955]]]}},{"type":"Feature","properties":{"intermittent":"yes","waterway":"river","osm_id":1357073426},"geometry":{"type":"LineString","coordinates":[[32.9342552,39.8149988],[32.9340192,39.8149247],[32.9337939,39.8149164],[32.9334184,39.8149576],[32.9331072,39.8149576],[32.9329034,39.8149082],[32.9327532,39.8148834],[32.9324957,39.8148587],[32.9321309,39.8148999],[32.9318198,39.8149576],[32.9314979,39.8150318],[32.9311331,39.8150895],[32.9307576,39.8150977],[32.930425,39.8150895],[32.9301354,39.8151142],[32.9298993,39.8151142],[32.9296847,39.8150812],[32.929438,39.8150318],[32.92932,39.8150318],[32.9291268,39.8150153],[32.9289445,39.815073],[32.9286119,39.8152131],[32.9282685,39.8154686],[32.9280432,39.8155922],[32.9278072,39.8156581],[32.9275604,39.8156828],[32.9273029,39.8156828],[32.9270669,39.8156663],[32.9268309,39.8156746],[32.9266914,39.8156499],[32.926509,39.8156334],[32.9263803,39.8156087],[32.9261228,39.8155345],[32.9259511,39.8155098],[32.9257043,39.8154521],[32.9255649,39.8153861],[32.9254147,39.8152543],[32.9253074,39.8151554],[32.9251464,39.815106],[32.924889,39.815106],[32.9247924,39.8150565],[32.9247066,39.8149247],[32.9244813,39.8147269],[32.9241701,39.8145868],[32.9239985,39.8145703],[32.9237517,39.8145703],[32.923462,39.8145703],[32.923226,39.8145291],[32.9230329,39.8144384],[32.9227539,39.8143148],[32.9224213,39.8141994],[32.9220351,39.8140841],[32.9218098,39.8139852],[32.9216596,39.8138945],[32.9215308,39.8137462],[32.9214197,39.8136147],[32.9212225,39.8134963],[32.9211362,39.8134253],[32.921013,39.8133401],[32.9208589,39.8132407],[32.920785,39.8132265],[32.9206679,39.8132265],[32.9205508,39.8132265],[32.9204091,39.8131697],[32.9202858,39.8131082],[32.9201626,39.8130041],[32.9200701,39.8128795],[32.919936,39.8127415],[32.919826,39.8126694],[32.9195953,39.8125581],[32.9194773,39.8125169],[32.9194183,39.812486],[32.9193674,39.8124366],[32.9192681,39.8123665],[32.919016,39.8122202],[32.9188926,39.8121749],[32.918737,39.8121337],[32.918619,39.8120801],[32.9185198,39.8120183],[32.918442,39.8119627],[32.9183669,39.8118865],[32.9182784,39.8117958],[32.918163,39.8116907],[32.9181094,39.8116598],[32.917986,39.8116248],[32.9178546,39.8116124],[32.9176293,39.8116186],[32.9174603,39.8116063],[32.9173476,39.8115877],[32.9171867,39.8115197],[32.9170285,39.8114373],[32.9168407,39.8113508],[32.9167656,39.8113281],[32.916661,39.8113137],[32.9165296,39.8113137],[32.9163606,39.8113199],[32.916264,39.8113425],[32.9161541,39.8113817],[32.9160253,39.811427],[32.9158993,39.8114579],[32.9157625,39.8114744],[32.9155425,39.8114971],[32.9153655,39.8115197],[32.915218,39.8115177],[32.9151107,39.811495],[32.9148012,39.8114304],[32.9145397,39.8113084],[32.9141755,39.8111075],[32.9136711,39.8108779],[32.9131854,39.8106842],[32.9127464,39.8104905],[32.9124382,39.8102896],[32.91213,39.8100672],[32.9117284,39.8098376],[32.9115603,39.809773],[32.9112147,39.8096798],[32.9109905,39.8096654],[32.9106823,39.8096869],[32.9105142,39.8096869],[32.9102433,39.8096224],[32.9100285,39.8095363],[32.9097763,39.8094645],[32.9096082,39.8094645],[32.909356,39.8094574],[32.9090758,39.8094502],[32.9088423,39.8094],[32.9085808,39.809321],[32.9083566,39.8092995],[32.9080858,39.8092852],[32.9078149,39.8092636],[32.9076001,39.8092565],[32.9074693,39.8091991],[32.9073573,39.8091273],[32.907159,39.8090483],[32.9068321,39.8089909],[32.9058701,39.8089406],[32.9053844,39.8089191],[32.9049828,39.8089263],[32.9047773,39.8088976],[32.9044597,39.8089048],[32.9041048,39.8089622],[32.9037312,39.8090483],[32.9033856,39.8091702],[32.9031401,39.8091634],[32.9027318,39.8091344],[32.902517,39.8091344],[32.9021434,39.8091344],[32.9019473,39.8091128],[32.901583,39.8090626],[32.9012748,39.8090626],[32.9010413,39.8090554],[32.9008171,39.8090483],[32.9004902,39.8090483],[32.9001633,39.8091057],[32.8999392,39.8091344],[32.899715,39.8091702],[32.8995469,39.8092133],[32.8993227,39.8092133],[32.8990519,39.8091272],[32.8988651,39.8090483],[32.8986316,39.8089693],[32.8983514,39.8089478],[32.8981552,39.8090052],[32.8979498,39.8090698],[32.8971932,39.80912],[32.8970625,39.8091631],[32.8959323,39.8095075],[32.8957829,39.8095146],[32.8955027,39.8096294],[32.8952505,39.8097586],[32.8949796,39.8099379],[32.8947928,39.8100599],[32.8944566,39.8102249],[32.8942511,39.8103469],[32.8941577,39.8104617],[32.8941297,39.8105693],[32.8940176,39.8106985],[32.8938588,39.8107989],[32.8937375,39.8108611],[32.8935226,39.8109711],[32.8934441,39.8110144],[32.8933273,39.8110851],[32.8932565,39.8111449],[32.8931397,39.8112536],[32.893076,39.8113162],[32.8930262,39.8113969],[32.8930088,39.8114575],[32.8929026,39.8116777],[32.8928283,39.8118816],[32.8927256,39.8120611],[32.8925381,39.8122894],[32.8923151,39.812496],[32.891632,39.8131703],[32.8912923,39.8135645],[32.8910943,39.813816],[32.890333,39.8148345],[32.8902234,39.8149808],[32.8902022,39.8150515],[32.8901951,39.8151358],[32.890188,39.8152146],[32.8901527,39.8152663],[32.8900925,39.8153098],[32.8899686,39.8153804],[32.8896112,39.815568],[32.8893068,39.8157012],[32.8891688,39.8157801],[32.889052,39.8158535],[32.8888538,39.8159731],[32.8885989,39.8161226],[32.888517,39.8161827],[32.8884903,39.8162217],[32.8884765,39.8162678],[32.8884657,39.8162962],[32.8884349,39.8163341],[32.8883486,39.8163992],[32.8881876,39.8165179],[32.888116,39.8165708],[32.8880805,39.8166122],[32.888022,39.8166855],[32.8879758,39.8167388],[32.8879156,39.8167908],[32.8877734,39.8169226],[32.8875454,39.8170854],[32.8874206,39.8171671],[32.887043,39.8174455],[32.8870081,39.8174754],[32.8869813,39.8175083],[32.8869558,39.8175392],[32.8869347,39.8175788],[32.8868367,39.8177661],[32.886756,39.8179533],[32.8866849,39.8180677],[32.8865843,39.8181954],[32.8863841,39.8184629],[32.8863371,39.8185209],[32.8861011,39.818766],[32.8858838,39.8190112],[32.8857605,39.8191163],[32.8856076,39.8192172],[32.8854708,39.8192831],[32.8853447,39.8193223],[32.8850872,39.8193552],[32.8848887,39.8193758],[32.884752,39.8193944],[32.8846259,39.8194232],[32.8845159,39.8194644],[32.8842101,39.819623],[32.8840814,39.8197054],[32.8839231,39.8198023],[32.8837059,39.8199465],[32.8836147,39.8200145],[32.8835155,39.8201072],[32.8833009,39.8202885],[32.8832445,39.8203297],[32.8831694,39.8203709],[32.883124,39.8203905],[32.8830461,39.8204306],[32.8828744,39.8205398],[32.8827135,39.820649],[32.8826276,39.8207355],[32.8825257,39.8208632],[32.8823321,39.8210528],[32.8822816,39.8211125],[32.8820966,39.8213123],[32.8819571,39.8214318],[32.8818686,39.8215183],[32.8817988,39.8216028],[32.8816835,39.8217593],[32.8816121,39.8218734],[32.8813375,39.8222476],[32.8811765,39.8224996],[32.8810662,39.8228587],[32.8810024,39.8229885],[32.8808093,39.8232522],[32.880643,39.82352],[32.8805089,39.8237672],[32.8803373,39.8240638],[32.8802114,39.8242085],[32.880118,39.8242874],[32.8799825,39.8243484],[32.8797444,39.8244488],[32.8794175,39.8245241],[32.879198,39.8245779],[32.8790812,39.8246425],[32.8789084,39.8248254],[32.8787824,39.8250262],[32.8784924,39.825476],[32.8783637,39.8256985],[32.8782832,39.8257809],[32.8782028,39.8258633],[32.8780901,39.8259292],[32.8779614,39.8260075],[32.8778273,39.8261063],[32.8776878,39.8262176],[32.8775215,39.8263659],[32.8773552,39.8265554],[32.8771352,39.8267985],[32.8768778,39.8270704],[32.876595,39.8274347],[32.8759273,39.8282321],[32.8754318,39.8287757],[32.8751345,39.8293736],[32.8750708,39.8296182],[32.8750637,39.8297868],[32.8750495,39.8299825],[32.875,39.8301999],[32.8748797,39.8304717],[32.8747522,39.8306837],[32.8746248,39.8308141],[32.8744903,39.8308848],[32.8742638,39.831037],[32.8741152,39.8311457],[32.8739949,39.8312436],[32.873733,39.8314229],[32.8735772,39.8316132],[32.8733366,39.8317926],[32.8730959,39.8319882],[32.8729331,39.832222],[32.8727491,39.8324612],[32.8725579,39.8326786],[32.8722536,39.8329232],[32.871843,39.8332113],[32.8711352,39.8335754],[32.8707742,39.8337385],[32.8705194,39.8337711],[32.8702929,39.8337766],[32.870123,39.8337929],[32.8700168,39.8338092],[32.8698398,39.8339125],[32.8696133,39.8340973],[32.8692877,39.8343419],[32.8686294,39.834706],[32.8678862,39.8350865],[32.8673907,39.8351952],[32.8671217,39.8352768],[32.8667395,39.8353855],[32.8663785,39.8354996],[32.8662369,39.835554],[32.8660458,39.8356572],[32.8657981,39.8358692],[32.8654937,39.8362225],[32.8642621,39.8374074],[32.8637666,39.8377987],[32.8633065,39.8380379],[32.862961,39.8382142],[32.862866,39.8382743],[32.8627896,39.8383291],[32.8627278,39.8383965],[32.8626383,39.8385429],[32.8625986,39.8386451],[32.8625589,39.8387796],[32.8625192,39.8388692],[32.8624538,39.8389588],[32.8623745,39.8390324],[32.8622927,39.8390933],[32.8622017,39.8391346],[32.8621121,39.8391668]]}},{"type":"Feature","properties":{"intermittent":"yes","waterway":"stream","osm_id":1357075365},"geometry":{"type":"LineString","coordinates":[[32.8828879,39.8312833],[32.8825919,39.8314849],[32.8823654,39.8317404],[32.8821602,39.8319198],[32.8818841,39.8321698],[32.8815514,39.8323927],[32.8812258,39.8326264],[32.8809639,39.8328275],[32.8805746,39.833045],[32.8804118,39.8330993],[32.8802348,39.8331917],[32.8801003,39.8333439],[32.8799517,39.8335613],[32.8797535,39.8336701],[32.8795624,39.8337625],[32.8794916,39.8338277],[32.87935,39.8340125],[32.8790032,39.8344256],[32.8787908,39.8346539],[32.8786493,39.8348441],[32.8784935,39.8350398],[32.8784086,39.83523],[32.8782387,39.8355725],[32.8781396,39.8357627],[32.8780547,39.8358932],[32.8780051,39.8360671],[32.8779131,39.8362084],[32.877814,39.8362954],[32.8777078,39.8363823],[32.8775026,39.8365074],[32.8774176,39.8366161],[32.8773256,39.8367248],[32.8772053,39.836828],[32.877092,39.8370346],[32.8769859,39.8372302],[32.8768655,39.8374477],[32.876724,39.8376596],[32.876639,39.8378009],[32.876639,39.8379042],[32.8766461,39.8379749],[32.8766673,39.8380673],[32.8767381,39.8381705],[32.8767593,39.8382575],[32.8767664,39.8383934],[32.8767027,39.8385782],[32.8766107,39.8386923],[32.8764833,39.8388065],[32.8764196,39.8388717],[32.8764408,39.8389369],[32.8764762,39.8389912],[32.8766532,39.8390347],[32.8768018,39.8390619],[32.8769434,39.8391434],[32.8769929,39.8392141],[32.8770142,39.8393174],[32.8769221,39.8394206],[32.876823,39.8395728],[32.8766673,39.8397032],[32.8764691,39.8398826],[32.8763842,39.8400076],[32.876363,39.8401109],[32.876455,39.8402141],[32.8766107,39.8403228],[32.8767523,39.8404315],[32.8768514,39.8405402],[32.8768726,39.8406326],[32.8768514,39.8407196],[32.8767947,39.8409044],[32.876731,39.8410729],[32.876731,39.8412142],[32.8768352,39.8415113],[32.8769092,39.841758],[32.876901,39.8419203],[32.8768441,39.8421201],[32.8766734,39.8423511],[32.8763806,39.842607],[32.8761448,39.8427631],[32.8757058,39.8429629],[32.8755838,39.8430628],[32.8753968,39.8433624],[32.8750716,39.8439492],[32.8749496,39.8442114],[32.8748602,39.8445548],[32.8748195,39.8447109],[32.8747463,39.8447858],[32.8744943,39.8449294],[32.8742747,39.845048],[32.874104,39.8451416],[32.8737381,39.8452602],[32.8733641,39.8453476],[32.8730957,39.8454225],[32.872925,39.8455287],[32.8726567,39.8457846],[32.872307,39.8460343],[32.8719329,39.8461645],[32.8718568,39.846216],[32.8717916,39.8462778],[32.8717541,39.8463277],[32.8717379,39.8464339],[32.8717297,39.8465774],[32.8717003,39.8467292],[32.8716728,39.8468147],[32.871647,39.8468869],[32.8715904,39.8469544],[32.8714533,39.8470581],[32.871358,39.8471166],[32.8712196,39.847175],[32.8710348,39.8472389],[32.8705407,39.8473599]]}},{"type":"Feature","properties":{"intermittent":"yes","waterway":"stream","osm_id":1357075366},"geometry":{"type":"LineString","coordinates":[[32.8703534,39.8473996],[32.8701723,39.8474365]]}},{"type":"Feature","properties":{"intermittent":"yes","layer":"-1","tunnel":"culvert","waterway":"stream","osm_id":1357075367},"geometry":{"type":"LineString","coordinates":[[32.8705407,39.8473599],[32.8703534,39.8473996]]}},{"type":"Feature","properties":{"intermittent":"yes","waterway":"stream","osm_id":1357075368},"geometry":{"type":"LineString","coordinates":[[32.8999693,39.8205192],[32.899757,39.8205844],[32.8994738,39.8207584],[32.8992898,39.8208889],[32.899035,39.8210629],[32.898864,39.8211803],[32.8987377,39.8213456],[32.8985678,39.8215195],[32.8983979,39.8216174],[32.8980582,39.8218022],[32.8977467,39.8219436],[32.8975202,39.8221175],[32.8972795,39.822248],[32.8968124,39.822422],[32.8963169,39.8226612],[32.8954533,39.8231178],[32.8949012,39.8233679],[32.8941934,39.8236615],[32.8939527,39.8238028],[32.8936412,39.8240529],[32.8932873,39.8243682],[32.8931316,39.8245095],[32.8929334,39.8246509],[32.892537,39.8247705],[32.8922822,39.8248575],[32.8921123,39.8249553],[32.8919283,39.8251184],[32.8916876,39.8253141],[32.8914894,39.8254989],[32.8912346,39.8256403],[32.8907957,39.8257816],[32.8904135,39.8259012],[32.8900454,39.8260317],[32.8898472,39.8261839],[32.8897481,39.8263796],[32.889649,39.8265209],[32.8895216,39.8266514],[32.8892385,39.8267492],[32.8889695,39.8269015],[32.8885731,39.8271189],[32.88829,39.8273363],[32.8880635,39.8275538],[32.8878228,39.8277386],[32.8876812,39.8278365],[32.8876246,39.8279669],[32.8876105,39.8281952],[32.8876246,39.8284235],[32.8875821,39.8285866],[32.8874972,39.8286627],[32.8872848,39.8287388],[32.8871008,39.8288149],[32.8869168,39.8289345],[32.886761,39.8290976],[32.8866383,39.8292581],[32.8864967,39.8294375],[32.8862702,39.8296168],[32.8859517,39.8298125],[32.8856898,39.8299702],[32.8854353,39.8301302]]}},{"type":"Feature","properties":{"intermittent":"yes","layer":"-1","tunnel":"culvert","waterway":"stream","osm_id":1357075369},"geometry":{"type":"LineString","coordinates":[[32.8854353,39.8301302],[32.8828879,39.8312833]]}},{"type":"Feature","properties":{"artificial":"yes","intermittent":"yes","natural":"water","water":"basin","waterway":"waterfall","osm_id":1395057682},"geometry":{"type":"Polygon","coordinates":[[[32.8297779,39.8786751],[32.8298021,39.8786539],[32.8298333,39.8786512],[32.8298488,39.8786698],[32.8298575,39.8787057],[32.829861,39.8787721],[32.8298471,39.8788584],[32.8298068,39.8789331],[32.8297607,39.8789868],[32.8297462,39.8790163],[32.829759,39.8790458],[32.8297351,39.879072],[32.8297351,39.8791113],[32.8297505,39.8791381],[32.8297616,39.8791578],[32.8298486,39.8792416],[32.829858,39.8792803],[32.8298503,39.8793084],[32.8298401,39.8793176],[32.8298665,39.8793471],[32.829893,39.8793772],[32.8299049,39.8794021],[32.8299032,39.879442],[32.8298964,39.8794499],[32.8298674,39.8794708],[32.8298264,39.8794754],[32.8297692,39.8794571],[32.829736,39.8794276],[32.8297018,39.8793929],[32.829689,39.8793457],[32.8296924,39.879313],[32.8296976,39.8792914],[32.8297266,39.8792842],[32.8297488,39.8792822],[32.8297343,39.8792521],[32.8297308,39.8792351],[32.8296941,39.8791918],[32.8296882,39.8791755],[32.829654,39.879146],[32.8296233,39.8791244],[32.8295943,39.8790864],[32.8295866,39.8790432],[32.829596,39.8790235],[32.8296122,39.8790098],[32.8295917,39.8789947],[32.8295806,39.8789685],[32.8295747,39.878958],[32.8295644,39.878958],[32.8295601,39.8789416],[32.8295661,39.8789318],[32.8295533,39.8789089],[32.8295516,39.8788709],[32.8295525,39.8788362],[32.8295661,39.8788139],[32.8295866,39.8788106],[32.8296267,39.8788165],[32.8296574,39.8788401],[32.8296865,39.8788644],[32.829701,39.8788761],[32.8297214,39.8788696],[32.8297351,39.8788801],[32.8297633,39.8788427],[32.8297718,39.8788021],[32.8297735,39.8787491],[32.8297761,39.8787072],[32.8297779,39.8786751]]]}}]}